{"type":"FeatureCollection","features":[{"type":"Feature","id":86648,"geometry":{"type":"Polygon","coordinates":[[[127.06053606205661,37.50250818355141],[127.06005542366428,37.50251409898099],[127.06002169385746,37.50247789555929],[127.06007914648838,37.50233523906494],[127.06016730036251,37.50211643294311],[127.06022023752185,37.5019849509927],[127.06026606335908,37.50187086182076],[127.06028954069372,37.50181255554882],[127.06032938428778,37.50171351599812],[127.06041731101652,37.501495340479],[127.06046501632376,37.50147107982724],[127.06058365800864,37.50148291374751],[127.06078870794381,37.5015032637128],[127.06093336271454,37.501517697123155],[127.06108050568491,37.50153230930152],[127.06125467960925,37.501549610626384],[127.06126338093846,37.50154122694094],[127.06138045319845,37.50142845277317],[127.06147221225618,37.501340018294485],[127.06156860420157,37.501247076396155],[127.06166363997978,37.50115557670575],[127.0617816701725,37.50104015090813],[127.06178855172828,37.50102750458674],[127.06182187007786,37.50103557314421],[127.06191510589962,37.50109697361079],[127.06197496248421,37.5011364067272],[127.06203127806442,37.50113214320117],[127.06209738438419,37.50106831862877],[127.062214680394,37.500955002912036],[127.06231615580754,37.50085692209469],[127.06257807650168,37.50060387491924],[127.06261707754472,37.50056619481726],[127.06261775555313,37.50056554574765],[127.0627270269881,37.50046000027074],[127.06271580268748,37.50042513744091],[127.06279532536287,37.50045068457906],[127.06281732023069,37.500457744205136],[127.06303762655216,37.5005284049259],[127.0630514593217,37.50057209615171],[127.0629441609799,37.50067550913811],[127.06299649775241,37.50070997754354],[127.06320842967288,37.50084952183468],[127.06314400126865,37.500911545960484],[127.06327202970202,37.50099568101832],[127.06333642200843,37.50093380821021],[127.0635372999043,37.50074022430614],[127.06352345324389,37.50069652593788],[127.06356748852143,37.500710670118174],[127.06358132163338,37.5007543612803],[127.06337125458404,37.50095674561759],[127.06319440874114,37.50112721688972],[127.06311609915869,37.50120276141857],[127.0630366593259,37.501279297581405],[127.06295733234788,37.5013557435314],[127.06281246417198,37.50149538344018],[127.06271923749959,37.50158526131477],[127.06262499359096,37.50167613073889],[127.06253899859368,37.50175897694045],[127.06249063339702,37.50180558352846],[127.06237548331372,37.50191655580188],[127.0622979630665,37.50199128847366],[127.062220329646,37.50206611125167],[127.06207319855997,37.50220782369677],[127.06198369924948,37.50229409507677],[127.0619312380887,37.50231097058463],[127.06160675388325,37.502282574431284],[127.06152373618121,37.502275307730365],[127.06146845263515,37.50229561907187],[127.06115426139559,37.502411105878494],[127.06090225417498,37.50250367524929],[127.06075636404236,37.502505460392186],[127.06073355782416,37.502505471826076],[127.06053606205661,37.50250818355141]]]},"properties":{"OBJECTID":86648,"PRESENT_SN":"11000UQ181PS201912150397","LCLAS_CL":"UQ1200","MLSFC_CL":"UQ1240","SCLAS_CL":" ","ATRB_SE":"UQ1240","WTNNC_SN":"11000AGZ201410270198","NTFC_SN":"11000NTC201312127036","DGM_NM":"대치동 구마을 제1지구 주택재건축 정","SIGNGU_SE":"11000","DRAWING_NO":" ","CREATE_DAT":1576368000000,"DGM_AR":29532.08232423,"DGM_LT":949.91697677,"SHAPE.AREA":29532.08232414,"SHAPE.LEN":949.916976773586}}]}