{"type":"FeatureCollection","features":[{"type":"Feature","id":85690,"geometry":{"type":"Polygon","coordinates":[[[127.04532599488203,37.493158018197114],[127.04545255230873,37.49319680429063],[127.0456082894084,37.49324458935967],[127.04602008322972,37.49337093532535],[127.0467546653483,37.49359635676489],[127.04662332269176,37.49387616737792],[127.0464995272392,37.49392045365875],[127.04602032202757,37.49377341179675],[127.04532803953295,37.4935610346156],[127.04509553012858,37.49352832421761],[127.04417287108537,37.49324511632889],[127.0438928401339,37.49315917162423],[127.04405976840187,37.49280375731791],[127.04411132140099,37.49278526824698],[127.04532599488203,37.493158018197114]]]},"properties":{"OBJECTID":85690,"PRESENT_SN":"11000UQ181PS201912150778","LCLAS_CL":"UQ1200","MLSFC_CL":"UQ1240","SCLAS_CL":" ","ATRB_SE":"UQ1240","WTNNC_SN":"11000AGZ201710250367","NTFC_SN":"11000NTC201707208210","DGM_NM":"도곡삼호아파트 주택재건축정비사업","SIGNGU_SE":"11000","DRAWING_NO":" ","CREATE_DAT":1576368000000,"DGM_AR":11042.24785005,"DGM_LT":588.64217115,"SHAPE.AREA":11042.24785,"SHAPE.LEN":588.642171146249}}]}