{"type":"FeatureCollection","features":[{"type":"Feature","id":86324,"geometry":{"type":"Polygon","coordinates":[[[126.85863545510803,37.54968069222121],[126.8585596069738,37.54969561993108],[126.8584396742779,37.5497202789409],[126.8583176954166,37.54974380009958],[126.85823380835818,37.549760907257564],[126.8582486708321,37.54974104043366],[126.85822589538583,37.549673708819796],[126.85819971878945,37.54968649814558],[126.8579222202876,37.5496268037823],[126.85793067194983,37.54961586702654],[126.85797927168058,37.5495530369839],[126.8580146089521,37.549501822589995],[126.85815722786357,37.54931909476984],[126.85820555788013,37.54925508400565],[126.858324055447,37.54909886086761],[126.85837652449513,37.549030205939026],[126.85869019372275,37.54898012126676],[126.85864611028543,37.548912439594304],[126.85867765529488,37.548908963893055],[126.85870299711699,37.54890054325359],[126.85884028850035,37.548857560780085],[126.85890495412565,37.54883730353865],[126.85916439289775,37.5487584825802],[126.85923820304308,37.54871973884387],[126.85936470871913,37.54865329898959],[126.85972018633906,37.54846724836485],[126.85985267420115,37.548396526452265],[126.85997187114198,37.54833469925638],[126.86014978984879,37.548241605799525],[126.86033378092067,37.5481446090337],[126.8603921414496,37.5481128738255],[126.86041407193781,37.54810095289675],[126.8605742591737,37.54801882969276],[126.86059610905293,37.548007620416364],[126.86063965757607,37.54802947635081],[126.86074972748489,37.548084658139594],[126.86087921741377,37.548151152368014],[126.86100243238828,37.54821483690656],[126.86115993135628,37.548292806731965],[126.86123420595271,37.54820469702029],[126.86137962246958,37.548287121112295],[126.86152413019111,37.54837158919559],[126.86154675690112,37.5483866986],[126.86163331747596,37.54844553674599],[126.86167752035067,37.54857173678937],[126.8615985805514,37.54858278853488],[126.8615104494948,37.548601217453125],[126.86144106595843,37.54861540686023],[126.8614211526939,37.54861971700173],[126.861314164256,37.5486405470643],[126.86132885650524,37.54869289403798],[126.86138125485732,37.548841727787604],[126.86139202056697,37.5488819247399],[126.86142643274977,37.548991039479574],[126.86140397162976,37.54899620253612],[126.86142606541273,37.549066388878245],[126.86141868437166,37.54906790279545],[126.86144312869618,37.549133794197665],[126.86127907285446,37.54916599008779],[126.86112272527596,37.54919711372584],[126.86096309515656,37.54922860265567],[126.86079932031895,37.54926159108445],[126.86074772200469,37.5492714945401],[126.86069343875307,37.549282971504596],[126.86054764209551,37.54931164725836],[126.86038927075951,37.54934146107195],[126.86022311954777,37.5493741575435],[126.86007027886171,37.54940543715068],[126.85989988021213,37.549440002139114],[126.85972951820484,37.5494730622713],[126.8595701782875,37.54950605431809],[126.85945923597761,37.54952830150729],[126.85933369136086,37.549552738437306],[126.8592944390997,37.54956247592389],[126.8591285541625,37.54959745968955],[126.85906941558781,37.54960900213095],[126.85901591644041,37.54961255055378],[126.85893138412852,37.54961805267332],[126.85880256652098,37.549643665383286],[126.85868275263918,37.54967137914126],[126.85863545510803,37.54968069222121]]]},"properties":{"OBJECTID":86324,"PRESENT_SN":"11000UQ181PS201912150593","LCLAS_CL":"UQ1200","MLSFC_CL":"UQ1240","SCLAS_CL":" ","ATRB_SE":"UQ1240","WTNNC_SN":"11000AGZ201711160394","NTFC_SN":"11000NTC201709278290","DGM_NM":"등촌1 주택재건축정비사업","SIGNGU_SE":"11000","DRAWING_NO":" ","CREATE_DAT":1576368000000,"DGM_AR":31039.96646804,"DGM_LT":866.46074715,"SHAPE.AREA":31039.966468,"SHAPE.LEN":866.4607471554981}},{"type":"Feature","id":87017,"geometry":{"type":"Polygon","coordinates":[[[126.85863545510803,37.54968069222121],[126.8585596069738,37.54969561993108],[126.8584396742779,37.5497202789409],[126.8583176954166,37.54974380009958],[126.85823380835818,37.549760907257564],[126.8582486708321,37.54974104043366],[126.85822589538583,37.549673708819796],[126.85819971878945,37.54968649814558],[126.8579222202876,37.5496268037823],[126.85793067194983,37.54961586702654],[126.85797927168058,37.5495530369839],[126.8580146089521,37.549501822589995],[126.85815722786357,37.54931909476984],[126.85820555788013,37.54925508400565],[126.858324055447,37.54909886086761],[126.85837652449513,37.549030205939026],[126.85869019372275,37.54898012126676],[126.85864611028543,37.548912439594304],[126.85867765529488,37.548908963893055],[126.85870299711699,37.54890054325359],[126.85884028850035,37.548857560780085],[126.85890495412565,37.54883730353865],[126.85916439289775,37.5487584825802],[126.85923820304308,37.54871973884387],[126.85936470871913,37.54865329898959],[126.85972018633906,37.54846724836485],[126.85985267420115,37.548396526452265],[126.85997187114198,37.54833469925638],[126.86014978984879,37.548241605799525],[126.86033378092067,37.5481446090337],[126.8603921414496,37.5481128738255],[126.86041407193781,37.54810095289675],[126.8605742591737,37.54801882969276],[126.86059610905293,37.548007620416364],[126.86063965757607,37.54802947635081],[126.86074972748489,37.548084658139594],[126.86087921741377,37.548151152368014],[126.86100243238828,37.54821483690656],[126.86115993135628,37.548292806731965],[126.86123420595271,37.54820469702029],[126.86137962246958,37.548287121112295],[126.86152413019111,37.54837158919559],[126.86154675690112,37.5483866986],[126.86163331747596,37.54844553674599],[126.86167752035067,37.54857173678937],[126.8615985805514,37.54858278853488],[126.8615104494948,37.548601217453125],[126.86144106595843,37.54861540686023],[126.8614211526939,37.54861971700173],[126.861314164256,37.5486405470643],[126.86132885650524,37.54869289403798],[126.86138125485732,37.548841727787604],[126.86139202056697,37.5488819247399],[126.86142643274977,37.548991039479574],[126.86140397162976,37.54899620253612],[126.86142606541273,37.549066388878245],[126.86141868437166,37.54906790279545],[126.86144312869618,37.549133794197665],[126.86127907285446,37.54916599008779],[126.86112272527596,37.54919711372584],[126.86096309515656,37.54922860265567],[126.86079932031895,37.54926159108445],[126.86074772200469,37.5492714945401],[126.86069343875307,37.549282971504596],[126.86054764209551,37.54931164725836],[126.86038927075951,37.54934146107195],[126.86022311954777,37.5493741575435],[126.86007027886171,37.54940543715068],[126.85989988021213,37.549440002139114],[126.85972951820484,37.5494730622713],[126.8595701782875,37.54950605431809],[126.85945923597761,37.54952830150729],[126.85933369136086,37.549552738437306],[126.8592944390997,37.54956247592389],[126.8591285541625,37.54959745968955],[126.85906941558781,37.54960900213095],[126.85901591644041,37.54961255055378],[126.85893138412852,37.54961805267332],[126.85880256652098,37.549643665383286],[126.85868275263918,37.54967137914126],[126.85863545510803,37.54968069222121]]]},"properties":{"OBJECTID":87017,"PRESENT_SN":"11000UQ181PS201912150593","LCLAS_CL":"UQ1200","MLSFC_CL":"UQ1240","SCLAS_CL":" ","ATRB_SE":"UQ1240","WTNNC_SN":"11000AGZ201711160394","NTFC_SN":"11000NTC201709278290","DGM_NM":"등촌1 주택재건축정비사업","SIGNGU_SE":"11000","DRAWING_NO":" ","CREATE_DAT":1576368000000,"DGM_AR":31039.96646804,"DGM_LT":866.46074715,"SHAPE.AREA":31039.966468,"SHAPE.LEN":866.4607471554981}}]}