{"type":"FeatureCollection","features":[{"type":"Feature","id":83935,"geometry":{"type":"Polygon","coordinates":[[[126.94247473224837,37.59376641070053],[126.94245700351075,37.59378678749959],[126.94245692984477,37.59378687125423],[126.94240491884088,37.59384665345016],[126.942323545056,37.59394040512307],[126.94230922588756,37.59400616978568],[126.94230614167417,37.594040225439905],[126.94227369252992,37.59412237891239],[126.94227041056287,37.5941273371828],[126.94226734166976,37.594134899404246],[126.9421647453164,37.59428891614586],[126.94214433822403,37.594320980917175],[126.94211905565324,37.5943612421868],[126.94202487245794,37.5944717455026],[126.94197989768301,37.594499202840204],[126.94191034451975,37.594535567493416],[126.94183864499705,37.594565534033244],[126.94176298965812,37.59458630848927],[126.9415856244412,37.59464171918381],[126.94152501937232,37.59467421392059],[126.94146542551766,37.594716439768305],[126.94139631460946,37.59476550821719],[126.94136855176762,37.594791622609996],[126.94129364861367,37.5948621314662],[126.94122950702335,37.59492687947343],[126.9411311538055,37.59487051769514],[126.94107671440533,37.5948393157838],[126.94103291484309,37.59481307471213],[126.94094259722348,37.59476185250224],[126.94084957132905,37.594709103464844],[126.94087063880285,37.59467337225397],[126.94089220517759,37.59463677635064],[126.94091908170856,37.594586695437975],[126.9409426693768,37.594542919719466],[126.94096342272609,37.59450346726551],[126.94101059960803,37.59441384354183],[126.94103202767923,37.594380067620634],[126.94105301789561,37.59432764109998],[126.9411001038352,37.59421017688166],[126.94114109306605,37.594070545313684],[126.9411592602088,37.59400838669829],[126.94116675672021,37.593979559038274],[126.94118303497751,37.593872710637214],[126.9411857669846,37.59385478244845],[126.94118598748841,37.593852343596964],[126.94119455911841,37.59375405060252],[126.94119175745067,37.593718009802586],[126.94120896929847,37.59358648120943],[126.9412112589105,37.59355548852182],[126.94122419054018,37.59339034471635],[126.9412346029558,37.593255833083674],[126.94124192522247,37.59316213445755],[126.94124375513225,37.593139520686236],[126.94124958686793,37.59306879639647],[126.94125198873174,37.59303897504224],[126.94125739867776,37.5929717553645],[126.94125942316708,37.59294653784685],[126.94126662916479,37.59285653319065],[126.94127429365257,37.592759591187125],[126.94128447325919,37.592632737783845],[126.94128642326953,37.592601564719516],[126.94128688010491,37.592596699637],[126.94129601826934,37.592507410440135],[126.94129886234734,37.59247958048321],[126.9412996761051,37.59247158916675],[126.94131107559994,37.59235957288764],[126.9413537563863,37.59208605577518],[126.9413676022746,37.592022267725824],[126.94136762273027,37.592022174934854],[126.94137970923342,37.59197221429656],[126.94140555833498,37.591987264894264],[126.94141521042646,37.59198093588848],[126.9414647140828,37.59195212958124],[126.9418193916486,37.59189140294387],[126.94188581587807,37.59194198625429],[126.94191125659334,37.591986507737296],[126.94193086568221,37.592003158821086],[126.94200333467124,37.5920986366666],[126.94203488637514,37.59214748592819],[126.94209209710392,37.59225139825097],[126.94213551956011,37.59232331866145],[126.94215203556018,37.592342608035835],[126.94228565383158,37.59247421888651],[126.94230748985613,37.592495763369186],[126.9423701581648,37.59257192796974],[126.94242455969646,37.592649620071185],[126.94253064851688,37.5928013133086],[126.94254263727312,37.592818438001885],[126.94254205349628,37.59284078212202],[126.94238311583676,37.59293854049271],[126.94225521921999,37.59301533031173],[126.94215337747234,37.59307654606931],[126.94212641765125,37.59309067796086],[126.94206864323405,37.593125156575624],[126.94198753244405,37.593173498552865],[126.94191254269934,37.59321337431277],[126.94185489117226,37.593235509399534],[126.94187569916859,37.59326840584158],[126.9419316897873,37.59334123364884],[126.94197569057035,37.593398468353485],[126.94197531572627,37.59342838084167],[126.94196949125337,37.59349081611186],[126.94197969576788,37.593615607575934],[126.9419968664225,37.59366625154891],[126.94200297109028,37.5936927345532],[126.94220018663754,37.59371834068972],[126.94228238390876,37.59372838289328],[126.94232727170822,37.59373853247392],[126.94237672558116,37.59370212146144],[126.9424388236351,37.593641606419546],[126.94253049214699,37.59370238761188],[126.94247473224837,37.59376641070053]]]},"properties":{"OBJECTID":83935,"PRESENT_SN":"11000UQ181PS201912150486","LCLAS_CL":"UQ1200","MLSFC_CL":"UQ1220","SCLAS_CL":"UQ1221","ATRB_SE":"UQ1221","WTNNC_SN":"11000AGZ200901027666","NTFC_SN":"11000NTC200810302310","DGM_NM":"홍은12구역주택재개발사업","SIGNGU_SE":"11000","DRAWING_NO":" ","CREATE_DAT":1576368000000,"DGM_AR":26398.1726166,"DGM_LT":885.84416993,"SHAPE.AREA":26398.172616585,"SHAPE.LEN":885.8441699322241}},{"type":"Feature","id":85822,"geometry":{"type":"Polygon","coordinates":[[[126.94247473224837,37.59376641070053],[126.94245700351075,37.59378678749959],[126.94245692984477,37.59378687125423],[126.94240491884088,37.59384665345016],[126.942323545056,37.59394040512307],[126.94230922588756,37.59400616978568],[126.94230614167417,37.594040225439905],[126.94227369252992,37.59412237891239],[126.94227041056287,37.5941273371828],[126.94226734166976,37.594134899404246],[126.9421647453164,37.59428891614586],[126.94214433822403,37.594320980917175],[126.94211905565324,37.5943612421868],[126.94202487245794,37.5944717455026],[126.94197989768301,37.594499202840204],[126.94191034451975,37.594535567493416],[126.94183864499705,37.594565534033244],[126.94176298965812,37.59458630848927],[126.9415856244412,37.59464171918381],[126.94152501937232,37.59467421392059],[126.94146542551766,37.594716439768305],[126.94139631460946,37.59476550821719],[126.94136855176762,37.594791622609996],[126.94129364861367,37.5948621314662],[126.94122950702335,37.59492687947343],[126.9411311538055,37.59487051769514],[126.94107671440533,37.5948393157838],[126.94103291484309,37.59481307471213],[126.94094259722348,37.59476185250224],[126.94084957132905,37.594709103464844],[126.94087063880285,37.59467337225397],[126.94089220517759,37.59463677635064],[126.94091908170856,37.594586695437975],[126.9409426693768,37.594542919719466],[126.94096342272609,37.59450346726551],[126.94101059960803,37.59441384354183],[126.94103202767923,37.594380067620634],[126.94105301789561,37.59432764109998],[126.9411001038352,37.59421017688166],[126.94114109306605,37.594070545313684],[126.9411592602088,37.59400838669829],[126.94116675672021,37.593979559038274],[126.94118303497751,37.593872710637214],[126.9411857669846,37.59385478244845],[126.94118598748841,37.593852343596964],[126.94119455911841,37.59375405060252],[126.94119175745067,37.593718009802586],[126.94120896929847,37.59358648120943],[126.9412112589105,37.59355548852182],[126.94122419054018,37.59339034471635],[126.9412346029558,37.593255833083674],[126.94124192522247,37.59316213445755],[126.94124375513225,37.593139520686236],[126.94124958686793,37.59306879639647],[126.94125198873174,37.59303897504224],[126.94125739867776,37.5929717553645],[126.94125942316708,37.59294653784685],[126.94126662916479,37.59285653319065],[126.94127429365257,37.592759591187125],[126.94128447325919,37.592632737783845],[126.94128642326953,37.592601564719516],[126.94128688010491,37.592596699637],[126.94129601826934,37.592507410440135],[126.94129886234734,37.59247958048321],[126.9412996761051,37.59247158916675],[126.94131107559994,37.59235957288764],[126.9413537563863,37.59208605577518],[126.9413676022746,37.592022267725824],[126.94136762273027,37.592022174934854],[126.94137970923342,37.59197221429656],[126.94140555833498,37.591987264894264],[126.94141521042646,37.59198093588848],[126.9414647140828,37.59195212958124],[126.9418193916486,37.59189140294387],[126.94188581587807,37.59194198625429],[126.94191125659334,37.591986507737296],[126.94193086568221,37.592003158821086],[126.94200333467124,37.5920986366666],[126.94203488637514,37.59214748592819],[126.94209209710392,37.59225139825097],[126.94213551956011,37.59232331866145],[126.94215203556018,37.592342608035835],[126.94228565383158,37.59247421888651],[126.94230748985613,37.592495763369186],[126.9423701581648,37.59257192796974],[126.94242455969646,37.592649620071185],[126.94253064851688,37.5928013133086],[126.94254263727312,37.592818438001885],[126.94254205349628,37.59284078212202],[126.94238311583676,37.59293854049271],[126.94225521921999,37.59301533031173],[126.94215337747234,37.59307654606931],[126.94212641765125,37.59309067796086],[126.94206864323405,37.593125156575624],[126.94198753244405,37.593173498552865],[126.94191254269934,37.59321337431277],[126.94185489117226,37.593235509399534],[126.94187569916859,37.59326840584158],[126.9419316897873,37.59334123364884],[126.94197569057035,37.593398468353485],[126.94197531572627,37.59342838084167],[126.94196949125337,37.59349081611186],[126.94197969576788,37.593615607575934],[126.9419968664225,37.59366625154891],[126.94200297109028,37.5936927345532],[126.94220018663754,37.59371834068972],[126.94228238390876,37.59372838289328],[126.94232727170822,37.59373853247392],[126.94237672558116,37.59370212146144],[126.9424388236351,37.593641606419546],[126.94253049214699,37.59370238761188],[126.94247473224837,37.59376641070053]]]},"properties":{"OBJECTID":85822,"PRESENT_SN":"11000UQ181PS201912150486","LCLAS_CL":"UQ1200","MLSFC_CL":"UQ1220","SCLAS_CL":"UQ1221","ATRB_SE":"UQ1221","WTNNC_SN":"11000AGZ200901027666","NTFC_SN":"11000NTC200810302310","DGM_NM":"홍은12구역주택재개발사업","SIGNGU_SE":"11000","DRAWING_NO":" ","CREATE_DAT":1576368000000,"DGM_AR":26398.1726166,"DGM_LT":885.84416993,"SHAPE.AREA":26398.172616585,"SHAPE.LEN":885.8441699322241}}]}