{"type":"FeatureCollection","features":[{"type":"Feature","id":85724,"geometry":{"type":"Polygon","coordinates":[[[126.98798932644107,37.496915195603975],[126.98811953618107,37.4967112629554],[126.98821190806217,37.49656788206314],[126.98823268162546,37.496567208651186],[126.98827021432253,37.496508027123284],[126.98830159370235,37.49645749448797],[126.98835700341252,37.49645752860364],[126.9884519368938,37.49645753103049],[126.990178127323,37.49646462447069],[126.99017862073349,37.49629013879356],[126.99081785359235,37.49628184524298],[126.99081805642813,37.49614414643374],[126.99094247176691,37.49619736254648],[126.9912361604034,37.49632311661567],[126.99133357365618,37.49636456291132],[126.99135402472545,37.49640652421009],[126.99122371413067,37.49723202735764],[126.99119656666073,37.497276010868276],[126.99087834971515,37.49748531538191],[126.99083958576128,37.49754589416606],[126.99074295347157,37.49769563775454],[126.9906735425862,37.49783070738743],[126.99066125815573,37.49785387004484],[126.99064648637449,37.49793574157192],[126.99064564760046,37.4979491303409],[126.99064744568054,37.498019228233524],[126.99048019245636,37.49802317442104],[126.9893095342428,37.49804692042363],[126.98908358895993,37.49805337234253],[126.98843761156921,37.498071810018544],[126.98842336357515,37.497082527619966],[126.98827446671979,37.49702422448553],[126.98810603024998,37.49695981828091],[126.98798932644107,37.496915195603975]]]},"properties":{"OBJECTID":85724,"PRESENT_SN":"11000UQ181PS202408220001","LCLAS_CL":"UQ1200","MLSFC_CL":"UQ1206","SCLAS_CL":" ","ATRB_SE":"UQ1206","WTNNC_SN":"11000AGZ202408210001","NTFC_SN":"11000NTC202408210001","DGM_NM":"방배신삼호아파트 주택재건축 정비사업","SIGNGU_SE":"11000","DRAWING_NO":" ","CREATE_DAT":1724284800000,"DGM_AR":44553.73993331,"DGM_LT":918.49153922,"SHAPE.AREA":44553.742394975,"SHAPE.LEN":918.4916609417451}},{"type":"Feature","id":85157,"geometry":{"type":"Polygon","coordinates":[[[126.98798932644107,37.496915195603975],[126.98811953618107,37.4967112629554],[126.98821190806217,37.49656788206314],[126.98823268162546,37.496567208651186],[126.98827021432253,37.496508027123284],[126.98830159370235,37.49645749448797],[126.98835700341252,37.49645752860364],[126.9884519368938,37.49645753103049],[126.990178127323,37.49646462447069],[126.99017862073349,37.49629013879356],[126.99081785359235,37.49628184524298],[126.99081805642813,37.49614414643374],[126.99094247176691,37.49619736254648],[126.9912361604034,37.49632311661567],[126.99133357365618,37.49636456291132],[126.99135402472545,37.49640652421009],[126.99122371413067,37.49723202735764],[126.99119656666073,37.497276010868276],[126.99087834971515,37.49748531538191],[126.99083958576128,37.49754589416606],[126.99074295347157,37.49769563775454],[126.9906735425862,37.49783070738743],[126.99066125815573,37.49785387004484],[126.99064648637449,37.49793574157192],[126.99064564760046,37.4979491303409],[126.99064744568054,37.498019228233524],[126.99048019245636,37.49802317442104],[126.9893095342428,37.49804692042363],[126.98908358895993,37.49805337234253],[126.98843761156921,37.498071810018544],[126.98842336357515,37.497082527619966],[126.98827446671979,37.49702422448553],[126.98810603024998,37.49695981828091],[126.98798932644107,37.496915195603975]]]},"properties":{"OBJECTID":85157,"PRESENT_SN":"11000UQ181PS202408220001","LCLAS_CL":"UQ1200","MLSFC_CL":"UQ1206","SCLAS_CL":" ","ATRB_SE":"UQ1206","WTNNC_SN":"11000AGZ202408210001","NTFC_SN":"11000NTC202408210001","DGM_NM":"방배신삼호아파트 주택재건축 정비사업","SIGNGU_SE":"11000","DRAWING_NO":" ","CREATE_DAT":1724284800000,"DGM_AR":44553.73993331,"DGM_LT":918.49153922,"SHAPE.AREA":44553.742394975,"SHAPE.LEN":918.4916609417451}}]}