{"type":"FeatureCollection","features":[{"type":"Feature","id":86612,"geometry":{"type":"Polygon","coordinates":[[[127.02359108226885,37.60131767818873],[127.02357443080817,37.601358607560634],[127.02354492000735,37.60143560208194],[127.02354084642701,37.60144623444318],[127.02353677284555,37.60145686680426],[127.0235188104336,37.60144933793442],[127.02350987463718,37.601445951902924],[127.02348687418034,37.60144257749904],[127.02346141506985,37.60143476620573],[127.0234359559647,37.60142695490691],[127.02342640427148,37.601424023979945],[127.02341685031412,37.601421093052615],[127.0234249298436,37.60140079240294],[127.02335210821805,37.60137677667446],[127.02332415778834,37.60136885318937],[127.02334484449409,37.60132118735658],[127.02326264536764,37.60129311888192],[127.0232501589415,37.601307383745024],[127.02322594198003,37.60128724221731],[127.02321210494338,37.60129108294948],[127.02317985838188,37.60130734260793],[127.02313518768767,37.60135761664796],[127.0231196367245,37.60138694649675],[127.02310840325325,37.60138740805336],[127.02304394775503,37.60139378977602],[127.02303918034266,37.60139405193041],[127.02299207776203,37.60137583361943],[127.02293616391033,37.60135387780859],[127.02291548361515,37.60134578172049],[127.02286600967,37.60132707365406],[127.02281653348429,37.60130836376524],[127.02279696975101,37.60130016834669],[127.02277740375716,37.60129197292532],[127.0226708613416,37.60123609506933],[127.02257010509466,37.60117794560717],[127.02255581022767,37.601164559545495],[127.02254683984421,37.601158713762956],[127.02253786946217,37.60115286797973],[127.02244728866393,37.60107621941426],[127.02243472833226,37.60106961743368],[127.02242216800285,37.60106301545177],[127.0224201863524,37.60106328609764],[127.02228165024677,37.6009537509883],[127.02227130924479,37.60094630167554],[127.0221879880531,37.6007889415526],[127.02216496730041,37.60075214942534],[127.02215498163989,37.60071910310552],[127.02212910021353,37.60065678661486],[127.02212879880153,37.600631460027635],[127.02212490995389,37.60057340134395],[127.02212101955965,37.60050971151429],[127.02212004045364,37.600490718957275],[127.02211906134814,37.6004717264002],[127.02211805537762,37.60045797396661],[127.02211704940694,37.600444219731074],[127.02211072170654,37.60032982298373],[127.02209979133448,37.60017621263737],[127.022088861007,37.60002260048402],[127.0220749206965,37.59983563084057],[127.02206098045596,37.59964866118949],[127.02205117427987,37.59950982134779],[127.0220801355765,37.59950711335616],[127.02222914329901,37.599493932947794],[127.02230111665766,37.59948882073145],[127.02230167003377,37.599487515109004],[127.02231466246394,37.59945678838393],[127.0223248439603,37.59944114101198],[127.0223350254524,37.59942549363911],[127.02234543403345,37.59941205363475],[127.02235584261072,37.59939861362942],[127.02236708873043,37.59940395447558],[127.02238019635277,37.59942499012361],[127.02247014605874,37.59951989279907],[127.0225045846314,37.59952895958463],[127.02252125777756,37.599552461475255],[127.02252729808579,37.599560976495816],[127.0225550109086,37.59957229692208],[127.02258134097039,37.59959926767082],[127.0226076710512,37.599626238413556],[127.0226438556697,37.599658735821365],[127.02268003805439,37.59969123141631],[127.02269844438412,37.59970860808523],[127.02271685072242,37.59972598475123],[127.02272282006797,37.599731713933586],[127.02276005236654,37.599768593500265],[127.02278664434367,37.59979622727895],[127.02281323407514,37.59982385924992],[127.02281585655555,37.5998273095432],[127.02281847903622,37.59983075983644],[127.02285289691099,37.59986583791424],[127.02288731481809,37.599900915981756],[127.02289493267766,37.59990565377508],[127.02290254827344,37.59991039156829],[127.02291740797052,37.599919619450155],[127.02293226767128,37.59992884733011],[127.0229987494006,37.600002968163125],[127.02310417105433,37.60010437262921],[127.02312185259285,37.60012086639972],[127.02316561667435,37.60016844381759],[127.02320938081158,37.600216021218856],[127.02321634118533,37.60022209256731],[127.02322330156021,37.60022816391534],[127.02322254395509,37.60023196620433],[127.0232784422759,37.6002809567925],[127.02333434066945,37.600329945551806],[127.0233518805067,37.6003416911313],[127.02336941808466,37.600353436708595],[127.02338525902486,37.60036415187267],[127.02340109770427,37.600374865233015],[127.02341290146349,37.6003888733347],[127.02347752861974,37.600430198443874],[127.02350260381509,37.600442915660665],[127.02357690413488,37.60049209548742],[127.02358466309956,37.60049880636276],[127.02359242206558,37.600505517237586],[127.02360412464378,37.60052182284616],[127.02361582722709,37.6005381284535],[127.02362455991812,37.60054432558343],[127.02363021160481,37.600547622123685],[127.02365993773647,37.60058734090447],[127.02366729735932,37.60059915682044],[127.02367465471914,37.6006109709344],[127.02370056132595,37.60063938308129],[127.02372646795247,37.600667795222414],[127.02373082952535,37.60067384540535],[127.02373519109838,37.600679893786165],[127.02376555899751,37.60072201444003],[127.02379592466552,37.60076413328424],[127.02382032626186,37.60079588473206],[127.02384472787838,37.600827634372706],[127.02386411852902,37.60084023545906],[127.02389703451767,37.6008673127794],[127.02388438314956,37.60089737197798],[127.02389540824551,37.60091982239058],[127.0238604056795,37.601072356469935],[127.02386251476258,37.60108169025674],[127.023852523196,37.60110731610996],[127.0238277870089,37.60116900209732],[127.02380112970884,37.60120625377759],[127.02378781770213,37.60122376239308],[127.0237457103751,37.601210147463895],[127.02365050969479,37.60117741461343],[127.02362912171698,37.60122708081498],[127.02360773371073,37.60127674701222],[127.02359108226885,37.60131767818873]]]},"properties":{"OBJECTID":86612,"PRESENT_SN":"11000UQ181PS201912150414","LCLAS_CL":"UQ1200","MLSFC_CL":"UQ1220","SCLAS_CL":"UQ1221","ATRB_SE":"UQ1221","WTNNC_SN":"11000AGZ200901207681","NTFC_SN":"11000NTC200705171004","DGM_NM":"돈암5구역주택재개발사업","SIGNGU_SE":"11000","DRAWING_NO":" ","CREATE_DAT":1576368000000,"DGM_AR":20919.21011292,"DGM_LT":646.61309864,"SHAPE.AREA":20919.2101129,"SHAPE.LEN":646.6130986366151}}]}