{"type":"FeatureCollection","features":[{"type":"Feature","id":84772,"geometry":{"type":"Polygon","coordinates":[[[126.91099976436739,37.49688379545429],[126.91098017719857,37.49688464540481],[126.91091808045563,37.4969053027577],[126.91091086364604,37.496907000111264],[126.91085330429466,37.49691602000369],[126.91075640525727,37.49692317161549],[126.91062359887637,37.496932917435174],[126.91057806738462,37.496936098963396],[126.91054447274766,37.49693392872261],[126.91044502582086,37.49692529261612],[126.91040706646326,37.49688562840675],[126.9104200098689,37.49674054151999],[126.9104368484245,37.496553984648656],[126.91043544733961,37.496534413870876],[126.91044618148436,37.496411264594755],[126.91045696932359,37.49629043092391],[126.91046787065757,37.496178544257376],[126.91047665597888,37.4960863878362],[126.91048518426236,37.49600101573777],[126.9104947123948,37.495902417741426],[126.91050674804117,37.49577824231019],[126.91054872672527,37.49574818127004],[126.910565996598,37.49574635652779],[126.91064600109088,37.49574734611862],[126.91078610858416,37.49574851697679],[126.91096102209366,37.49575027297129],[126.91109480780608,37.495751853077316],[126.911281141914,37.495754211997365],[126.9114714802029,37.49575569069632],[126.91149984168167,37.49580242911184],[126.91154603643515,37.49587732831336],[126.91159365025769,37.49593825408039],[126.91166058455615,37.496022584459155],[126.91167643701117,37.496042914043514],[126.91172705200724,37.49610027408107],[126.91175028080711,37.49612728566392],[126.91180902512646,37.49618585918069],[126.91182944594439,37.49620640845241],[126.91184723961227,37.49622054061354],[126.9118960549804,37.49626052795006],[126.91191444836846,37.4962743632262],[126.91193580466617,37.496288092626145],[126.91196705981217,37.49630788423901],[126.91200519451556,37.49633372675935],[126.9120864151937,37.49638696522904],[126.91210344575556,37.49639625840894],[126.91217079189295,37.49642997068064],[126.91224260277652,37.49646545224562],[126.91228148447756,37.496481393261725],[126.9123373780298,37.496503401820476],[126.91238482798464,37.49652229553641],[126.91234705751965,37.49658938244944],[126.91231220941788,37.49665237201088],[126.91228478471427,37.496653991118954],[126.91221780497519,37.49668274544868],[126.91212324529646,37.49671046975643],[126.91209580115952,37.49671888233805],[126.91193916075152,37.496763579364675],[126.91187719214541,37.49678140818277],[126.91184457968426,37.49679010510409],[126.91174418010117,37.49680269690298],[126.91167214541004,37.49681237293378],[126.91159412181052,37.49680881769814],[126.91154245808248,37.496805246448524],[126.91149487620287,37.49681149917508],[126.91137458081496,37.49684645631171],[126.911363844938,37.49684996201579],[126.91131240794063,37.49685531072802],[126.91121649806577,37.49686752708653],[126.91109260765109,37.49688267723149],[126.91109014271628,37.49688243207519],[126.91106207591103,37.4968819060304],[126.91099976436739,37.49688379545429]]]},"properties":{"OBJECTID":84772,"PRESENT_SN":"11000UQ181PS201912150277","LCLAS_CL":"UQ1200","MLSFC_CL":"UQ1240","SCLAS_CL":" ","ATRB_SE":"UQ1240","WTNNC_SN":"11000AGZ201511300261","NTFC_SN":"11000NTC201508137565","DGM_NM":"삼성아파트 주택재건축 정비구역","SIGNGU_SE":"11000","DRAWING_NO":" ","CREATE_DAT":1576368000000,"DGM_AR":15961.349483,"DGM_LT":521.38529544,"SHAPE.AREA":15961.349483,"SHAPE.LEN":521.385295440303}},{"type":"Feature","id":85117,"geometry":{"type":"Polygon","coordinates":[[[126.91099976436739,37.49688379545429],[126.91098017719857,37.49688464540481],[126.91091808045563,37.4969053027577],[126.91091086364604,37.496907000111264],[126.91085330429466,37.49691602000369],[126.91075640525727,37.49692317161549],[126.91062359887637,37.496932917435174],[126.91057806738462,37.496936098963396],[126.91054447274766,37.49693392872261],[126.91044502582086,37.49692529261612],[126.91040706646326,37.49688562840675],[126.9104200098689,37.49674054151999],[126.9104368484245,37.496553984648656],[126.91043544733961,37.496534413870876],[126.91044618148436,37.496411264594755],[126.91045696932359,37.49629043092391],[126.91046787065757,37.496178544257376],[126.91047665597888,37.4960863878362],[126.91048518426236,37.49600101573777],[126.9104947123948,37.495902417741426],[126.91050674804117,37.49577824231019],[126.91054872672527,37.49574818127004],[126.910565996598,37.49574635652779],[126.91064600109088,37.49574734611862],[126.91078610858416,37.49574851697679],[126.91096102209366,37.49575027297129],[126.91109480780608,37.495751853077316],[126.911281141914,37.495754211997365],[126.9114714802029,37.49575569069632],[126.91149984168167,37.49580242911184],[126.91154603643515,37.49587732831336],[126.91159365025769,37.49593825408039],[126.91166058455615,37.496022584459155],[126.91167643701117,37.496042914043514],[126.91172705200724,37.49610027408107],[126.91175028080711,37.49612728566392],[126.91180902512646,37.49618585918069],[126.91182944594439,37.49620640845241],[126.91184723961227,37.49622054061354],[126.9118960549804,37.49626052795006],[126.91191444836846,37.4962743632262],[126.91193580466617,37.496288092626145],[126.91196705981217,37.49630788423901],[126.91200519451556,37.49633372675935],[126.9120864151937,37.49638696522904],[126.91210344575556,37.49639625840894],[126.91217079189295,37.49642997068064],[126.91224260277652,37.49646545224562],[126.91228148447756,37.496481393261725],[126.9123373780298,37.496503401820476],[126.91238482798464,37.49652229553641],[126.91234705751965,37.49658938244944],[126.91231220941788,37.49665237201088],[126.91228478471427,37.496653991118954],[126.91221780497519,37.49668274544868],[126.91212324529646,37.49671046975643],[126.91209580115952,37.49671888233805],[126.91193916075152,37.496763579364675],[126.91187719214541,37.49678140818277],[126.91184457968426,37.49679010510409],[126.91174418010117,37.49680269690298],[126.91167214541004,37.49681237293378],[126.91159412181052,37.49680881769814],[126.91154245808248,37.496805246448524],[126.91149487620287,37.49681149917508],[126.91137458081496,37.49684645631171],[126.911363844938,37.49684996201579],[126.91131240794063,37.49685531072802],[126.91121649806577,37.49686752708653],[126.91109260765109,37.49688267723149],[126.91109014271628,37.49688243207519],[126.91106207591103,37.4968819060304],[126.91099976436739,37.49688379545429]]]},"properties":{"OBJECTID":85117,"PRESENT_SN":"11000UQ181PS201912150277","LCLAS_CL":"UQ1200","MLSFC_CL":"UQ1240","SCLAS_CL":" ","ATRB_SE":"UQ1240","WTNNC_SN":"11000AGZ201511300261","NTFC_SN":"11000NTC201508137565","DGM_NM":"삼성아파트 주택재건축 정비구역","SIGNGU_SE":"11000","DRAWING_NO":" ","CREATE_DAT":1576368000000,"DGM_AR":15961.349483,"DGM_LT":521.38529544,"SHAPE.AREA":15961.349483,"SHAPE.LEN":521.385295440303}}]}