{"type":"FeatureCollection","features":[{"type":"Feature","id":86630,"geometry":{"type":"MultiPolygon","coordinates":[[[[127.00114066335266,37.61653701739862],[127.00113007305731,37.61654125197401],[127.00078740043493,37.6166238702856],[127.00030953526803,37.61660966689251],[127.00015380724939,37.616603205159485],[127.000054892965,37.61659873510779],[126.99949088089997,37.616504294955014],[126.99907695463511,37.61649425919419],[126.99905425631326,37.616495411977546],[126.99897919789278,37.61643008927365],[126.99888141716502,37.61640838249887],[126.9988597145911,37.61643774497766],[126.99879578920195,37.616403046746406],[126.99867982523718,37.61649540355933],[126.99854350272555,37.616417357238184],[126.99861127223339,37.61633535165003],[126.99850494129502,37.616287966396996],[126.9984829235178,37.61626690990924],[126.99845573072948,37.61621747238519],[126.9982216073615,37.616090319649146],[126.99829945783533,37.61599904342317],[126.99824048435599,37.61592715253085],[126.99831648709787,37.615867050180334],[126.99832395116319,37.61586770809882],[126.99846797650576,37.61589418273175],[126.99850512605266,37.61591989768261],[126.99858563329906,37.615940703361744],[126.99862532550931,37.615824946311086],[126.9986375705277,37.615794024944655],[126.99859609407417,37.615774616794475],[126.99862702145384,37.61561037773611],[126.99860483319046,37.61560869235561],[126.99868846358494,37.61539986501653],[126.99869733172115,37.61540977602012],[126.99874251464975,37.61535007809015],[126.9987229795814,37.6152746384874],[126.99864924641969,37.61524662521632],[126.99866851401605,37.615205757183524],[126.9987320538117,37.61522479643122],[126.99883308578903,37.615185506991644],[126.99882924732292,37.61515369326336],[126.99889016191985,37.61510164496109],[126.99898577883155,37.61508763679782],[126.99909266491662,37.61508694528946],[126.99909489710869,37.61505874462809],[126.99904259467323,37.61498987254856],[126.99899297605823,37.61493865072199],[126.99898133632671,37.6148977261092],[126.99881618427163,37.61494704394729],[126.99871879658401,37.61476649407375],[126.9985663660838,37.61482057625272],[126.99851666653174,37.614821385881285],[126.99842727091314,37.614764504635026],[126.99831557454449,37.61469744163036],[126.99826884436045,37.61465644571103],[126.99814256305804,37.61477551582889],[126.99819938463487,37.61482297211628],[126.99812262737362,37.61480898670471],[126.99811756460852,37.614807644097006],[126.99803486333607,37.61474589744819],[126.99795531474975,37.614840525117614],[126.99799283837308,37.61484483293478],[126.99797121539264,37.61486988857079],[126.99796440539434,37.61493135329572],[126.99771945324355,37.6149176327289],[126.99765972404637,37.614812315109965],[126.99777120763189,37.61482295028117],[126.99777512306552,37.61466576524046],[126.99795097192866,37.61470547692791],[126.99803252318874,37.6146520872248],[126.99794309567858,37.61456356315159],[126.99792819956572,37.61460857571678],[126.99781020422553,37.614587606235354],[126.99785243712034,37.61440796993352],[126.99781108563695,37.61440047247781],[126.99766389734448,37.61449141279822],[126.99764693028321,37.614499818396745],[126.99757990269552,37.61448496800846],[126.99748073279727,37.61444484396482],[126.99753424273464,37.61434981029079],[126.99739889694662,37.614315964788894],[126.99736436301905,37.6143244147813],[126.99725213461755,37.61428038883538],[126.99722528059398,37.61427542345482],[126.99718650215056,37.61443093138767],[126.99707361505675,37.614415781694966],[126.99711591733853,37.61424029016758],[126.99712234074525,37.61421513501223],[126.99731268616449,37.614246090655925],[126.99727876763347,37.614188300507976],[126.9973660629093,37.614103422173706],[126.9974112451999,37.61406029378469],[126.99723539028543,37.613960125448045],[126.99739522167461,37.61380210804209],[126.99757344341688,37.61390546569605],[126.99766440769768,37.61382020884746],[126.99777394739944,37.613717545560505],[126.99757437678916,37.61360341175797],[126.99780770303597,37.61341014081916],[126.99798087252239,37.613523606715944],[126.9980487937735,37.6135451421864],[126.99820340275313,37.61360852165705],[126.99811462426806,37.61371588005792],[126.99809481375075,37.613742593579225],[126.99820292108264,37.61374307418756],[126.99831459707939,37.61372139966445],[126.9983893159319,37.613702805416864],[126.9984604808078,37.613624548049394],[126.998472724842,37.61361057414643],[126.9984549545352,37.61360404157187],[126.9983097355556,37.61351934546895],[126.9983020588399,37.61346508816562],[126.99834278910289,37.613421346626446],[126.99852443166262,37.61352592827765],[126.99854198786083,37.61350490882821],[126.99856661230534,37.613463356189136],[126.9985912910598,37.61348026822338],[126.99862769432697,37.61344409472156],[126.99873012473385,37.61350231859982],[126.99867682306515,37.61353770787322],[126.9986113572692,37.613570619124545],[126.99859733333791,37.61362905642454],[126.99860065121042,37.61364597693517],[126.99867866417279,37.61367009810821],[126.998701984265,37.613677162360624],[126.9987678355749,37.613634087999706],[126.9988642773677,37.6136218999327],[126.998887655114,37.61359998859159],[126.99894624560162,37.6135758706148],[126.99909905316728,37.613682324787526],[126.99911936104922,37.613674486665275],[126.99937919490775,37.61358074456234],[126.99947723414358,37.613545184568444],[126.99960534274236,37.613555259687516],[126.99982709350328,37.61363635860122],[126.99986551114685,37.613651551492524],[127.00009046837282,37.61381865942833],[127.00011741022023,37.61385268981364],[127.00018491326068,37.613877620747886],[127.00032253618504,37.613903831769235],[127.00052810419203,37.61395172983914],[127.00053470743089,37.61394258493493],[127.0006380593983,37.61383358504156],[127.00068985422752,37.6137759496462],[127.00072883879305,37.613756155355674],[127.00080723805912,37.61373684782677],[127.00086923682444,37.61375357940721],[127.00098765066654,37.61378917777075],[127.00099944112374,37.6137878443711],[127.0010481546656,37.6137754290542],[127.00118845080944,37.6137679243581],[127.00133331137543,37.613743461233064],[127.00148257769956,37.613693927226706],[127.00151819817225,37.61366488680411],[127.00157207621865,37.61363599412494],[127.00160262260957,37.61365357225244],[127.0016965925896,37.61362870686792],[127.00182918206797,37.61360233487299],[127.00190213983606,37.613579330805095],[127.00193226709541,37.613574762728575],[127.00205369340256,37.61354207464071],[127.00213524064063,37.61351069306517],[127.00221641420617,37.61349594355026],[127.00228034947776,37.613477139675894],[127.00244117876859,37.613448424256006],[127.00250344822881,37.61336973204512],[127.00254117726395,37.61335611249103],[127.00259688973371,37.613343065786275],[127.00260586859117,37.61331527583579],[127.00271431353626,37.6132170948515],[127.0026938240592,37.61316888354478],[127.00267016349396,37.61313099751149],[127.00274576343317,37.61307191940236],[127.00275871993856,37.61304754772093],[127.00278631001463,37.61304887187079],[127.00280771626849,37.6130591608465],[127.00280994690408,37.6130255722364],[127.00288426819245,37.61304309548861],[127.00295537235216,37.613029994376134],[127.00295661165664,37.612924918307776],[127.00295812175624,37.61276667351895],[127.00296129989212,37.61253614476576],[127.00279364032077,37.61252578360522],[127.0027935949918,37.61252429338238],[127.00280141905708,37.61240057953259],[127.00280719356999,37.61230311129292],[127.00269557677169,37.61227045187818],[127.00259460351673,37.61211862754581],[127.00260615580994,37.612115284798655],[127.00265933086325,37.61213533113614],[127.00273441011991,37.61215647642372],[127.00282326156595,37.61217374729173],[127.00297593427956,37.61219814408656],[127.00319388937898,37.61222870248948],[127.00366271323291,37.61229665594393],[127.00380332422264,37.61231409630915],[127.00386736039817,37.61230746382922],[127.00385397350176,37.61231587926181],[127.00397765238786,37.61233249985974],[127.0040778424197,37.612343055432035],[127.00420961747444,37.61233788267095],[127.00433055477048,37.61233198743413],[127.00450753220971,37.61232166684908],[127.0047556581897,37.61230145129276],[127.00493311114614,37.61229031016328],[127.00498263895412,37.612287290432626],[127.00513213972134,37.61227768148913],[127.00527328197968,37.61226818074014],[127.00541282725113,37.61225855373762],[127.00551865845061,37.61228389570998],[127.00557342091945,37.61232041963158],[127.00569725090732,37.612399179115],[127.00575098295887,37.61243685624621],[127.00635716726981,37.6126257038993],[127.00675919985196,37.61274483432384],[127.00665741254649,37.61282531085464],[127.006344903055,37.61296816743709],[127.00633480169607,37.612989762571495],[127.00603843076084,37.61313825962423],[127.00573737361427,37.61331627765097],[127.00571069702973,37.61344972294521],[127.00569375771545,37.61352885673378],[127.00566109645682,37.613665360153895],[127.00546283946592,37.61368727520439],[127.00539858166219,37.61380818000998],[127.00534855849293,37.6138888014458],[127.00531784340357,37.61391391278545],[127.0052751668528,37.613917590154465],[127.00521296377408,37.61391460266142],[127.0051550296653,37.613891609616594],[127.0051176649483,37.61389301629221],[127.0050687935561,37.6139078569329],[127.0050483615025,37.61391261472646],[127.00501822294225,37.61391656192145],[127.00496726673394,37.61391453621297],[127.00493359375017,37.613903698387304],[127.00489283075953,37.61389548261027],[127.00483163564455,37.61389041181878],[127.00467129151471,37.61387579328323],[127.00466164118536,37.61386392761742],[127.00451339507178,37.613890834770444],[127.0044851706303,37.61389549355593],[127.00420231254584,37.6138901124553],[127.00418127989882,37.613887572164316],[127.00401658746574,37.61389636033],[127.0038372009228,37.614137268348635],[127.00374489667941,37.61426240740342],[127.00365407573797,37.614383455902015],[127.0036530120436,37.61441726073465],[127.00364809663684,37.61482010750825],[127.00364478391818,37.61502636916833],[127.00361768207966,37.61509460995909],[127.00356190394348,37.61523273133227],[127.00349352013104,37.61539819766113],[127.00339257469744,37.615640707350614],[127.00339963111873,37.615644653535135],[127.00347864433606,37.615664843234086],[127.00362042272054,37.61572765718941],[127.00373515530516,37.61576002733788],[127.0037928061661,37.615746853900205],[127.00385954092141,37.615738887924586],[127.0039537880072,37.61574885086827],[127.00395655158263,37.615747003800294],[127.00397704142918,37.615760166707354],[127.00384921453721,37.615843708253024],[127.00374246454938,37.61588538968976],[127.00359183475302,37.61588365353669],[127.00346790248354,37.61592809202679],[127.00339619578136,37.61595816793184],[127.00330957234078,37.6159967672998],[127.00322863617006,37.61610079575553],[127.00320305045673,37.61613142947386],[127.00314152612208,37.616170776170925],[127.00313720851001,37.61617201417789],[127.00311531829985,37.61613774116242],[127.00309210071873,37.61610662699941],[127.00306604025434,37.61607697065607],[127.00303727962489,37.61604893971112],[127.00300598193489,37.61602268372339],[127.00297231708393,37.61599835225167],[127.00293647082738,37.61597607863687],[127.00289864477647,37.6159559836061],[127.00286865714308,37.615964986553976],[127.00282146058495,37.61599865674091],[127.00270135663804,37.61608366555336],[127.00279987652944,37.61623727275945],[127.00282445479317,37.61622967722153],[127.00284045954447,37.61625677854859],[127.00278703300786,37.616276925066636],[127.00261025008969,37.61630477615063],[127.00245017311863,37.616296010976555],[127.00234182448578,37.616320788754564],[127.00218351461675,37.616331934883746],[127.00193491003112,37.616328241997394],[127.00171032897273,37.61635371330182],[127.00148852274675,37.616379148140325],[127.00145944769076,37.616383698082245],[127.00144393041938,37.61638813089908],[127.00124162791417,37.61648838273436],[127.00114066335266,37.61653701739862]]],[[[126.99915617445282,37.612841791441724],[126.99911287490656,37.612857206358306],[126.99907685724607,37.612893271903616],[126.99904004861659,37.61287265668138],[126.99900717090622,37.6128283006713],[126.99890855924063,37.61273585783704],[126.99885819465315,37.61268608649777],[126.99880121596043,37.61263204433236],[126.99871584710208,37.61247757807479],[126.99868310699375,37.6123983359721],[126.99872826342366,37.61239311135645],[126.99876984065622,37.61239378806881],[126.99885095973542,37.61230370079292],[126.99881800268993,37.612270868277356],[126.99883842359472,37.61225972360205],[126.99881351905205,37.612232288146906],[126.99881033679493,37.61222389092628],[126.99889702715745,37.612156310262115],[126.9989581173233,37.61219615300646],[126.99905951695864,37.61221387747037],[126.99905713942302,37.61218686599525],[126.9989537241214,37.61216056414141],[126.9989555602534,37.61212132643637],[126.99895214193667,37.6120607533743],[126.99896877955311,37.61206098799034],[126.99897099902572,37.612072340405525],[126.99915742119349,37.61209767087556],[126.99918596222781,37.61209886974894],[126.9993145675568,37.61207798747076],[126.99934008513357,37.61206064405053],[126.99940064457716,37.61204997753238],[126.99946187240148,37.61203295907498],[126.9994676147621,37.61202663608661],[126.99957400784872,37.61208747936962],[126.99968281347091,37.61214992814273],[126.99973542120644,37.61218111192011],[126.99973612311744,37.6121932841909],[126.99974580345551,37.61233018847518],[126.99975839560298,37.612423710541314],[126.99972727143012,37.612451946831825],[126.9996777316831,37.61246678523357],[126.99960021715009,37.612475469459305],[126.99953335951656,37.61251183196444],[126.99951918903386,37.612579044941405],[126.99946691943514,37.61260060452958],[126.99947927373815,37.61268302652578],[126.9994495301654,37.61274545501072],[126.99943327417785,37.61286326705388],[126.99920401597663,37.612816817185696],[126.99918643844137,37.612806897034076],[126.99915617445282,37.612841791441724]]],[[[127.0061931764343,37.613662255325565],[127.00617558967575,37.61370415165006],[127.00615598947458,37.613788222983786],[127.00614259406304,37.613842174266935],[127.00610653556907,37.61427234915766],[127.00610264256578,37.61432438457618],[127.00608865907684,37.614469035842994],[127.00606433771362,37.61466305225926],[127.00604758549206,37.61472532511437],[127.0060509527601,37.61425832302747],[127.00605482349698,37.61421210614751],[127.00599633574225,37.614143972577835],[127.00599249122315,37.61406114552059],[127.00598843265614,37.61399736521338],[127.00600655687441,37.61384947746482],[127.00600675998076,37.6138367736214],[127.00597538531366,37.61362329630756],[127.00592308267696,37.613641588190504],[127.0059266554202,37.61353497494072],[127.00594771918114,37.613337042972844],[127.00597289864706,37.61332832593214],[127.0059867527452,37.61333040307157],[127.00599644266563,37.613320176566326],[127.00601651419693,37.61331321301957],[127.00615415309925,37.613252144586156],[127.0062583624797,37.61319878793685],[127.00638223776934,37.613139665907745],[127.00642158478277,37.61314817314817],[127.0066861402263,37.613030246828686],[127.00670820251128,37.61302028461078],[127.00676996379487,37.61299961877263],[127.00690095867594,37.61295208069887],[127.00699390428396,37.61286369915937],[127.00701599805008,37.61285181779177],[127.00704527648837,37.6128332616136],[127.00708742113108,37.61284457595956],[127.00710841419455,37.612926167843085],[127.00705708716694,37.612955407108466],[127.00694631270783,37.61301981440294],[127.00683218560654,37.613084735303055],[127.00673011998079,37.61314253780752],[127.00663632186986,37.61319597010545],[127.00651640592137,37.613250079172936],[127.00645043418973,37.613283409247195],[127.00636353359235,37.61341210181083],[127.00631704783875,37.61345934035786],[127.00622163624872,37.61362138568418],[127.0061931764343,37.613662255325565]]]]},"properties":{"OBJECTID":86630,"PRESENT_SN":"11000UQ181PS201912150768","LCLAS_CL":"UQ1200","MLSFC_CL":"UQ1220","SCLAS_CL":"UQ1221","ATRB_SE":"UQ1221","WTNNC_SN":"11000AGZ201209058189","NTFC_SN":"11000NTC201208026577","DGM_NM":"정릉골 주택재개발사업","SIGNGU_SE":"11000","DRAWING_NO":" ","CREATE_DAT":1576368000000,"DGM_AR":204981.69214413,"DGM_LT":4083.1570542,"SHAPE.AREA":204981.69214409,"SHAPE.LEN":4083.15705419929}},{"type":"Feature","id":84468,"geometry":{"type":"MultiPolygon","coordinates":[[[[127.00114066335266,37.61653701739862],[127.00113007305731,37.61654125197401],[127.00078740043493,37.6166238702856],[127.00030953526803,37.61660966689251],[127.00015380724939,37.616603205159485],[127.000054892965,37.61659873510779],[126.99949088089997,37.616504294955014],[126.99907695463511,37.61649425919419],[126.99905425631326,37.616495411977546],[126.99897919789278,37.61643008927365],[126.99888141716502,37.61640838249887],[126.9988597145911,37.61643774497766],[126.99879578920195,37.616403046746406],[126.99867982523718,37.61649540355933],[126.99854350272555,37.616417357238184],[126.99861127223339,37.61633535165003],[126.99850494129502,37.616287966396996],[126.9984829235178,37.61626690990924],[126.99845573072948,37.61621747238519],[126.9982216073615,37.616090319649146],[126.99829945783533,37.61599904342317],[126.99824048435599,37.61592715253085],[126.99831648709787,37.615867050180334],[126.99832395116319,37.61586770809882],[126.99846797650576,37.61589418273175],[126.99850512605266,37.61591989768261],[126.99858563329906,37.615940703361744],[126.99862532550931,37.615824946311086],[126.9986375705277,37.615794024944655],[126.99859609407417,37.615774616794475],[126.99862702145384,37.61561037773611],[126.99860483319046,37.61560869235561],[126.99868846358494,37.61539986501653],[126.99869733172115,37.61540977602012],[126.99874251464975,37.61535007809015],[126.9987229795814,37.6152746384874],[126.99864924641969,37.61524662521632],[126.99866851401605,37.615205757183524],[126.9987320538117,37.61522479643122],[126.99883308578903,37.615185506991644],[126.99882924732292,37.61515369326336],[126.99889016191985,37.61510164496109],[126.99898577883155,37.61508763679782],[126.99909266491662,37.61508694528946],[126.99909489710869,37.61505874462809],[126.99904259467323,37.61498987254856],[126.99899297605823,37.61493865072199],[126.99898133632671,37.6148977261092],[126.99881618427163,37.61494704394729],[126.99871879658401,37.61476649407375],[126.9985663660838,37.61482057625272],[126.99851666653174,37.614821385881285],[126.99842727091314,37.614764504635026],[126.99831557454449,37.61469744163036],[126.99826884436045,37.61465644571103],[126.99814256305804,37.61477551582889],[126.99819938463487,37.61482297211628],[126.99812262737362,37.61480898670471],[126.99811756460852,37.614807644097006],[126.99803486333607,37.61474589744819],[126.99795531474975,37.614840525117614],[126.99799283837308,37.61484483293478],[126.99797121539264,37.61486988857079],[126.99796440539434,37.61493135329572],[126.99771945324355,37.6149176327289],[126.99765972404637,37.614812315109965],[126.99777120763189,37.61482295028117],[126.99777512306552,37.61466576524046],[126.99795097192866,37.61470547692791],[126.99803252318874,37.6146520872248],[126.99794309567858,37.61456356315159],[126.99792819956572,37.61460857571678],[126.99781020422553,37.614587606235354],[126.99785243712034,37.61440796993352],[126.99781108563695,37.61440047247781],[126.99766389734448,37.61449141279822],[126.99764693028321,37.614499818396745],[126.99757990269552,37.61448496800846],[126.99748073279727,37.61444484396482],[126.99753424273464,37.61434981029079],[126.99739889694662,37.614315964788894],[126.99736436301905,37.6143244147813],[126.99725213461755,37.61428038883538],[126.99722528059398,37.61427542345482],[126.99718650215056,37.61443093138767],[126.99707361505675,37.614415781694966],[126.99711591733853,37.61424029016758],[126.99712234074525,37.61421513501223],[126.99731268616449,37.614246090655925],[126.99727876763347,37.614188300507976],[126.9973660629093,37.614103422173706],[126.9974112451999,37.61406029378469],[126.99723539028543,37.613960125448045],[126.99739522167461,37.61380210804209],[126.99757344341688,37.61390546569605],[126.99766440769768,37.61382020884746],[126.99777394739944,37.613717545560505],[126.99757437678916,37.61360341175797],[126.99780770303597,37.61341014081916],[126.99798087252239,37.613523606715944],[126.9980487937735,37.6135451421864],[126.99820340275313,37.61360852165705],[126.99811462426806,37.61371588005792],[126.99809481375075,37.613742593579225],[126.99820292108264,37.61374307418756],[126.99831459707939,37.61372139966445],[126.9983893159319,37.613702805416864],[126.9984604808078,37.613624548049394],[126.998472724842,37.61361057414643],[126.9984549545352,37.61360404157187],[126.9983097355556,37.61351934546895],[126.9983020588399,37.61346508816562],[126.99834278910289,37.613421346626446],[126.99852443166262,37.61352592827765],[126.99854198786083,37.61350490882821],[126.99856661230534,37.613463356189136],[126.9985912910598,37.61348026822338],[126.99862769432697,37.61344409472156],[126.99873012473385,37.61350231859982],[126.99867682306515,37.61353770787322],[126.9986113572692,37.613570619124545],[126.99859733333791,37.61362905642454],[126.99860065121042,37.61364597693517],[126.99867866417279,37.61367009810821],[126.998701984265,37.613677162360624],[126.9987678355749,37.613634087999706],[126.9988642773677,37.6136218999327],[126.998887655114,37.61359998859159],[126.99894624560162,37.6135758706148],[126.99909905316728,37.613682324787526],[126.99911936104922,37.613674486665275],[126.99937919490775,37.61358074456234],[126.99947723414358,37.613545184568444],[126.99960534274236,37.613555259687516],[126.99982709350328,37.61363635860122],[126.99986551114685,37.613651551492524],[127.00009046837282,37.61381865942833],[127.00011741022023,37.61385268981364],[127.00018491326068,37.613877620747886],[127.00032253618504,37.613903831769235],[127.00052810419203,37.61395172983914],[127.00053470743089,37.61394258493493],[127.0006380593983,37.61383358504156],[127.00068985422752,37.6137759496462],[127.00072883879305,37.613756155355674],[127.00080723805912,37.61373684782677],[127.00086923682444,37.61375357940721],[127.00098765066654,37.61378917777075],[127.00099944112374,37.6137878443711],[127.0010481546656,37.6137754290542],[127.00118845080944,37.6137679243581],[127.00133331137543,37.613743461233064],[127.00148257769956,37.613693927226706],[127.00151819817225,37.61366488680411],[127.00157207621865,37.61363599412494],[127.00160262260957,37.61365357225244],[127.0016965925896,37.61362870686792],[127.00182918206797,37.61360233487299],[127.00190213983606,37.613579330805095],[127.00193226709541,37.613574762728575],[127.00205369340256,37.61354207464071],[127.00213524064063,37.61351069306517],[127.00221641420617,37.61349594355026],[127.00228034947776,37.613477139675894],[127.00244117876859,37.613448424256006],[127.00250344822881,37.61336973204512],[127.00254117726395,37.61335611249103],[127.00259688973371,37.613343065786275],[127.00260586859117,37.61331527583579],[127.00271431353626,37.6132170948515],[127.0026938240592,37.61316888354478],[127.00267016349396,37.61313099751149],[127.00274576343317,37.61307191940236],[127.00275871993856,37.61304754772093],[127.00278631001463,37.61304887187079],[127.00280771626849,37.6130591608465],[127.00280994690408,37.6130255722364],[127.00288426819245,37.61304309548861],[127.00295537235216,37.613029994376134],[127.00295661165664,37.612924918307776],[127.00295812175624,37.61276667351895],[127.00296129989212,37.61253614476576],[127.00279364032077,37.61252578360522],[127.0027935949918,37.61252429338238],[127.00280141905708,37.61240057953259],[127.00280719356999,37.61230311129292],[127.00269557677169,37.61227045187818],[127.00259460351673,37.61211862754581],[127.00260615580994,37.612115284798655],[127.00265933086325,37.61213533113614],[127.00273441011991,37.61215647642372],[127.00282326156595,37.61217374729173],[127.00297593427956,37.61219814408656],[127.00319388937898,37.61222870248948],[127.00366271323291,37.61229665594393],[127.00380332422264,37.61231409630915],[127.00386736039817,37.61230746382922],[127.00385397350176,37.61231587926181],[127.00397765238786,37.61233249985974],[127.0040778424197,37.612343055432035],[127.00420961747444,37.61233788267095],[127.00433055477048,37.61233198743413],[127.00450753220971,37.61232166684908],[127.0047556581897,37.61230145129276],[127.00493311114614,37.61229031016328],[127.00498263895412,37.612287290432626],[127.00513213972134,37.61227768148913],[127.00527328197968,37.61226818074014],[127.00541282725113,37.61225855373762],[127.00551865845061,37.61228389570998],[127.00557342091945,37.61232041963158],[127.00569725090732,37.612399179115],[127.00575098295887,37.61243685624621],[127.00635716726981,37.6126257038993],[127.00675919985196,37.61274483432384],[127.00665741254649,37.61282531085464],[127.006344903055,37.61296816743709],[127.00633480169607,37.612989762571495],[127.00603843076084,37.61313825962423],[127.00573737361427,37.61331627765097],[127.00571069702973,37.61344972294521],[127.00569375771545,37.61352885673378],[127.00566109645682,37.613665360153895],[127.00546283946592,37.61368727520439],[127.00539858166219,37.61380818000998],[127.00534855849293,37.6138888014458],[127.00531784340357,37.61391391278545],[127.0052751668528,37.613917590154465],[127.00521296377408,37.61391460266142],[127.0051550296653,37.613891609616594],[127.0051176649483,37.61389301629221],[127.0050687935561,37.6139078569329],[127.0050483615025,37.61391261472646],[127.00501822294225,37.61391656192145],[127.00496726673394,37.61391453621297],[127.00493359375017,37.613903698387304],[127.00489283075953,37.61389548261027],[127.00483163564455,37.61389041181878],[127.00467129151471,37.61387579328323],[127.00466164118536,37.61386392761742],[127.00451339507178,37.613890834770444],[127.0044851706303,37.61389549355593],[127.00420231254584,37.6138901124553],[127.00418127989882,37.613887572164316],[127.00401658746574,37.61389636033],[127.0038372009228,37.614137268348635],[127.00374489667941,37.61426240740342],[127.00365407573797,37.614383455902015],[127.0036530120436,37.61441726073465],[127.00364809663684,37.61482010750825],[127.00364478391818,37.61502636916833],[127.00361768207966,37.61509460995909],[127.00356190394348,37.61523273133227],[127.00349352013104,37.61539819766113],[127.00339257469744,37.615640707350614],[127.00339963111873,37.615644653535135],[127.00347864433606,37.615664843234086],[127.00362042272054,37.61572765718941],[127.00373515530516,37.61576002733788],[127.0037928061661,37.615746853900205],[127.00385954092141,37.615738887924586],[127.0039537880072,37.61574885086827],[127.00395655158263,37.615747003800294],[127.00397704142918,37.615760166707354],[127.00384921453721,37.615843708253024],[127.00374246454938,37.61588538968976],[127.00359183475302,37.61588365353669],[127.00346790248354,37.61592809202679],[127.00339619578136,37.61595816793184],[127.00330957234078,37.6159967672998],[127.00322863617006,37.61610079575553],[127.00320305045673,37.61613142947386],[127.00314152612208,37.616170776170925],[127.00313720851001,37.61617201417789],[127.00311531829985,37.61613774116242],[127.00309210071873,37.61610662699941],[127.00306604025434,37.61607697065607],[127.00303727962489,37.61604893971112],[127.00300598193489,37.61602268372339],[127.00297231708393,37.61599835225167],[127.00293647082738,37.61597607863687],[127.00289864477647,37.6159559836061],[127.00286865714308,37.615964986553976],[127.00282146058495,37.61599865674091],[127.00270135663804,37.61608366555336],[127.00279987652944,37.61623727275945],[127.00282445479317,37.61622967722153],[127.00284045954447,37.61625677854859],[127.00278703300786,37.616276925066636],[127.00261025008969,37.61630477615063],[127.00245017311863,37.616296010976555],[127.00234182448578,37.616320788754564],[127.00218351461675,37.616331934883746],[127.00193491003112,37.616328241997394],[127.00171032897273,37.61635371330182],[127.00148852274675,37.616379148140325],[127.00145944769076,37.616383698082245],[127.00144393041938,37.61638813089908],[127.00124162791417,37.61648838273436],[127.00114066335266,37.61653701739862]]],[[[126.99915617445282,37.612841791441724],[126.99911287490656,37.612857206358306],[126.99907685724607,37.612893271903616],[126.99904004861659,37.61287265668138],[126.99900717090622,37.6128283006713],[126.99890855924063,37.61273585783704],[126.99885819465315,37.61268608649777],[126.99880121596043,37.61263204433236],[126.99871584710208,37.61247757807479],[126.99868310699375,37.6123983359721],[126.99872826342366,37.61239311135645],[126.99876984065622,37.61239378806881],[126.99885095973542,37.61230370079292],[126.99881800268993,37.612270868277356],[126.99883842359472,37.61225972360205],[126.99881351905205,37.612232288146906],[126.99881033679493,37.61222389092628],[126.99889702715745,37.612156310262115],[126.9989581173233,37.61219615300646],[126.99905951695864,37.61221387747037],[126.99905713942302,37.61218686599525],[126.9989537241214,37.61216056414141],[126.9989555602534,37.61212132643637],[126.99895214193667,37.6120607533743],[126.99896877955311,37.61206098799034],[126.99897099902572,37.612072340405525],[126.99915742119349,37.61209767087556],[126.99918596222781,37.61209886974894],[126.9993145675568,37.61207798747076],[126.99934008513357,37.61206064405053],[126.99940064457716,37.61204997753238],[126.99946187240148,37.61203295907498],[126.9994676147621,37.61202663608661],[126.99957400784872,37.61208747936962],[126.99968281347091,37.61214992814273],[126.99973542120644,37.61218111192011],[126.99973612311744,37.6121932841909],[126.99974580345551,37.61233018847518],[126.99975839560298,37.612423710541314],[126.99972727143012,37.612451946831825],[126.9996777316831,37.61246678523357],[126.99960021715009,37.612475469459305],[126.99953335951656,37.61251183196444],[126.99951918903386,37.612579044941405],[126.99946691943514,37.61260060452958],[126.99947927373815,37.61268302652578],[126.9994495301654,37.61274545501072],[126.99943327417785,37.61286326705388],[126.99920401597663,37.612816817185696],[126.99918643844137,37.612806897034076],[126.99915617445282,37.612841791441724]]],[[[127.0061931764343,37.613662255325565],[127.00617558967575,37.61370415165006],[127.00615598947458,37.613788222983786],[127.00614259406304,37.613842174266935],[127.00610653556907,37.61427234915766],[127.00610264256578,37.61432438457618],[127.00608865907684,37.614469035842994],[127.00606433771362,37.61466305225926],[127.00604758549206,37.61472532511437],[127.0060509527601,37.61425832302747],[127.00605482349698,37.61421210614751],[127.00599633574225,37.614143972577835],[127.00599249122315,37.61406114552059],[127.00598843265614,37.61399736521338],[127.00600655687441,37.61384947746482],[127.00600675998076,37.6138367736214],[127.00597538531366,37.61362329630756],[127.00592308267696,37.613641588190504],[127.0059266554202,37.61353497494072],[127.00594771918114,37.613337042972844],[127.00597289864706,37.61332832593214],[127.0059867527452,37.61333040307157],[127.00599644266563,37.613320176566326],[127.00601651419693,37.61331321301957],[127.00615415309925,37.613252144586156],[127.0062583624797,37.61319878793685],[127.00638223776934,37.613139665907745],[127.00642158478277,37.61314817314817],[127.0066861402263,37.613030246828686],[127.00670820251128,37.61302028461078],[127.00676996379487,37.61299961877263],[127.00690095867594,37.61295208069887],[127.00699390428396,37.61286369915937],[127.00701599805008,37.61285181779177],[127.00704527648837,37.6128332616136],[127.00708742113108,37.61284457595956],[127.00710841419455,37.612926167843085],[127.00705708716694,37.612955407108466],[127.00694631270783,37.61301981440294],[127.00683218560654,37.613084735303055],[127.00673011998079,37.61314253780752],[127.00663632186986,37.61319597010545],[127.00651640592137,37.613250079172936],[127.00645043418973,37.613283409247195],[127.00636353359235,37.61341210181083],[127.00631704783875,37.61345934035786],[127.00622163624872,37.61362138568418],[127.0061931764343,37.613662255325565]]]]},"properties":{"OBJECTID":84468,"PRESENT_SN":"11000UQ181PS201912150768","LCLAS_CL":"UQ1200","MLSFC_CL":"UQ1220","SCLAS_CL":"UQ1221","ATRB_SE":"UQ1221","WTNNC_SN":"11000AGZ201209058189","NTFC_SN":"11000NTC201208026577","DGM_NM":"정릉골 주택재개발사업","SIGNGU_SE":"11000","DRAWING_NO":" ","CREATE_DAT":1576368000000,"DGM_AR":204981.69214413,"DGM_LT":4083.1570542,"SHAPE.AREA":204981.69214409,"SHAPE.LEN":4083.15705419929}}]}