{"type":"FeatureCollection","features":[{"type":"Feature","id":85149,"geometry":{"type":"Polygon","coordinates":[[[126.92152685782474,37.5932683619621],[126.92152391337382,37.593268810458774],[126.92150273712937,37.593270958467706],[126.92148733665336,37.5932721193064],[126.92138938312263,37.59328133298901],[126.92128214328973,37.59329189175455],[126.92127591401703,37.59329341919312],[126.92124930414053,37.59329425703558],[126.92126367807663,37.5931629844051],[126.92126499310166,37.59315098418981],[126.92126731443214,37.593129776600215],[126.921272930441,37.59305611595034],[126.92127513546562,37.593027222885894],[126.92127632992941,37.59301150152344],[126.92128103461873,37.59295348133821],[126.92128160966307,37.59294519267427],[126.9212843451516,37.59292843622722],[126.92128641308415,37.59290066929903],[126.92128905543903,37.59286519033608],[126.92129480732494,37.592865329393064],[126.92130170016705,37.59283629535567],[126.92130321847233,37.59279313023251],[126.92130585795464,37.59271811607763],[126.92130679688361,37.59268727602453],[126.92131014110153,37.59257806999388],[126.92130181446328,37.592582109754986],[126.92130171177523,37.592572288956575],[126.92130024686394,37.592565710775794],[126.9213190459859,37.592562750301916],[126.9213171437253,37.5925416659773],[126.92131354768024,37.59251625577712],[126.92131085649778,37.59249174717584],[126.9213092867711,37.592477330360545],[126.9212782624335,37.592371623816575],[126.92126525401994,37.59225421671653],[126.92125015897079,37.5921820376077],[126.92110747257095,37.591884075063525],[126.92101402560469,37.591705616458206],[126.92099392280436,37.591657670375426],[126.92098358764716,37.59163434584778],[126.9209584589271,37.59157466551198],[126.9209521346283,37.59155943455875],[126.92092580549571,37.59151049313046],[126.92088954538566,37.591431001540016],[126.92088319417823,37.59144073684345],[126.92088317781494,37.59141392353503],[126.92086515033225,37.591373592164324],[126.92089418457205,37.59132892316968],[126.92096477878172,37.591320871515784],[126.92098840077583,37.59131817567044],[126.92110333867991,37.59130627093472],[126.9212003777443,37.59130273306507],[126.92130274260697,37.59129532450173],[126.92133977446376,37.59128904277009],[126.92139831607687,37.591285838975836],[126.9214218677816,37.5912853143686],[126.92149278579403,37.59128142516685],[126.92151583647491,37.59129411764347],[126.92176539487014,37.59128770933319],[126.92193084709274,37.591261332060284],[126.92204894504468,37.59125888887124],[126.92208389613312,37.591292699314636],[126.92210131320907,37.591311361412785],[126.92220534216696,37.5913362084305],[126.92221722819221,37.5913388292713],[126.92226975542123,37.59134823478677],[126.92228367905312,37.591351307481084],[126.92234129825479,37.59136377972982],[126.92236040942296,37.5913865874544],[126.9224270860411,37.59139978652236],[126.92245189680315,37.591386468573845],[126.92255457487651,37.59140410650299],[126.92262804610176,37.591416409018066],[126.92265611350584,37.59142859106344],[126.92267162424461,37.59142986280339],[126.92280590058606,37.59144004344521],[126.92280952653488,37.59154501055173],[126.92281532325806,37.59163150892283],[126.9228211170536,37.591720800342145],[126.92283190064484,37.591802707014054],[126.92283847900346,37.59189965732023],[126.92284562806944,37.591992283279836],[126.92285323983153,37.59207562940694],[126.92286439362822,37.59212861471997],[126.92286616203835,37.59216970078475],[126.92287353117317,37.59226845357851],[126.9228819225093,37.59236423380288],[126.92288360728202,37.592377209099425],[126.92289086256795,37.592476592501804],[126.92289339781864,37.59254218584733],[126.92290441240885,37.592622114093615],[126.92291890600339,37.59272731906506],[126.92292678777882,37.59279308174819],[126.92293057934297,37.592824759274905],[126.92293631432409,37.592862514332914],[126.9229044105281,37.59290593674716],[126.92290422456524,37.592906190700866],[126.92276794910204,37.59296394304945],[126.92274744542192,37.59297266891537],[126.9226192124147,37.593027182915044],[126.92258545488647,37.59304157609336],[126.92245948718235,37.593095190449354],[126.92236308514599,37.593136571115444],[126.92229060321014,37.59312944075159],[126.92228372780001,37.593131688597055],[126.92226434751065,37.593138036534604],[126.9222228935155,37.59314936109478],[126.92202774915924,37.59319635131246],[126.92197078073971,37.59320946730337],[126.92193680757845,37.59321349883224],[126.92179795510904,37.593233839456865],[126.92174338122659,37.59324183936498],[126.92173389054338,37.593243752046675],[126.92170314206719,37.59324996606955],[126.9216824505547,37.59325414165289],[126.92166478655285,37.593254309901184],[126.9216600308156,37.59325439678222],[126.92156607553746,37.59326248708622],[126.92156295067151,37.593262232693995],[126.92152685782474,37.5932683619621]]]},"properties":{"OBJECTID":85149,"PRESENT_SN":"11000UQ181PS201912150427","LCLAS_CL":"UQ1200","MLSFC_CL":"UQ1240","SCLAS_CL":" ","ATRB_SE":"UQ1240","WTNNC_SN":"11000AGZ200911029842","NTFC_SN":"11000NTC200910294018","DGM_NM":"응암3구역주택재건축사업","SIGNGU_SE":"11000","DRAWING_NO":" ","CREATE_DAT":1576368000000,"DGM_AR":30363.61386101,"DGM_LT":726.20342203,"SHAPE.AREA":30363.613861,"SHAPE.LEN":726.203422025934}}]}