{"type":"FeatureCollection","features":[{"type":"Feature","id":86539,"geometry":{"type":"Polygon","coordinates":[[[126.97342453386052,37.48906190809072],[126.97336328784178,37.489108322064006],[126.97331744762185,37.48914031466666],[126.97320846262352,37.48921585550835],[126.97293199678309,37.489403683564454],[126.97293473135095,37.48940838744782],[126.9728064959289,37.48946653395023],[126.97275758127013,37.48949435395497],[126.97273817373512,37.48950538648369],[126.97267056860349,37.48956123201864],[126.97265604057752,37.48958581676981],[126.97262025134626,37.489648753706774],[126.97249940366282,37.48978241271307],[126.97238094042926,37.48991856975337],[126.97232758569557,37.48998217621345],[126.97224224200181,37.48992490554212],[126.97215993479342,37.48986967182373],[126.97207177204947,37.489810508227166],[126.97203829967965,37.48978850646377],[126.97194827107477,37.48973021627903],[126.97186095566647,37.48967369266675],[126.97184292511903,37.48966202018584],[126.97182309727505,37.48964893267999],[126.97168935558896,37.48956067304219],[126.97165781651991,37.48953985196858],[126.97165371890931,37.48952242558662],[126.97174882704371,37.48945909124271],[126.97178982092629,37.48941796188782],[126.9718093827617,37.489388774396446],[126.97186090646309,37.48931188695902],[126.97191008034301,37.48916641115624],[126.97191778051311,37.48914363038961],[126.9719437871136,37.489086351296486],[126.97198519151847,37.4890069114365],[126.97202851557459,37.48894530103637],[126.97208038380157,37.48888811305674],[126.97219521920039,37.488814095592225],[126.9722297480828,37.4887934712457],[126.97228014460475,37.48876338130167],[126.97233703291238,37.48872940962739],[126.97242015987047,37.488679766981804],[126.97247055862563,37.48864351411326],[126.9724998975551,37.48862241088095],[126.97251882519434,37.48859454758301],[126.97257599704638,37.488540132161276],[126.97260361068261,37.48849491770709],[126.97264756757649,37.488449788330456],[126.97268603137968,37.48839887317363],[126.97272715206343,37.48834858034159],[126.97274372475772,37.48832831186684],[126.9728162599134,37.48823952689631],[126.97284842058129,37.488201341291166],[126.97288102322922,37.48816636514803],[126.97291322541265,37.488131817775056],[126.97293751163161,37.488105784735865],[126.97295406742646,37.488088035424234],[126.97295938620914,37.488082264900285],[126.97299392366712,37.48804359328858],[126.97306300526729,37.48796623201573],[126.97312302513927,37.487901140152175],[126.97315262800475,37.48789844426041],[126.973158697749,37.48790410400101],[126.97318555200108,37.48787411613353],[126.97317958366668,37.48786939345921],[126.97318397921948,37.48784709474869],[126.97321086471753,37.48782411666731],[126.9732689676495,37.4877744584091],[126.97332760285856,37.48772234051724],[126.97334653835752,37.48770223469952],[126.97335765758316,37.487690434241884],[126.9734107810635,37.4876519020837],[126.97349452550192,37.48757867963305],[126.97365224217634,37.48746937149375],[126.9736936262873,37.48743736869264],[126.97373177548509,37.48740829336836],[126.97377250605331,37.487369992390924],[126.97380200564432,37.48734014916176],[126.97383167754242,37.48730291775988],[126.9738530010156,37.48727617204398],[126.97390545353905,37.487185156213116],[126.97393639623832,37.48713558137125],[126.9739706074903,37.48708357458097],[126.97400262393107,37.48703490097193],[126.97407139672661,37.48696177372732],[126.97409876233701,37.48695383325408],[126.9741149405365,37.48695925202145],[126.97413385856406,37.486973519248714],[126.97417793718358,37.48700516359115],[126.97427638413615,37.4870738425831],[126.97431693158427,37.487102747016856],[126.97440290991597,37.48716402581561],[126.97445061291388,37.48719803150878],[126.97457513844844,37.487286358035426],[126.97459953264546,37.4873036628082],[126.97461821698228,37.48732056983587],[126.97479135628444,37.487459201046605],[126.97486503421925,37.487518197191065],[126.97494766270526,37.48762241291989],[126.97475267904585,37.487777807739526],[126.97464305737863,37.48787261136916],[126.97453902993962,37.48796175428529],[126.97450061066714,37.48800616123146],[126.97443042702916,37.48801437850663],[126.97433898111544,37.48810501258082],[126.97430155624258,37.48817554690377],[126.97423761141268,37.488277781302905],[126.97418242529012,37.488341708952284],[126.97412173703157,37.48841181976708],[126.97405447615166,37.48849029931701],[126.97399466505007,37.488560512982616],[126.97398746642074,37.48856187722239],[126.97392841034845,37.48865099942542],[126.97386258306304,37.48873490322031],[126.97380090245402,37.488796084718814],[126.97377207274562,37.48881691809303],[126.97368136396582,37.48888474209166],[126.97359101816721,37.48894903418393],[126.9735099542378,37.48899836278999],[126.97351000067626,37.48901329598187],[126.97348985276858,37.48903336909764],[126.97345630527812,37.48906691619255],[126.97344934210999,37.48906135536616],[126.97342453386052,37.48906190809072]]]},"properties":{"OBJECTID":86539,"PRESENT_SN":"11000UQ181PS201912150471","LCLAS_CL":"UQ1200","MLSFC_CL":"UQ1240","SCLAS_CL":" ","ATRB_SE":"UQ1240","WTNNC_SN":"11000AGZ201105179950","NTFC_SN":"11000NTC201105066073","DGM_NM":"사당1 주택재건축정비구역","SIGNGU_SE":"11000","DRAWING_NO":" ","CREATE_DAT":1576368000000,"DGM_AR":33946.10373299,"DGM_LT":909.56458712,"SHAPE.AREA":33946.10373296,"SHAPE.LEN":909.564587122603}},{"type":"Feature","id":85037,"geometry":{"type":"Polygon","coordinates":[[[126.97342453386052,37.48906190809072],[126.97336328784178,37.489108322064006],[126.97331744762185,37.48914031466666],[126.97320846262352,37.48921585550835],[126.97293199678309,37.489403683564454],[126.97293473135095,37.48940838744782],[126.9728064959289,37.48946653395023],[126.97275758127013,37.48949435395497],[126.97273817373512,37.48950538648369],[126.97267056860349,37.48956123201864],[126.97265604057752,37.48958581676981],[126.97262025134626,37.489648753706774],[126.97249940366282,37.48978241271307],[126.97238094042926,37.48991856975337],[126.97232758569557,37.48998217621345],[126.97224224200181,37.48992490554212],[126.97215993479342,37.48986967182373],[126.97207177204947,37.489810508227166],[126.97203829967965,37.48978850646377],[126.97194827107477,37.48973021627903],[126.97186095566647,37.48967369266675],[126.97184292511903,37.48966202018584],[126.97182309727505,37.48964893267999],[126.97168935558896,37.48956067304219],[126.97165781651991,37.48953985196858],[126.97165371890931,37.48952242558662],[126.97174882704371,37.48945909124271],[126.97178982092629,37.48941796188782],[126.9718093827617,37.489388774396446],[126.97186090646309,37.48931188695902],[126.97191008034301,37.48916641115624],[126.97191778051311,37.48914363038961],[126.9719437871136,37.489086351296486],[126.97198519151847,37.4890069114365],[126.97202851557459,37.48894530103637],[126.97208038380157,37.48888811305674],[126.97219521920039,37.488814095592225],[126.9722297480828,37.4887934712457],[126.97228014460475,37.48876338130167],[126.97233703291238,37.48872940962739],[126.97242015987047,37.488679766981804],[126.97247055862563,37.48864351411326],[126.9724998975551,37.48862241088095],[126.97251882519434,37.48859454758301],[126.97257599704638,37.488540132161276],[126.97260361068261,37.48849491770709],[126.97264756757649,37.488449788330456],[126.97268603137968,37.48839887317363],[126.97272715206343,37.48834858034159],[126.97274372475772,37.48832831186684],[126.9728162599134,37.48823952689631],[126.97284842058129,37.488201341291166],[126.97288102322922,37.48816636514803],[126.97291322541265,37.488131817775056],[126.97293751163161,37.488105784735865],[126.97295406742646,37.488088035424234],[126.97295938620914,37.488082264900285],[126.97299392366712,37.48804359328858],[126.97306300526729,37.48796623201573],[126.97312302513927,37.487901140152175],[126.97315262800475,37.48789844426041],[126.973158697749,37.48790410400101],[126.97318555200108,37.48787411613353],[126.97317958366668,37.48786939345921],[126.97318397921948,37.48784709474869],[126.97321086471753,37.48782411666731],[126.9732689676495,37.4877744584091],[126.97332760285856,37.48772234051724],[126.97334653835752,37.48770223469952],[126.97335765758316,37.487690434241884],[126.9734107810635,37.4876519020837],[126.97349452550192,37.48757867963305],[126.97365224217634,37.48746937149375],[126.9736936262873,37.48743736869264],[126.97373177548509,37.48740829336836],[126.97377250605331,37.487369992390924],[126.97380200564432,37.48734014916176],[126.97383167754242,37.48730291775988],[126.9738530010156,37.48727617204398],[126.97390545353905,37.487185156213116],[126.97393639623832,37.48713558137125],[126.9739706074903,37.48708357458097],[126.97400262393107,37.48703490097193],[126.97407139672661,37.48696177372732],[126.97409876233701,37.48695383325408],[126.9741149405365,37.48695925202145],[126.97413385856406,37.486973519248714],[126.97417793718358,37.48700516359115],[126.97427638413615,37.4870738425831],[126.97431693158427,37.487102747016856],[126.97440290991597,37.48716402581561],[126.97445061291388,37.48719803150878],[126.97457513844844,37.487286358035426],[126.97459953264546,37.4873036628082],[126.97461821698228,37.48732056983587],[126.97479135628444,37.487459201046605],[126.97486503421925,37.487518197191065],[126.97494766270526,37.48762241291989],[126.97475267904585,37.487777807739526],[126.97464305737863,37.48787261136916],[126.97453902993962,37.48796175428529],[126.97450061066714,37.48800616123146],[126.97443042702916,37.48801437850663],[126.97433898111544,37.48810501258082],[126.97430155624258,37.48817554690377],[126.97423761141268,37.488277781302905],[126.97418242529012,37.488341708952284],[126.97412173703157,37.48841181976708],[126.97405447615166,37.48849029931701],[126.97399466505007,37.488560512982616],[126.97398746642074,37.48856187722239],[126.97392841034845,37.48865099942542],[126.97386258306304,37.48873490322031],[126.97380090245402,37.488796084718814],[126.97377207274562,37.48881691809303],[126.97368136396582,37.48888474209166],[126.97359101816721,37.48894903418393],[126.9735099542378,37.48899836278999],[126.97351000067626,37.48901329598187],[126.97348985276858,37.48903336909764],[126.97345630527812,37.48906691619255],[126.97344934210999,37.48906135536616],[126.97342453386052,37.48906190809072]]]},"properties":{"OBJECTID":85037,"PRESENT_SN":"11000UQ181PS201912150471","LCLAS_CL":"UQ1200","MLSFC_CL":"UQ1240","SCLAS_CL":" ","ATRB_SE":"UQ1240","WTNNC_SN":"11000AGZ201105179950","NTFC_SN":"11000NTC201105066073","DGM_NM":"사당1 주택재건축정비구역","SIGNGU_SE":"11000","DRAWING_NO":" ","CREATE_DAT":1576368000000,"DGM_AR":33946.10373299,"DGM_LT":909.56458712,"SHAPE.AREA":33946.10373296,"SHAPE.LEN":909.564587122603}}]}