{"type":"FeatureCollection","features":[{"type":"Feature","id":85976,"geometry":{"type":"Polygon","coordinates":[[[127.0332469464177,37.619917483229],[127.03321924822872,37.62004227644128],[127.03321405167974,37.62007498342079],[127.0331907683663,37.62019373886962],[127.03317030731212,37.62029023934281],[127.03314702031291,37.6204006156636],[127.03311728900101,37.6205398250697],[127.03310790088626,37.62057145198776],[127.03308099862558,37.62070453395824],[127.03304832410414,37.620848699517715],[127.03302737853778,37.62087159000743],[127.03291637743213,37.620856519163645],[127.03288827343538,37.6208533371675],[127.03287960770125,37.620852231265005],[127.03275970343809,37.62083697343349],[127.03275108302387,37.620835885529154],[127.03273682139752,37.62083409635204],[127.03272816702516,37.62083306251384],[127.03259908858143,37.6208168726284],[127.03259070497553,37.62081594412347],[127.03253835981135,37.620810092512734],[127.03267606303373,37.62018369480097],[127.03269769336701,37.620173327815515],[127.03276126781111,37.619702909193705],[127.03283866347878,37.61951016898482],[127.03284081234806,37.61950241998347],[127.03293371637834,37.61928805205945],[127.03299271829215,37.61899251476414],[127.03302098193969,37.61886564917669],[127.03303964434834,37.618801944875294],[127.03313230539226,37.618819669405674],[127.03314196792702,37.61882141471907],[127.0331479059116,37.61882248709653],[127.03318222783605,37.61875145180113],[127.03323602643604,37.618662393454485],[127.03328843804083,37.61866808256375],[127.03334722694778,37.61867446368502],[127.03339502858115,37.618680217058746],[127.03341723060865,37.618683634785796],[127.03350377430081,37.61869946861912],[127.03347268152251,37.618830299405694],[127.03346680675271,37.61886579962613],[127.0334392225503,37.61899050278341],[127.03340598027691,37.61912800138235],[127.03339942491533,37.61916133942854],[127.03337094383156,37.61930829702145],[127.0333444996028,37.61945083925074],[127.0333357932185,37.619486880812666],[127.03330470058596,37.61961951349814],[127.03327643387891,37.61973872080527],[127.03327950661117,37.6197726869363],[127.0332469464177,37.619917483229]]]},"properties":{"OBJECTID":85976,"PRESENT_SN":"11000UQ181PS202206150001","LCLAS_CL":"UQ1200","MLSFC_CL":"UQ1206","SCLAS_CL":" ","ATRB_SE":"UQ1206","WTNNC_SN":"11000AGZ202206020001","NTFC_SN":"11305NTC202206020001","DGM_NM":"미아동 3-111번지 일대 주택재건축정비사업","SIGNGU_SE":"11000","DRAWING_NO":" ","CREATE_DAT":1655251200000,"DGM_AR":10194.9157552,"DGM_LT":570.75541537,"SHAPE.AREA":10194.91618645,"SHAPE.LEN":570.755426255493}}]}