{"type":"FeatureCollection","features":[{"type":"Feature","id":85616,"geometry":{"type":"Polygon","coordinates":[[[126.93759953305205,37.60313363266042],[126.93740583957302,37.603030581315146],[126.93730260080964,37.60297593104079],[126.93725930870083,37.60293765355221],[126.93724805624691,37.602927702377514],[126.93723696216863,37.602920580373876],[126.93717934789984,37.60288388258604],[126.9370718067051,37.60283130382555],[126.93704577501411,37.60281191847858],[126.93701260670301,37.60279514567962],[126.93699087606396,37.602780988371244],[126.93683009980647,37.6027407273413],[126.93671008300895,37.60271291843886],[126.93649224705145,37.60265289768359],[126.93638433211909,37.60264545732798],[126.93631153035544,37.602626770389016],[126.93630372015186,37.60262262155289],[126.93611081157104,37.60254756564862],[126.93608284519746,37.602542055953776],[126.93602702999674,37.602523558451956],[126.93590538889055,37.6024685687811],[126.93582915895281,37.60242607386976],[126.93575659412502,37.60238562438019],[126.93570750453273,37.60235826119885],[126.93569243017642,37.602349857434355],[126.93568076350847,37.60233481172128],[126.93557981688164,37.60225178205477],[126.93555719306065,37.60221852314546],[126.9355155596953,37.602167958335386],[126.93538471755569,37.60207186914965],[126.93539353040268,37.60204468692853],[126.935402856241,37.601999580840115],[126.93543214554312,37.60191874303709],[126.93544665171626,37.60190491206094],[126.93548764172291,37.601806781919954],[126.93553479839025,37.601701428426466],[126.93554518346897,37.60167621571898],[126.93556517827437,37.601640755194616],[126.93560489789446,37.60157030700033],[126.93566601308842,37.60145653795446],[126.93568395400114,37.60143986265904],[126.93573198655176,37.60134233911084],[126.93575324095119,37.60131786313849],[126.93580638012644,37.601220802805535],[126.93586006093427,37.60112706647474],[126.93588025232776,37.60110080594078],[126.93593032164596,37.601003248300366],[126.93597328860223,37.60093508486977],[126.9359906395922,37.60090778570712],[126.93600227915965,37.600883817909974],[126.93606724737327,37.600765490905786],[126.93613909287501,37.60064155544926],[126.93614557321393,37.60064075716373],[126.93617800187148,37.60064348347581],[126.93621544691395,37.60064642338459],[126.93632806758394,37.60065765783211],[126.9363470084659,37.60066390129329],[126.93637163241102,37.60067201652735],[126.93637168448608,37.600672034575744],[126.93637643002538,37.60067377609237],[126.93650917392759,37.60072245641885],[126.93655365106433,37.60073997799995],[126.9365627165817,37.60074452484521],[126.93667060683264,37.600817707059136],[126.93666662838747,37.60080890316938],[126.9366723911114,37.60079729266353],[126.93673544513044,37.6007029583189],[126.93661954191647,37.600639069002],[126.93667934875585,37.60055705744751],[126.93670277101259,37.600524942154564],[126.93681988873851,37.600585434449314],[126.93695970624032,37.6006270463306],[126.9370160823601,37.60064635819214],[126.93713530437994,37.60067156161624],[126.93719068184416,37.600665824617906],[126.9371907905662,37.600665812063404],[126.93719285632382,37.60066552847858],[126.9373143577915,37.60064877327924],[126.93732725875498,37.600657340536884],[126.93732999895245,37.600632564991294],[126.93734982931919,37.60061716806165],[126.93741121500156,37.6006064797199],[126.93740005256186,37.60065564931543],[126.93751490750749,37.60060758203611],[126.93761874387755,37.60065497505008],[126.93762551883215,37.6006777744917],[126.9378111375416,37.60065796219921],[126.93788012590862,37.60065025366427],[126.93791385676988,37.60064648591519],[126.93800030999128,37.600639080440814],[126.93798100399137,37.601010104799826],[126.93793830705101,37.60096400553308],[126.93792045326089,37.600930937944085],[126.93787344628852,37.6009182546944],[126.93784290532474,37.60092997622936],[126.93780293166185,37.60094531822058],[126.93770190744142,37.60102548717402],[126.93757297467995,37.60108707076114],[126.93744437983821,37.60115051131618],[126.93731832236453,37.6011877804543],[126.93727836894138,37.60133339361182],[126.9373586833469,37.60142190391845],[126.93738706973667,37.60143903892378],[126.93742495548891,37.60151091199601],[126.93746234526057,37.60158152521183],[126.93747028288541,37.60167476233634],[126.93752712314239,37.601683434494774],[126.93756294606,37.60173127808698],[126.93763529194092,37.601841453422225],[126.9377071434099,37.601950014783434],[126.93776143319643,37.602040196473176],[126.93776418891292,37.60222272898745],[126.93764806553983,37.60224037952789],[126.93750553973433,37.60230394684318],[126.93755309853664,37.60238728651263],[126.9376242615518,37.60251875232689],[126.93767162264088,37.60262174137294],[126.93771637179101,37.602693681118836],[126.9377165402928,37.60269395240574],[126.93771924783638,37.60270602703894],[126.9377309822012,37.60275639922102],[126.93766982478412,37.60289682846828],[126.93761097227794,37.6029888779563],[126.93769077697765,37.60302703181074],[126.93760745704769,37.603125374038804],[126.93760676995467,37.60312502138248],[126.93759953305205,37.60313363266042]]]},"properties":{"OBJECTID":85616,"PRESENT_SN":"11000UQ181PS201912151564","LCLAS_CL":"UQ1200","MLSFC_CL":"UQ1220","SCLAS_CL":"UQ1221","ATRB_SE":"UQ1221","WTNNC_SN":"11000AGZ201901080074","NTFC_SN":"11000NTC201901081580","DGM_NM":"녹번제1구역 제1지구","SIGNGU_SE":"11000","DRAWING_NO":" ","CREATE_DAT":1576368000000,"DGM_AR":39311.48562682,"DGM_LT":1006.80253368,"SHAPE.AREA":39311.485626745,"SHAPE.LEN":1006.80253368006}}]}