{"type":"FeatureCollection","features":[{"type":"Feature","id":86286,"geometry":{"type":"Polygon","coordinates":[[[127.00981106098693,37.50176138134092],[127.01003862334034,37.501959674908804],[127.01016248176967,37.50215968756375],[127.01006420906738,37.50219663565046],[127.01007101659582,37.50238953891698],[127.01007396672316,37.50247477315073],[127.01009557381093,37.50253099388231],[127.01010383202072,37.502552437043505],[127.01009671552042,37.502625238228326],[127.01009456926455,37.502647132644206],[127.01009027431772,37.5026696579148],[127.01007908489731,37.50272885431768],[127.01007795839278,37.50276759732787],[127.0100761556643,37.502826793048854],[127.01001656816256,37.5029369894455],[127.00984852249044,37.50303349833512],[127.00982997360447,37.50301917376898],[127.00978710465141,37.50295926039089],[127.00973134517976,37.50291781835912],[127.00965218078927,37.502925031823864],[127.00960185931793,37.502971076292134],[127.00960027988913,37.50300702623246],[127.00959779809156,37.5030650506924],[127.00959678287319,37.50308937771562],[127.0095387778738,37.50320056485623],[127.0094737509967,37.50321849911959],[127.00940273029916,37.50323805554424],[127.00935614222263,37.50330004732523],[127.00933318330384,37.50329139926332],[127.00919135835782,37.50323779916572],[127.00910371871463,37.503315741176046],[127.00906574878036,37.50338458888451],[127.00897538051177,37.503548477192446],[127.0089481297472,37.5035979437117],[127.00886853696088,37.503742477812594],[127.00848738434651,37.503598872795386],[127.0083815245935,37.50355905487344],[127.00784182330607,37.50336491988452],[127.0083370893102,37.50243326007028],[127.00800639659755,37.502310652817876],[127.00783447895728,37.50210280180103],[127.00797582129252,37.50184150460461],[127.00731678301794,37.50114065204155],[127.00788074449862,37.500100032616956],[127.00793079311873,37.50000767843897],[127.00794377025863,37.49998373729558],[127.00807173839917,37.49994931301238],[127.00829301353784,37.49988978865716],[127.0083538197533,37.4998734320258],[127.00853014134341,37.499567244275894],[127.00857215799813,37.49949427888846],[127.00856660138548,37.4994517881148],[127.00851082172447,37.49902531442322],[127.00851156533729,37.498510749373416],[127.00880863554578,37.49851073411342],[127.00926992306249,37.49852106622853],[127.00922539499813,37.498815513802526],[127.0094971598209,37.49895362069506],[127.00952948089781,37.49906672090084],[127.00950081084119,37.499256356078334],[127.00939147155603,37.499412596620175],[127.00940957931041,37.49954278974436],[127.0094400100012,37.49963757278362],[127.00940610638047,37.49985453556372],[127.00936551465003,37.499921752776395],[127.00941494455407,37.50001851674945],[127.00941348523621,37.5001214109043],[127.00931162434053,37.50043109092886],[127.00928404661894,37.50058633481838],[127.00934568271121,37.50060804481769],[127.00938244279205,37.50066480529164],[127.00930442876783,37.500836901201566],[127.00929832446228,37.50086149886643],[127.00926893451238,37.500991604999236],[127.00925922543604,37.50115315468429],[127.0093468743017,37.50118927895045],[127.00950928321295,37.50129207201103],[127.00963153877082,37.50133423040904],[127.00967090033616,37.50138936881006],[127.00981106098693,37.50176138134092]]]},"properties":{"OBJECTID":86286,"PRESENT_SN":"11000UQ181PS202406250001","LCLAS_CL":"UQ1200","MLSFC_CL":"UQ1240","SCLAS_CL":" ","ATRB_SE":"UQ1240","WTNNC_SN":"11650AGZ202406250001","NTFC_SN":"11000NTC202406250004","DGM_NM":"반포미도1차아파트 재건축정비사업","SIGNGU_SE":"11000","DRAWING_NO":" ","CREATE_DAT":1719273600000,"DGM_AR":76518.62620633,"DGM_LT":1532.40556609,"SHAPE.AREA":76518.623377185,"SHAPE.LEN":1532.4054951923101}}]}