{"type":"FeatureCollection","features":[{"type":"Feature","id":85577,"geometry":{"type":"Polygon","coordinates":[[[127.01907904187674,37.55280725005393],[127.01926638945575,37.552843261669075],[127.01923069275867,37.552924734601206],[127.01921032207828,37.552971219760835],[127.01904431852725,37.55293826825965],[127.01903164348799,37.55288925625052],[127.01884352692811,37.55285569507057],[127.01878827490478,37.55284202612651],[127.01862387055462,37.55282243549071],[127.01848335676321,37.5528055621877],[127.0185557349469,37.55273673410162],[127.01856387397682,37.55269681904121],[127.01858345322772,37.55260254556044],[127.01858531861997,37.55259429221633],[127.01851225439133,37.55243203433225],[127.01835675776982,37.55226351728655],[127.01828396294263,37.55218882650345],[127.01826591991978,37.552170403803366],[127.0183838576512,37.55209614538047],[127.01838854838223,37.55207079083076],[127.01839444851909,37.55203886788532],[127.0183736284053,37.552000452613136],[127.01825769465896,37.55197700730529],[127.01828792123243,37.55192479060151],[127.01827208812475,37.55186963419362],[127.01822235388154,37.551780154834454],[127.01816730033183,37.55178978519117],[127.01802639912668,37.55170034559673],[127.01797618506754,37.55169141477717],[127.01785279216415,37.55160661263526],[127.01776304614951,37.55168841696197],[127.0177430461166,37.551672418114876],[127.01760997188715,37.55161291687108],[127.01746380345043,37.551601611244884],[127.01734933346827,37.55159240951083],[127.01671808029703,37.5515439380577],[127.01673413247715,37.55151368071813],[127.01673491302367,37.55151219398267],[127.01675017938192,37.55151317409443],[127.01691346550106,37.551504404297816],[127.01697944099467,37.5515016927053],[127.01707576747003,37.551497733713724],[127.01708649761584,37.55145277285649],[127.01711396175558,37.55133769468045],[127.01723456548294,37.55118784390783],[127.01732598436642,37.551096741525775],[127.01730512552241,37.551085472920114],[127.01717670173663,37.55101612272947],[127.01718926060515,37.55100404778519],[127.01721751234095,37.55098205895318],[127.01728424765214,37.550930117846114],[127.01740765208504,37.55081097228386],[127.0174203012936,37.55079832967815],[127.01746552383979,37.55075295868518],[127.01747197462281,37.550648451872256],[127.01747688192324,37.550576290841946],[127.01748118900377,37.550502084642176],[127.01748633316502,37.55042632862358],[127.01760857420253,37.55042806896266],[127.0177891974043,37.55043171124605],[127.01779762261735,37.5504321245407],[127.01781798243317,37.550412840524615],[127.01791371200727,37.55047509295792],[127.01792116950601,37.550479941055805],[127.01799534847113,37.55052843107349],[127.01800054106198,37.550520789945246],[127.01822841569742,37.55059665739899],[127.01827678602622,37.55061258006463],[127.01840815752152,37.55065432227884],[127.01845842581577,37.550655726931005],[127.0184614473452,37.550655810289655],[127.01856978449099,37.55067385055435],[127.01852723501214,37.55077628134281],[127.0186764443865,37.550779908769655],[127.01884887369222,37.550776540912636],[127.01884886965361,37.55075909772845],[127.0188916574234,37.550758893222955],[127.01902930037579,37.55075864764403],[127.01902930834117,37.550792696090795],[127.01917373875399,37.550781745564336],[127.01917715479483,37.5508710963251],[127.01923329535198,37.55086748395251],[127.0192385850445,37.55098362989898],[127.01924141938338,37.55100557761229],[127.01924754898654,37.55113211185456],[127.01925351218954,37.55127269256648],[127.01926126882945,37.55143599599445],[127.01926793030117,37.551562178760044],[127.01927571461934,37.551698785817315],[127.01909023236641,37.551690596528346],[127.01890412890681,37.55168744357807],[127.01890417586522,37.55188960788521],[127.01890313254417,37.551928927276215],[127.0189166560683,37.55222126975265],[127.01901003003483,37.55221876922359],[127.01901108238076,37.55226671078407],[127.01901527866893,37.55235398913266],[127.0190190577605,37.55244774566472],[127.01902290506443,37.552591182810744],[127.01902490211693,37.55266219859878],[127.01902701206126,37.55273201605165],[127.01907299206844,37.552730801897525],[127.01907904187674,37.55280725005393]]]},"properties":{"OBJECTID":85577,"PRESENT_SN":"11000UQ181PS201912150087","LCLAS_CL":"UQ1200","MLSFC_CL":"UQ1220","SCLAS_CL":"UQ1221","ATRB_SE":"UQ1221","WTNNC_SN":"11000AGZ200812017639","NTFC_SN":"11000NTC200802281823","DGM_NM":"금호16구역주택재개발사업","SIGNGU_SE":"11000","DRAWING_NO":" ","CREATE_DAT":1576368000000,"DGM_AR":27367.31989898,"DGM_LT":1021.98736247,"SHAPE.AREA":27367.31989895,"SHAPE.LEN":1021.98736246538}}]}