{"type":"FeatureCollection","features":[{"type":"Feature","id":84923,"geometry":{"type":"Polygon","coordinates":[[[126.94155017560237,37.5906967231033],[126.94142471334767,37.59085044836924],[126.94138558804939,37.59083221954446],[126.94134320987656,37.59081247539426],[126.94125847133098,37.590770653506816],[126.94116904862166,37.59072475671285],[126.94110837427675,37.590692573137964],[126.9410909754176,37.590640081875115],[126.94135864014629,37.59035126379145],[126.94151208499558,37.59022466344174],[126.94151377003973,37.590224345349725],[126.94151457689468,37.590223482616494],[126.94153495337682,37.5902016936468],[126.94176198468851,37.590138838071034],[126.941910326065,37.590115022561534],[126.94201942292293,37.59008069602402],[126.94210865668616,37.590056304459964],[126.94213217405509,37.59004987605469],[126.94216160139122,37.59011804494773],[126.94213053252633,37.59012653822075],[126.94209649396032,37.590133361366924],[126.94205274139533,37.59014214375678],[126.94205613851656,37.59019006524333],[126.94201198821104,37.590203469469394],[126.94201586031299,37.590232158775656],[126.9419153462539,37.59023738783587],[126.94190553630064,37.59024039397307],[126.94190190506808,37.59024478353879],[126.94187254593879,37.590281505459096],[126.94183907943676,37.590323315859024],[126.94181530979414,37.590353429164466],[126.94180631309793,37.59034753217363],[126.9417601919774,37.590409784897695],[126.94175495166374,37.59040725948747],[126.94167403989967,37.59052157147355],[126.94170939807205,37.59053841077854],[126.94171551559435,37.590542722386836],[126.94168067006416,37.590584202280844],[126.94161229854456,37.59066502917505],[126.94165312146018,37.590681350500624],[126.94163132735528,37.59071578228754],[126.94157203647781,37.590692018453524],[126.94155017560237,37.5906967231033]]]},"properties":{"OBJECTID":84923,"PRESENT_SN":"11000UQ181PS201912151373","LCLAS_CL":"UQ1200","MLSFC_CL":"UQ1220","SCLAS_CL":"UQ1222","ATRB_SE":"UQ1222","WTNNC_SN":"11000AGZ201412229160","NTFC_SN":"11000NTC201412187354","DGM_NM":"홍제2재정비촉진구역","SIGNGU_SE":"11000","DRAWING_NO":" ","CREATE_DAT":1576368000000,"DGM_AR":3069.51766015,"DGM_LT":293.90122915,"SHAPE.AREA":3069.51766014,"SHAPE.LEN":293.901229154409}},{"type":"Feature","id":85927,"geometry":{"type":"Polygon","coordinates":[[[126.94155017560237,37.5906967231033],[126.94142471334767,37.59085044836924],[126.94138558804939,37.59083221954446],[126.94134320987656,37.59081247539426],[126.94125847133098,37.590770653506816],[126.94116904862166,37.59072475671285],[126.94110837427675,37.590692573137964],[126.9410909754176,37.590640081875115],[126.94135864014629,37.59035126379145],[126.94151208499558,37.59022466344174],[126.94151377003973,37.590224345349725],[126.94151457689468,37.590223482616494],[126.94153495337682,37.5902016936468],[126.94176198468851,37.590138838071034],[126.941910326065,37.590115022561534],[126.94201942292293,37.59008069602402],[126.94210865668616,37.590056304459964],[126.94213217405509,37.59004987605469],[126.94216160139122,37.59011804494773],[126.94213053252633,37.59012653822075],[126.94209649396032,37.590133361366924],[126.94205274139533,37.59014214375678],[126.94205613851656,37.59019006524333],[126.94201198821104,37.590203469469394],[126.94201586031299,37.590232158775656],[126.9419153462539,37.59023738783587],[126.94190553630064,37.59024039397307],[126.94190190506808,37.59024478353879],[126.94187254593879,37.590281505459096],[126.94183907943676,37.590323315859024],[126.94181530979414,37.590353429164466],[126.94180631309793,37.59034753217363],[126.9417601919774,37.590409784897695],[126.94175495166374,37.59040725948747],[126.94167403989967,37.59052157147355],[126.94170939807205,37.59053841077854],[126.94171551559435,37.590542722386836],[126.94168067006416,37.590584202280844],[126.94161229854456,37.59066502917505],[126.94165312146018,37.590681350500624],[126.94163132735528,37.59071578228754],[126.94157203647781,37.590692018453524],[126.94155017560237,37.5906967231033]]]},"properties":{"OBJECTID":85927,"PRESENT_SN":"11000UQ181PS201912151373","LCLAS_CL":"UQ1200","MLSFC_CL":"UQ1220","SCLAS_CL":"UQ1222","ATRB_SE":"UQ1222","WTNNC_SN":"11000AGZ201412229160","NTFC_SN":"11000NTC201412187354","DGM_NM":"홍제2재정비촉진구역","SIGNGU_SE":"11000","DRAWING_NO":" ","CREATE_DAT":1576368000000,"DGM_AR":3069.51766015,"DGM_LT":293.90122915,"SHAPE.AREA":3069.51766014,"SHAPE.LEN":293.901229154409}}]}