{"type":"FeatureCollection","features":[{"type":"Feature","id":86805,"geometry":{"type":"Polygon","coordinates":[[[126.93469469953499,37.60594994746608],[126.9346944524946,37.60595012391874],[126.93464621793343,37.605939555105955],[126.93462924658631,37.60592170603926],[126.93460840308148,37.605928091198756],[126.9345027577243,37.60591046210392],[126.93448034781069,37.605895583169115],[126.93446721168495,37.60589476482289],[126.93438943546856,37.60586615947215],[126.93434053439553,37.60584126453654],[126.9342885043102,37.60580628490518],[126.93428835830791,37.60580618661494],[126.93432351092083,37.6057555714276],[126.93441433645853,37.605629305380084],[126.9344966650874,37.60550636806974],[126.93459587949845,37.60536992553947],[126.9346776318716,37.60525752926455],[126.93478605577675,37.60507955649386],[126.93487465205786,37.6049114832307],[126.93489543624582,37.6048442816735],[126.93489987256909,37.60482221010725],[126.93492825421765,37.6047438406486],[126.93496653427607,37.60461385046699],[126.93498246072708,37.60453313141402],[126.9349922431064,37.604484664069055],[126.93499383850745,37.60447349278505],[126.93507555091591,37.60440425325758],[126.93518615747797,37.60431646967483],[126.93522412090852,37.6042872991703],[126.93528737752403,37.604213814507766],[126.93528921757868,37.60418210095401],[126.93528952445178,37.604182128155706],[126.93538014721183,37.604190080590286],[126.93538027533792,37.604189902267535],[126.93545418849733,37.60408659916006],[126.9356217043648,37.603929921835956],[126.93557342890968,37.603838715431976],[126.93546810625908,37.6038434317454],[126.93561462386317,37.603740351138704],[126.93548629404134,37.60363783768474],[126.93558649452638,37.60314911059207],[126.93524800193399,37.60302638736562],[126.9352157376774,37.6030146564695],[126.93523793543244,37.60288492742025],[126.93526580337871,37.60274610162079],[126.93526641752287,37.60274186284152],[126.93528401028168,37.60262017336504],[126.93528881979014,37.60258691087758],[126.93528986725545,37.602586955613525],[126.93531471766705,37.602588011992346],[126.93532528291237,37.602588463003634],[126.93533581417991,37.60258891940085],[126.93533683696496,37.6025848655517],[126.93533733627801,37.60258496944471],[126.93548085653897,37.60261485884972],[126.93548124372039,37.60261370490738],[126.93551298921885,37.60251901225225],[126.9355137052059,37.60251868739787],[126.93556952053213,37.60249327574444],[126.93556970980241,37.60249310196052],[126.9355838007531,37.602480219471786],[126.93544789626479,37.60236589884787],[126.93544793355372,37.60232373287131],[126.93537522854682,37.60232684558933],[126.93536571594753,37.60232702045461],[126.93533140257983,37.60232772200371],[126.93535896296552,37.60215213589501],[126.93538269991396,37.602074033981964],[126.93538376257376,37.60207481572959],[126.93541665071734,37.602099010227185],[126.93551454246148,37.60217087334712],[126.93555617129483,37.60222144175892],[126.93557879058652,37.60225470066591],[126.93567973041523,37.60233773753728],[126.93571592718109,37.60238442863489],[126.93578405825983,37.60243158800234],[126.93581530981835,37.60243574992464],[126.93583477851126,37.602446212161745],[126.93585798963055,37.60245054979438],[126.9360259765116,37.602526505883205],[126.93608178944626,37.60254500698818],[126.93610975581927,37.60255051848524],[126.93630265760098,37.60262558700118],[126.93631046780482,37.60262973583741],[126.93638326730307,37.60264842637969],[126.93649118223337,37.60265587394413],[126.93670901139153,37.60271590911332],[126.93682902592235,37.602743725223455],[126.93698979764659,37.602783997064165],[126.93701152828629,37.602798154372735],[126.93704469433051,37.60281493077468],[126.93707072375742,37.60283431612065],[126.93717826041974,37.602886902087484],[126.93723587015742,37.6029236034773],[126.93724696196965,37.602930727281766],[126.93730150426586,37.602978959548246],[126.93740473623333,37.60303361522571],[126.93759795655686,37.60313643206101],[126.93760713869253,37.603125535142325],[126.9377021092309,37.60317432969686],[126.93755753249575,37.603353671333075],[126.93755734204224,37.60335390728732],[126.9375272338724,37.60333641190263],[126.93747640433355,37.60330815294075],[126.9374762979344,37.60330809341814],[126.93731897189377,37.60347351846841],[126.93737738593008,37.6034973361708],[126.93747893875819,37.603530096987264],[126.93748770400354,37.603609298119764],[126.93754418639438,37.60364086314206],[126.93755082767615,37.603687807938215],[126.93767021319742,37.60365877084265],[126.93772852324948,37.603804671463024],[126.93773678525355,37.60381044221702],[126.93776461544962,37.603843523316016],[126.93777745388394,37.603927411732705],[126.93781290111357,37.60392589920062],[126.93780592573519,37.604004911610545],[126.93780749481135,37.60402410338705],[126.9377942299071,37.60430736514968],[126.93778878151151,37.60443095539025],[126.93778610113539,37.604491818917204],[126.93778141143066,37.60459819539131],[126.93782499893778,37.6047457097579],[126.93782589884454,37.60474751581248],[126.93783767790636,37.60477115313728],[126.937838113164,37.6047720255232],[126.93786753375107,37.60479979165408],[126.9379007988544,37.60483449741496],[126.93788530729867,37.60494008420935],[126.93789059139874,37.60498531637766],[126.93789292631423,37.60503613304675],[126.93789608297041,37.60505289302196],[126.9378962925899,37.60505808099188],[126.93789630478469,37.605058389134435],[126.9378811353791,37.605051623587904],[126.93783834404212,37.605032589777856],[126.93778581775427,37.60500850519409],[126.9377318274392,37.60497486938157],[126.93769141237652,37.604958179356686],[126.9376457834112,37.60494680229287],[126.9375957207005,37.60495542462079],[126.93750339479672,37.6049896119137],[126.93738116042732,37.6050366669339],[126.9373020916396,37.60506230193907],[126.93720638270334,37.605079458590076],[126.93717082158923,37.60508106097563],[126.93708803431856,37.60508489003482],[126.93697160186082,37.6051010440997],[126.93689753789234,37.60510109366942],[126.93675688702656,37.60509804333394],[126.93663435256875,37.6050986968198],[126.93655631757424,37.605107213227114],[126.9364820072598,37.60513005725598],[126.93640469673667,37.60515446729217],[126.93640452455318,37.605154521256104],[126.93615612968712,37.605332778472004],[126.9361210039908,37.60535429249316],[126.93609053619554,37.605374478335],[126.93609029597023,37.60537463767572],[126.9360182669841,37.605375765396616],[126.93597939214402,37.605394060787575],[126.93597906924973,37.60539421737921],[126.93593683779795,37.605382751443955],[126.93592030357195,37.605381479078],[126.93578059236296,37.605448999348226],[126.93578027059971,37.60544915684091],[126.9357371973807,37.60549337107609],[126.93546400454917,37.60567362038868],[126.93546376998798,37.60567377522635],[126.93528233526062,37.605685836804106],[126.93511130459444,37.605714482032226],[126.9350154700849,37.60574398029136],[126.93493991325073,37.60577663163851],[126.93493967760303,37.60577673331658],[126.93483565060309,37.60584929376208],[126.93469469953499,37.60594994746608]]]},"properties":{"OBJECTID":86805,"PRESENT_SN":"11000UQ181PS201912151565","LCLAS_CL":"UQ1200","MLSFC_CL":"UQ1220","SCLAS_CL":"UQ1221","ATRB_SE":"UQ1221","WTNNC_SN":"11000AGZ201904020031","NTFC_SN":"11000NTC201904023220","DGM_NM":"녹번제1구역 제2지구","SIGNGU_SE":"11000","DRAWING_NO":" ","CREATE_DAT":1576368000000,"DGM_AR":66612.23894214,"DGM_LT":1412.12280662,"SHAPE.AREA":66612.238942005,"SHAPE.LEN":1412.1228066195702}},{"type":"Feature","id":84430,"geometry":{"type":"Polygon","coordinates":[[[126.93469469953499,37.60594994746608],[126.9346944524946,37.60595012391874],[126.93464621793343,37.605939555105955],[126.93462924658631,37.60592170603926],[126.93460840308148,37.605928091198756],[126.9345027577243,37.60591046210392],[126.93448034781069,37.605895583169115],[126.93446721168495,37.60589476482289],[126.93438943546856,37.60586615947215],[126.93434053439553,37.60584126453654],[126.9342885043102,37.60580628490518],[126.93428835830791,37.60580618661494],[126.93432351092083,37.6057555714276],[126.93441433645853,37.605629305380084],[126.9344966650874,37.60550636806974],[126.93459587949845,37.60536992553947],[126.9346776318716,37.60525752926455],[126.93478605577675,37.60507955649386],[126.93487465205786,37.6049114832307],[126.93489543624582,37.6048442816735],[126.93489987256909,37.60482221010725],[126.93492825421765,37.6047438406486],[126.93496653427607,37.60461385046699],[126.93498246072708,37.60453313141402],[126.9349922431064,37.604484664069055],[126.93499383850745,37.60447349278505],[126.93507555091591,37.60440425325758],[126.93518615747797,37.60431646967483],[126.93522412090852,37.6042872991703],[126.93528737752403,37.604213814507766],[126.93528921757868,37.60418210095401],[126.93528952445178,37.604182128155706],[126.93538014721183,37.604190080590286],[126.93538027533792,37.604189902267535],[126.93545418849733,37.60408659916006],[126.9356217043648,37.603929921835956],[126.93557342890968,37.603838715431976],[126.93546810625908,37.6038434317454],[126.93561462386317,37.603740351138704],[126.93548629404134,37.60363783768474],[126.93558649452638,37.60314911059207],[126.93524800193399,37.60302638736562],[126.9352157376774,37.6030146564695],[126.93523793543244,37.60288492742025],[126.93526580337871,37.60274610162079],[126.93526641752287,37.60274186284152],[126.93528401028168,37.60262017336504],[126.93528881979014,37.60258691087758],[126.93528986725545,37.602586955613525],[126.93531471766705,37.602588011992346],[126.93532528291237,37.602588463003634],[126.93533581417991,37.60258891940085],[126.93533683696496,37.6025848655517],[126.93533733627801,37.60258496944471],[126.93548085653897,37.60261485884972],[126.93548124372039,37.60261370490738],[126.93551298921885,37.60251901225225],[126.9355137052059,37.60251868739787],[126.93556952053213,37.60249327574444],[126.93556970980241,37.60249310196052],[126.9355838007531,37.602480219471786],[126.93544789626479,37.60236589884787],[126.93544793355372,37.60232373287131],[126.93537522854682,37.60232684558933],[126.93536571594753,37.60232702045461],[126.93533140257983,37.60232772200371],[126.93535896296552,37.60215213589501],[126.93538269991396,37.602074033981964],[126.93538376257376,37.60207481572959],[126.93541665071734,37.602099010227185],[126.93551454246148,37.60217087334712],[126.93555617129483,37.60222144175892],[126.93557879058652,37.60225470066591],[126.93567973041523,37.60233773753728],[126.93571592718109,37.60238442863489],[126.93578405825983,37.60243158800234],[126.93581530981835,37.60243574992464],[126.93583477851126,37.602446212161745],[126.93585798963055,37.60245054979438],[126.9360259765116,37.602526505883205],[126.93608178944626,37.60254500698818],[126.93610975581927,37.60255051848524],[126.93630265760098,37.60262558700118],[126.93631046780482,37.60262973583741],[126.93638326730307,37.60264842637969],[126.93649118223337,37.60265587394413],[126.93670901139153,37.60271590911332],[126.93682902592235,37.602743725223455],[126.93698979764659,37.602783997064165],[126.93701152828629,37.602798154372735],[126.93704469433051,37.60281493077468],[126.93707072375742,37.60283431612065],[126.93717826041974,37.602886902087484],[126.93723587015742,37.6029236034773],[126.93724696196965,37.602930727281766],[126.93730150426586,37.602978959548246],[126.93740473623333,37.60303361522571],[126.93759795655686,37.60313643206101],[126.93760713869253,37.603125535142325],[126.9377021092309,37.60317432969686],[126.93755753249575,37.603353671333075],[126.93755734204224,37.60335390728732],[126.9375272338724,37.60333641190263],[126.93747640433355,37.60330815294075],[126.9374762979344,37.60330809341814],[126.93731897189377,37.60347351846841],[126.93737738593008,37.6034973361708],[126.93747893875819,37.603530096987264],[126.93748770400354,37.603609298119764],[126.93754418639438,37.60364086314206],[126.93755082767615,37.603687807938215],[126.93767021319742,37.60365877084265],[126.93772852324948,37.603804671463024],[126.93773678525355,37.60381044221702],[126.93776461544962,37.603843523316016],[126.93777745388394,37.603927411732705],[126.93781290111357,37.60392589920062],[126.93780592573519,37.604004911610545],[126.93780749481135,37.60402410338705],[126.9377942299071,37.60430736514968],[126.93778878151151,37.60443095539025],[126.93778610113539,37.604491818917204],[126.93778141143066,37.60459819539131],[126.93782499893778,37.6047457097579],[126.93782589884454,37.60474751581248],[126.93783767790636,37.60477115313728],[126.937838113164,37.6047720255232],[126.93786753375107,37.60479979165408],[126.9379007988544,37.60483449741496],[126.93788530729867,37.60494008420935],[126.93789059139874,37.60498531637766],[126.93789292631423,37.60503613304675],[126.93789608297041,37.60505289302196],[126.9378962925899,37.60505808099188],[126.93789630478469,37.605058389134435],[126.9378811353791,37.605051623587904],[126.93783834404212,37.605032589777856],[126.93778581775427,37.60500850519409],[126.9377318274392,37.60497486938157],[126.93769141237652,37.604958179356686],[126.9376457834112,37.60494680229287],[126.9375957207005,37.60495542462079],[126.93750339479672,37.6049896119137],[126.93738116042732,37.6050366669339],[126.9373020916396,37.60506230193907],[126.93720638270334,37.605079458590076],[126.93717082158923,37.60508106097563],[126.93708803431856,37.60508489003482],[126.93697160186082,37.6051010440997],[126.93689753789234,37.60510109366942],[126.93675688702656,37.60509804333394],[126.93663435256875,37.6050986968198],[126.93655631757424,37.605107213227114],[126.9364820072598,37.60513005725598],[126.93640469673667,37.60515446729217],[126.93640452455318,37.605154521256104],[126.93615612968712,37.605332778472004],[126.9361210039908,37.60535429249316],[126.93609053619554,37.605374478335],[126.93609029597023,37.60537463767572],[126.9360182669841,37.605375765396616],[126.93597939214402,37.605394060787575],[126.93597906924973,37.60539421737921],[126.93593683779795,37.605382751443955],[126.93592030357195,37.605381479078],[126.93578059236296,37.605448999348226],[126.93578027059971,37.60544915684091],[126.9357371973807,37.60549337107609],[126.93546400454917,37.60567362038868],[126.93546376998798,37.60567377522635],[126.93528233526062,37.605685836804106],[126.93511130459444,37.605714482032226],[126.9350154700849,37.60574398029136],[126.93493991325073,37.60577663163851],[126.93493967760303,37.60577673331658],[126.93483565060309,37.60584929376208],[126.93469469953499,37.60594994746608]]]},"properties":{"OBJECTID":84430,"PRESENT_SN":"11000UQ181PS201912151565","LCLAS_CL":"UQ1200","MLSFC_CL":"UQ1220","SCLAS_CL":"UQ1221","ATRB_SE":"UQ1221","WTNNC_SN":"11000AGZ201904020031","NTFC_SN":"11000NTC201904023220","DGM_NM":"녹번제1구역 제2지구","SIGNGU_SE":"11000","DRAWING_NO":" ","CREATE_DAT":1576368000000,"DGM_AR":66612.23894214,"DGM_LT":1412.12280662,"SHAPE.AREA":66612.238942005,"SHAPE.LEN":1412.1228066195702}}]}