{"type":"FeatureCollection","features":[{"type":"Feature","id":85487,"geometry":{"type":"Polygon","coordinates":[[[127.06148311940787,37.50239300954282],[127.0614629922242,37.50253853097802],[127.06144871251219,37.50264242332126],[127.06143207069935,37.502762444727175],[127.06141812802187,37.50286363389723],[127.0614091323292,37.50292842022895],[127.06139518901456,37.50302888859522],[127.06137899753442,37.503146567162325],[127.06136696572611,37.503233249281244],[127.06135313539248,37.50333371758013],[127.0613515610685,37.5033449808542],[127.06129841455258,37.503496285345136],[127.06125858285255,37.50360983125573],[127.06118094984392,37.50383070511811],[127.06073241440292,37.50368397801212],[127.06069055874029,37.5036703038139],[127.0606079786152,37.5036432251065],[127.06048965160187,37.50360445121599],[127.06040786356307,37.50357773237219],[127.06038693578901,37.50357089521731],[127.06026261354093,37.503530231990204],[127.06007799689253,37.503469776577234],[127.06006271033493,37.503300756904174],[127.06006168412077,37.50329003553479],[127.06005061852491,37.503167685468306],[127.06004434381217,37.50309777111895],[127.06003601655715,37.503006233828636],[127.0600273459657,37.50290947091678],[127.06001844864863,37.50281198731635],[127.06001057706162,37.502724594385974],[127.05999951107161,37.50260152350444],[127.06003771048312,37.50256834785218],[127.06011981487814,37.50256731605404],[127.06026796473574,37.502565530573435],[127.06040378757294,37.50256384115207],[127.06053972349632,37.50256215151805],[127.06056234178543,37.50256186991602],[127.06073005641117,37.502559803776286],[127.06082935070475,37.50255858266812],[127.06091762309823,37.50255749135673],[127.06097103925212,37.502537878586224],[127.06110942412383,37.502487082658874],[127.06124950469025,37.50243565501286],[127.06143718292931,37.50236672370133],[127.06148311940787,37.50239300954282]]]},"properties":{"OBJECTID":85487,"PRESENT_SN":"11000UQ181PS201912150403","LCLAS_CL":"UQ1200","MLSFC_CL":"UQ1240","SCLAS_CL":" ","ATRB_SE":"UQ1240","WTNNC_SN":"11000AGZ201410280199","NTFC_SN":"11000NTC201311217000","DGM_NM":"대치동 구마을 제3지구 주택재건축 정","SIGNGU_SE":"11000","DRAWING_NO":" ","CREATE_DAT":1576368000000,"DGM_AR":14833.69471,"DGM_LT":502.72065401,"SHAPE.AREA":14833.69471,"SHAPE.LEN":502.72065400875505}},{"type":"Feature","id":85565,"geometry":{"type":"Polygon","coordinates":[[[127.06148311940787,37.50239300954282],[127.0614629922242,37.50253853097802],[127.06144871251219,37.50264242332126],[127.06143207069935,37.502762444727175],[127.06141812802187,37.50286363389723],[127.0614091323292,37.50292842022895],[127.06139518901456,37.50302888859522],[127.06137899753442,37.503146567162325],[127.06136696572611,37.503233249281244],[127.06135313539248,37.50333371758013],[127.0613515610685,37.5033449808542],[127.06129841455258,37.503496285345136],[127.06125858285255,37.50360983125573],[127.06118094984392,37.50383070511811],[127.06073241440292,37.50368397801212],[127.06069055874029,37.5036703038139],[127.0606079786152,37.5036432251065],[127.06048965160187,37.50360445121599],[127.06040786356307,37.50357773237219],[127.06038693578901,37.50357089521731],[127.06026261354093,37.503530231990204],[127.06007799689253,37.503469776577234],[127.06006271033493,37.503300756904174],[127.06006168412077,37.50329003553479],[127.06005061852491,37.503167685468306],[127.06004434381217,37.50309777111895],[127.06003601655715,37.503006233828636],[127.0600273459657,37.50290947091678],[127.06001844864863,37.50281198731635],[127.06001057706162,37.502724594385974],[127.05999951107161,37.50260152350444],[127.06003771048312,37.50256834785218],[127.06011981487814,37.50256731605404],[127.06026796473574,37.502565530573435],[127.06040378757294,37.50256384115207],[127.06053972349632,37.50256215151805],[127.06056234178543,37.50256186991602],[127.06073005641117,37.502559803776286],[127.06082935070475,37.50255858266812],[127.06091762309823,37.50255749135673],[127.06097103925212,37.502537878586224],[127.06110942412383,37.502487082658874],[127.06124950469025,37.50243565501286],[127.06143718292931,37.50236672370133],[127.06148311940787,37.50239300954282]]]},"properties":{"OBJECTID":85565,"PRESENT_SN":"11000UQ181PS201912150403","LCLAS_CL":"UQ1200","MLSFC_CL":"UQ1240","SCLAS_CL":" ","ATRB_SE":"UQ1240","WTNNC_SN":"11000AGZ201410280199","NTFC_SN":"11000NTC201311217000","DGM_NM":"대치동 구마을 제3지구 주택재건축 정","SIGNGU_SE":"11000","DRAWING_NO":" ","CREATE_DAT":1576368000000,"DGM_AR":14833.69471,"DGM_LT":502.72065401,"SHAPE.AREA":14833.69471,"SHAPE.LEN":502.72065400875505}}]}