{"type":"FeatureCollection","features":[{"type":"Feature","id":86660,"geometry":{"type":"Polygon","coordinates":[[[127.11137094004515,37.50022304892859],[127.11074289447146,37.4998696290034],[127.11015153351832,37.500510594870974],[127.10846604791166,37.50001046586358],[127.1086129966667,37.49971840926233],[127.10734112586849,37.49934077563515],[127.10693540423354,37.50014736346947],[127.10482947299613,37.499522477642124],[127.1048031240506,37.49951466199428],[127.10286976631504,37.498940850657526],[127.10256680931397,37.498850938235904],[127.10129023162447,37.498471522502314],[127.10157172271018,37.49790100722105],[127.10158310225998,37.49787794102509],[127.10161808673374,37.49780703882577],[127.10169445010892,37.49765228161914],[127.10178829395322,37.49746209126097],[127.1019905511558,37.49705219020053],[127.10225949094114,37.49650713614172],[127.1023765411903,37.49626992037279],[127.1025238256323,37.49597141970956],[127.10327431529718,37.49445036665959],[127.10331681834063,37.494364221543975],[127.10335637313648,37.494346256668436],[127.10338571744016,37.49435542156328],[127.10419646438102,37.49460871142299],[127.10462223707457,37.4947416975151],[127.10570258152957,37.49507912901408],[127.10641550828991,37.49530179278766],[127.1066490109169,37.49537474636207],[127.10652395504808,37.49562596602244],[127.10704062784822,37.495787325102555],[127.10789805301009,37.49605126966923],[127.10801880593678,37.495798700955454],[127.10810750128944,37.49582601133761],[127.10812571546677,37.49583158109723],[127.10829597912789,37.49588404567797],[127.10885677581228,37.496056619404875],[127.11188582413764,37.49698888517869],[127.1121418841042,37.497090999155276],[127.11215728042376,37.497102427422426],[127.11219543139235,37.49713059295032],[127.11223053297307,37.49716137421987],[127.11229531363068,37.497226635906735],[127.11238430817984,37.4973776499188],[127.1124402644787,37.49751662150076],[127.11258511118186,37.49819367602164],[127.11261845754267,37.49833690344667],[127.11262726554747,37.49840465025772],[127.1126230832062,37.498482230169294],[127.11261102378734,37.4985861266453],[127.11257210791696,37.49872933190344],[127.11250979719512,37.49895860448511],[127.11201962026169,37.499502843592786],[127.11183285528665,37.499710202720784],[127.11155038006585,37.50002383338499],[127.11147993870247,37.500102033548345],[127.11137909180644,37.50021399532512],[127.11137094004515,37.50022304892859]]]},"properties":{"OBJECTID":86660,"PRESENT_SN":"11000UQ181PS201912151556","LCLAS_CL":"UQ1200","MLSFC_CL":"UQ1240","SCLAS_CL":" ","ATRB_SE":"UQ1240","WTNNC_SN":"11000AGZ201901280920","NTFC_SN":"11000NTC201901030026","DGM_NM":"가락시영아파트 주택재건축 정비구역","SIGNGU_SE":"11000","DRAWING_NO":" ","CREATE_DAT":1576368000000,"DGM_AR":405777.8033686,"DGM_LT":2878.49896813,"SHAPE.AREA":405777.80336894497,"SHAPE.LEN":2878.49896813456}}]}