{"type":"FeatureCollection","features":[{"type":"Feature","id":85613,"geometry":{"type":"Polygon","coordinates":[[[127.06777300886311,37.48630320447824],[127.06857194985712,37.48655872806185],[127.07034754567952,37.48712672226275],[127.07056027804573,37.48719477055001],[127.07057675512141,37.48728386987667],[127.07005764520275,37.487614473545186],[127.07004914050125,37.487619889887554],[127.07000032421537,37.487652714611045],[127.06995365802605,37.48768752026992],[127.06990948114299,37.48772430667038],[127.06986768024993,37.48776280358056],[127.06982848148813,37.487803010872206],[127.06979199784743,37.48784483838253],[127.06975834223645,37.48788810584868],[127.06972762764671,37.48793272310784],[127.06969985399986,37.48797860006219],[127.0696751342068,37.488025556448584],[127.06921014333675,37.48897881187514],[127.06670885943367,37.48817895883968],[127.06673854457605,37.48811857542686],[127.06708609860617,37.487436030152445],[127.06764967456697,37.48632922239577],[127.06774891854262,37.48629546937847],[127.06777300886311,37.48630320447824]]]},"properties":{"OBJECTID":85613,"PRESENT_SN":"11000UQ181PS201912150777","LCLAS_CL":"UQ1200","MLSFC_CL":"UQ1240","SCLAS_CL":" ","ATRB_SE":"UQ1240","WTNNC_SN":"11000AGZ201710270374","NTFC_SN":"11000NTC201709078266","DGM_NM":"개포주공5단지 주택재건축정비사업","SIGNGU_SE":"11000","DRAWING_NO":" ","CREATE_DAT":1576368000000,"DGM_AR":56173.28915566,"DGM_LT":977.10299162,"SHAPE.AREA":56173.289156,"SHAPE.LEN":977.1029916240111}}]}