{"type":"FeatureCollection","features":[{"type":"Feature","id":86296,"geometry":{"type":"Polygon","coordinates":[[[126.96266049644906,37.55815408903142],[126.96278593201383,37.558084573834506],[126.96284049877683,37.55805413826697],[126.96285675893274,37.558126222773424],[126.96301877946361,37.55818248756193],[126.96305489247652,37.55820106963096],[126.96305379660193,37.5581312425679],[126.96303177978388,37.55802897305496],[126.96305057197779,37.55779922678109],[126.96303083383744,37.55766767583505],[126.96305969365783,37.55766768523838],[126.96305630880398,37.557647411864615],[126.96304954234381,37.55760055818872],[126.96304559787073,37.55756812126915],[126.96304447954776,37.55754199219914],[126.96306145542118,37.55754289871908],[126.96311353329499,37.55750957904422],[126.96316222417043,37.55746004042851],[126.96325389375315,37.557465025614846],[126.96331060362881,37.557447474676266],[126.96336312529877,37.55743127384191],[126.96343421087289,37.55740886214295],[126.9634531141853,37.55740292170521],[126.96350744293757,37.55739392930806],[126.96350857125891,37.55740068709534],[126.96354886264818,37.55739880797969],[126.96364778014733,37.55739442489595],[126.96364213278001,37.557371898337635],[126.96364733948305,37.55737063862185],[126.96370495282187,37.55735660164384],[126.96371343072816,37.55737687663083],[126.96375180407546,37.55736319386433],[126.96377795225145,37.55735392202899],[126.96375987693553,37.557289044978404],[126.96385156290147,37.5572611435749],[126.96385891067173,37.55727826472664],[126.9639273900274,37.55726161823422],[126.9639641764736,37.557252620040664],[126.96396270908531,37.55724487106083],[126.96394722969512,37.55719387010796],[126.96396283749773,37.557191955964605],[126.96401887392686,37.557185063181414],[126.96405037163242,37.55734112463052],[126.96407005619488,37.55735698829704],[126.96420972626262,37.55756047602267],[126.96421639145267,37.55758489495338],[126.96422023246413,37.55759886150939],[126.9642215425245,37.55769526783597],[126.96421742602547,37.55777986948017],[126.96421435832825,37.557803834840186],[126.96420359767043,37.5578217611374],[126.96411561186852,37.55791786891162],[126.96410473641785,37.55793894862736],[126.96410506991039,37.55795102199626],[126.96411399799513,37.557976703033816],[126.9641365039533,37.55800896559539],[126.96427214298917,37.55812820940621],[126.96430630350895,37.55816597164784],[126.96431806280431,37.55818822980022],[126.96431125241064,37.5582280514015],[126.9642864314977,37.55829886137151],[126.96427577127285,37.55834228571492],[126.9642652107566,37.5584127397802],[126.96426496991519,37.558441841672156],[126.96427374112477,37.5585555493403],[126.96428330137394,37.55867574438013],[126.96428269132755,37.558764491670665],[126.96426479251869,37.558798183038355],[126.96423386207213,37.5588643960154],[126.96412643057387,37.55891634914607],[126.96412197877815,37.558992120964724],[126.96415975847283,37.55903556062411],[126.96404974573602,37.55904327427632],[126.96405326232386,37.55902714767787],[126.9640385082949,37.55901843943577],[126.96402271334067,37.55900911818832],[126.96401196393373,37.55900415933135],[126.96382963251949,37.559008065628255],[126.9636991363824,37.55901225855443],[126.963689323694,37.55901259778712],[126.96365363831384,37.559013415259386],[126.96353038613204,37.559016439035304],[126.96343690016327,37.55901857129673],[126.96323544177218,37.5590222002089],[126.96320194086212,37.55902272993621],[126.96308253729462,37.55902458320693],[126.96296109656706,37.559026345592756],[126.9627922348853,37.55902701112276],[126.96274945357533,37.55902717728173],[126.9627164072818,37.559024021973],[126.96270860997627,37.559051142801934],[126.96258151970675,37.559041357659325],[126.96253059216531,37.55903656560949],[126.96246947909599,37.55903086918009],[126.96234227712392,37.55901190626272],[126.96219798764574,37.55898861276903],[126.96204691182359,37.55895729802283],[126.961940084355,37.55893401673094],[126.96187807405936,37.558913092969775],[126.9617997716255,37.5588819825138],[126.96174696468894,37.55885741096901],[126.96174860300384,37.558849826990006],[126.96174703843853,37.558812345293624],[126.96172343162006,37.55878728081759],[126.9617029984826,37.55877466007412],[126.96165709555488,37.558728694114016],[126.96159244048683,37.55865910685712],[126.96156360795841,37.55862846345529],[126.96155886115474,37.55861602819138],[126.96156131281091,37.55860286556176],[126.96158456437695,37.55850872000504],[126.96160779714387,37.558449713034555],[126.96156819098451,37.55843888776436],[126.96157159639259,37.55841996813258],[126.96161969705635,37.55841908340604],[126.96172721103986,37.55842677809899],[126.96180473005263,37.55844031904257],[126.96183697496771,37.55846015165688],[126.96185630779259,37.558462414230576],[126.96193600218935,37.55846514033818],[126.9619620386078,37.558454337186866],[126.9619874965212,37.55846741006339],[126.96203446586881,37.558465713898414],[126.96204804739054,37.55846517784535],[126.96207863876363,37.55846158050454],[126.96220539930628,37.5583968452203],[126.96233332247547,37.558333277867696],[126.96235856796788,37.558319771397024],[126.9624286440028,37.55828222334477],[126.96252736163757,37.55822936788639],[126.96254275792754,37.55822117396282],[126.96258272112853,37.55819839210672],[126.96266049644906,37.55815408903142]]]},"properties":{"OBJECTID":86296,"PRESENT_SN":"11140UQ181PS202403210001","LCLAS_CL":"UQ1200","MLSFC_CL":"UQ1220","SCLAS_CL":"UQ1221","ATRB_SE":"UQ1221","WTNNC_SN":"11140AGZ202302230001","NTFC_SN":"11140NTC202302230008","DGM_NM":"중림동 398번지일대 주택정비형 재개발사업","SIGNGU_SE":"11140","DRAWING_NO":" ","CREATE_DAT":1710979200000,"DGM_AR":28310.08955674,"DGM_LT":854.65047249,"SHAPE.AREA":28310.09008067,"SHAPE.LEN":854.650436054688}},{"type":"Feature","id":85073,"geometry":{"type":"Polygon","coordinates":[[[126.96266049644906,37.55815408903142],[126.96278593201383,37.558084573834506],[126.96284049877683,37.55805413826697],[126.96285675893274,37.558126222773424],[126.96301877946361,37.55818248756193],[126.96305489247652,37.55820106963096],[126.96305379660193,37.5581312425679],[126.96303177978388,37.55802897305496],[126.96305057197779,37.55779922678109],[126.96303083383744,37.55766767583505],[126.96305969365783,37.55766768523838],[126.96305630880398,37.557647411864615],[126.96304954234381,37.55760055818872],[126.96304559787073,37.55756812126915],[126.96304447954776,37.55754199219914],[126.96306145542118,37.55754289871908],[126.96311353329499,37.55750957904422],[126.96316222417043,37.55746004042851],[126.96325389375315,37.557465025614846],[126.96331060362881,37.557447474676266],[126.96336312529877,37.55743127384191],[126.96343421087289,37.55740886214295],[126.9634531141853,37.55740292170521],[126.96350744293757,37.55739392930806],[126.96350857125891,37.55740068709534],[126.96354886264818,37.55739880797969],[126.96364778014733,37.55739442489595],[126.96364213278001,37.557371898337635],[126.96364733948305,37.55737063862185],[126.96370495282187,37.55735660164384],[126.96371343072816,37.55737687663083],[126.96375180407546,37.55736319386433],[126.96377795225145,37.55735392202899],[126.96375987693553,37.557289044978404],[126.96385156290147,37.5572611435749],[126.96385891067173,37.55727826472664],[126.9639273900274,37.55726161823422],[126.9639641764736,37.557252620040664],[126.96396270908531,37.55724487106083],[126.96394722969512,37.55719387010796],[126.96396283749773,37.557191955964605],[126.96401887392686,37.557185063181414],[126.96405037163242,37.55734112463052],[126.96407005619488,37.55735698829704],[126.96420972626262,37.55756047602267],[126.96421639145267,37.55758489495338],[126.96422023246413,37.55759886150939],[126.9642215425245,37.55769526783597],[126.96421742602547,37.55777986948017],[126.96421435832825,37.557803834840186],[126.96420359767043,37.5578217611374],[126.96411561186852,37.55791786891162],[126.96410473641785,37.55793894862736],[126.96410506991039,37.55795102199626],[126.96411399799513,37.557976703033816],[126.9641365039533,37.55800896559539],[126.96427214298917,37.55812820940621],[126.96430630350895,37.55816597164784],[126.96431806280431,37.55818822980022],[126.96431125241064,37.5582280514015],[126.9642864314977,37.55829886137151],[126.96427577127285,37.55834228571492],[126.9642652107566,37.5584127397802],[126.96426496991519,37.558441841672156],[126.96427374112477,37.5585555493403],[126.96428330137394,37.55867574438013],[126.96428269132755,37.558764491670665],[126.96426479251869,37.558798183038355],[126.96423386207213,37.5588643960154],[126.96412643057387,37.55891634914607],[126.96412197877815,37.558992120964724],[126.96415975847283,37.55903556062411],[126.96404974573602,37.55904327427632],[126.96405326232386,37.55902714767787],[126.9640385082949,37.55901843943577],[126.96402271334067,37.55900911818832],[126.96401196393373,37.55900415933135],[126.96382963251949,37.559008065628255],[126.9636991363824,37.55901225855443],[126.963689323694,37.55901259778712],[126.96365363831384,37.559013415259386],[126.96353038613204,37.559016439035304],[126.96343690016327,37.55901857129673],[126.96323544177218,37.5590222002089],[126.96320194086212,37.55902272993621],[126.96308253729462,37.55902458320693],[126.96296109656706,37.559026345592756],[126.9627922348853,37.55902701112276],[126.96274945357533,37.55902717728173],[126.9627164072818,37.559024021973],[126.96270860997627,37.559051142801934],[126.96258151970675,37.559041357659325],[126.96253059216531,37.55903656560949],[126.96246947909599,37.55903086918009],[126.96234227712392,37.55901190626272],[126.96219798764574,37.55898861276903],[126.96204691182359,37.55895729802283],[126.961940084355,37.55893401673094],[126.96187807405936,37.558913092969775],[126.9617997716255,37.5588819825138],[126.96174696468894,37.55885741096901],[126.96174860300384,37.558849826990006],[126.96174703843853,37.558812345293624],[126.96172343162006,37.55878728081759],[126.9617029984826,37.55877466007412],[126.96165709555488,37.558728694114016],[126.96159244048683,37.55865910685712],[126.96156360795841,37.55862846345529],[126.96155886115474,37.55861602819138],[126.96156131281091,37.55860286556176],[126.96158456437695,37.55850872000504],[126.96160779714387,37.558449713034555],[126.96156819098451,37.55843888776436],[126.96157159639259,37.55841996813258],[126.96161969705635,37.55841908340604],[126.96172721103986,37.55842677809899],[126.96180473005263,37.55844031904257],[126.96183697496771,37.55846015165688],[126.96185630779259,37.558462414230576],[126.96193600218935,37.55846514033818],[126.9619620386078,37.558454337186866],[126.9619874965212,37.55846741006339],[126.96203446586881,37.558465713898414],[126.96204804739054,37.55846517784535],[126.96207863876363,37.55846158050454],[126.96220539930628,37.5583968452203],[126.96233332247547,37.558333277867696],[126.96235856796788,37.558319771397024],[126.9624286440028,37.55828222334477],[126.96252736163757,37.55822936788639],[126.96254275792754,37.55822117396282],[126.96258272112853,37.55819839210672],[126.96266049644906,37.55815408903142]]]},"properties":{"OBJECTID":85073,"PRESENT_SN":"11140UQ181PS202403210001","LCLAS_CL":"UQ1200","MLSFC_CL":"UQ1220","SCLAS_CL":"UQ1221","ATRB_SE":"UQ1221","WTNNC_SN":"11140AGZ202302230001","NTFC_SN":"11140NTC202302230008","DGM_NM":"중림동 398번지일대 주택정비형 재개발사업","SIGNGU_SE":"11140","DRAWING_NO":" ","CREATE_DAT":1710979200000,"DGM_AR":28310.08955674,"DGM_LT":854.65047249,"SHAPE.AREA":28310.09008067,"SHAPE.LEN":854.650436054688}}]}