{"type":"FeatureCollection","features":[{"type":"Feature","id":86543,"geometry":{"type":"Polygon","coordinates":[[[126.93593143378513,37.509080287012175],[126.93597975674285,37.50908032554379],[126.93597876738163,37.50908388123083],[126.9359764413259,37.509092410581765],[126.93597416050346,37.50910094806672],[126.93597192378489,37.50910949188303],[126.9359697322989,37.509118044734386],[126.93596758491685,37.50912660391714],[126.93596548276975,37.509135169431914],[126.935963425856,37.50914374308072],[126.93596141304624,37.509152323060945],[126.9359594397959,37.50916093279595],[126.93595779907857,37.50916823536858],[126.93595564489604,37.509178100993175],[126.93595381189456,37.509186707201934],[126.93595202412892,37.50919531884171],[126.93595028159915,37.50920393591254],[126.93594858317427,37.50921255841382],[126.9359469311155,37.50922118724777],[126.9359453242926,37.509229821512754],[126.93594376157543,37.50923846030719],[126.93594224409419,37.509247104532676],[126.93594077297992,37.509255754189866],[126.93593934597217,37.5092644074755],[126.93593796533067,37.50927306709383],[126.93593662879572,37.5092817303406],[126.9359353386286,37.50929039811804],[126.93593409369903,37.50929906952457],[126.93593289287534,37.50930774546056],[126.93593173842028,37.50931642502624],[126.93593062920212,37.50932510912203],[126.93592956635341,37.5093337959465],[126.93592854761138,37.50934248639943],[126.93592757523807,37.50935118048208],[126.93592664810329,37.50935987729282],[126.93592576620621,37.50936857773264],[126.93592492954767,37.509377280900566],[126.93592413925876,37.50938598679719],[126.93592339307814,37.509394694520296],[126.93592269439819,37.50940340497273],[126.93592203982575,37.50941211815264],[126.93592143162378,37.50942083316031],[126.93592086866126,37.50942954999503],[126.93592035093812,37.509438268656886],[126.93591987958551,37.50944698914644],[126.93591945347312,37.509455710562115],[126.93591907260024,37.50946443380489],[126.93591873809866,37.5094731579744],[126.9359184488366,37.509481883971],[126.93591820481564,37.509490609992724],[126.93591800716605,37.50949933694116],[126.9359178547576,37.50950806391472],[126.93591774872058,37.50951679181504],[126.9359176867929,37.50952552064079],[126.9359176712382,37.50953424859132],[126.93591770205495,37.509542977468556],[126.93591777811375,37.50955170546993],[126.93591789941374,37.509560433496404],[126.93591806708683,37.50956916064763],[126.93591828000113,37.50957788782394],[126.93591853815836,37.50958661322337],[126.9359188426879,37.50959533864854],[126.9359191924603,37.50960406229683],[126.93591958747484,37.50961278506926],[126.93592002886336,37.5096215060654],[126.93592051549402,37.50963022618566],[126.93592104849861,37.50963894452966],[126.93592162561599,37.509647660195135],[126.93592224910658,37.50965637498536],[126.93592291897198,37.50966508709832],[126.93592363295018,37.50967379653279],[126.93592439330243,37.50968250419097],[126.93592519889854,37.509691209171265],[126.93592604973928,37.509699910572685],[126.93592694695414,37.50970861019784],[126.93592788941363,37.50971730624412],[126.93592887711787,37.509725998711474],[126.93592991006601,37.509734688500984],[126.93593098825885,37.50974337471157],[126.93593211282828,37.50975205644292],[126.93593328264166,37.50976073549636],[126.93593449656956,37.50976941006927],[126.93593575687404,37.50977808016293],[126.93593706242335,37.50978674667769],[126.93593841321825,37.509795408712556],[126.93593980925958,37.50980406536652],[126.93594125054572,37.5098127184416],[126.93594273707834,37.50982136613576],[126.93594426998841,37.509830008449676],[126.93594584701312,37.50983864628304],[126.93594746815408,37.509847277833885],[126.9359491356718,37.50985590490547],[126.93595084843602,37.50986452659611],[126.93595260644834,37.509873141103874],[126.93595440857537,37.5098817511311],[126.93595625595054,37.50989035397541],[126.93595814970017,37.50989895504345],[126.93595999855633,37.50990715874679],[126.93596008869248,37.509907555235515],[126.93596211001763,37.509916422168374],[126.9359641313448,37.50992528729922],[126.9359661515422,37.50993415152836],[126.93596817287032,37.509943016659086],[126.9359701930671,37.509951882690125],[126.93597221439698,37.50996074691978],[126.93597423459552,37.50996961204974],[126.93597625592555,37.50997847718026],[126.93597827725607,37.509987342310744],[126.93598029745682,37.50999620653956],[126.9359823187883,37.51000507166997],[126.9359843389892,37.51001393679969],[126.9359863603216,37.51002280192997],[126.93598838052347,37.510031667059586],[126.93599040185686,37.5100405321898],[126.93599242206047,37.510049396418346],[126.93599444339476,37.51005826154846],[126.93599646359856,37.510067126677875],[126.93599848493382,37.510075991807895],[126.93600050626958,37.510084856937866],[126.93600252647478,37.51009372206716],[126.9360045478115,37.51010258719704],[126.93600656801841,37.51011145142522],[126.9360085893561,37.51012031655499],[126.9360106095632,37.51012918168412],[126.9360126309018,37.51013804681378],[126.93601465110987,37.51014691194279],[126.93601667244943,37.51015577707238],[126.93601869265923,37.5101646413003],[126.93602071399975,37.51017350642979],[126.93602273534074,37.510182371559246],[126.93602475555119,37.510191236688],[126.93602677689313,37.51020010181735],[126.93602879710451,37.51020896694602],[126.93603081844742,37.510217832075284],[126.93603283866057,37.51022669630285],[126.93603486000441,37.51023556143202],[126.93603688021771,37.510244426560504],[126.9360389015625,37.51025329168957],[126.93604092177677,37.51026215681795],[126.93604294312254,37.51027102194693],[126.93604403379418,37.51027580414257],[126.9360449633385,37.510279886174224],[126.93604698468523,37.51028875130309],[126.93604900603243,37.51029761643192],[126.93605102624906,37.51030648156008],[126.93605304759718,37.510315346688806],[126.93605506781476,37.51032421181685],[126.93605708916387,37.5103330769455],[126.9360591093832,37.51034194117247],[126.93606113073325,37.51035080630101],[126.93606315095273,37.51035967142887],[126.93606517230373,37.510368536557316],[126.9360671936552,37.5103774016857],[126.93606921387611,37.510386266813434],[126.93607123522935,37.51039513104075],[126.93607325545122,37.51040399616838],[126.9360752768046,37.51041286129658],[126.93607729702742,37.51042172642413],[126.93607931838174,37.510430591552236],[126.93608133860553,37.51043945667967],[126.93608335996085,37.51044832180768],[126.93608538018634,37.51045718603403],[126.9360874015426,37.51046605116197],[126.93608942289931,37.510474916289844],[126.93609144312546,37.51048378141703],[126.93609346448315,37.510492646544805],[126.93609548471024,37.51050151167192],[126.93609750606966,37.51051037589862],[126.93609952629771,37.51051924102562],[126.93610154765729,37.5105281061532],[126.9361035678863,37.510536971280104],[126.93610558924685,37.51054583640762],[126.93610760947684,37.510554701534446],[126.93610963083829,37.51056356666183],[126.93611165107001,37.510572430887564],[126.93611367243246,37.51058129601486],[126.93611569379539,37.51059016114215],[126.93611771402772,37.51059902626872],[126.93611973539161,37.510607891395885],[126.93612175562491,37.51061675652237],[126.9361237769905,37.51062562074843],[126.93612579722475,37.51063448587484],[126.93612781859052,37.510643351001804],[126.93612983882572,37.51065221612811],[126.93613186019245,37.51066108125497],[126.93613388042861,37.510669946381185],[126.9361359017971,37.510678810606976],[126.93613792316523,37.51068767573371],[126.93613994340284,37.51069654085977],[126.93614196477192,37.510705405986414],[126.93614398501046,37.51071427111239],[126.93614600638054,37.51072313623892],[126.93614802662005,37.510732001364794],[126.93615004799106,37.51074086649124],[126.93615206823227,37.510749730716014],[126.93615408960426,37.510758595842375],[126.93615610984565,37.51076746096807],[126.93615813121858,37.51077632609431],[126.936160152592,37.51078519122052],[126.9361621728356,37.51079405544505],[126.93616419420992,37.510802920571194],[126.9361662144537,37.51081178569664],[126.93616823582903,37.51082065082266],[126.93617025607375,37.510829515948],[126.93617227745001,37.51083838107391],[126.9361742976957,37.510847246199184],[126.93617631907371,37.510856110424015],[126.93617833932035,37.510864975549175],[126.93618036069849,37.510873840674904],[126.93618238207713,37.51088270580061],[126.93618440232522,37.51089157092564],[126.9361864237048,37.510900436051216],[126.93618844395462,37.51090930027513],[126.93619046533438,37.51091816630162],[126.93619248558512,37.51092703052548],[126.93619450696663,37.51093589565087],[126.93619652721756,37.510944760775594],[126.9361985486,37.51095362590091],[126.93620056885187,37.51096249102553],[126.93620259023608,37.51097135524976],[126.93620461161997,37.510980220374925],[126.93620663187329,37.510989085499425],[126.9362086532581,37.51099795062449],[126.93621067351236,37.511006815748885],[126.93621269489815,37.511015680873875],[126.93621471515416,37.511024545097186],[126.93621673654089,37.51103341022207],[126.93621875679706,37.51104227534626],[126.93622077818475,37.51105114047106],[126.93622279844188,37.51106000559515],[126.93622481983053,37.51106887071986],[126.93622684121965,37.51107773584449],[126.93622886147897,37.51108660006746],[126.93623088286829,37.51109546609302],[126.93623290312858,37.511104330315895],[126.93623492451957,37.51111319544035],[126.93623694478005,37.511122060564134],[126.936238966172,37.511130925688484],[126.93624098643421,37.51113978991119],[126.93624300782713,37.51114865503544],[126.93624502808952,37.51115752015903],[126.93624704948341,37.5111663852832],[126.93624907087776,37.51117525040734],[126.93625109114154,37.51118411553078],[126.93625311253766,37.51119297975381],[126.93625468660908,37.51119988676444],[126.9362551530806,37.51120193769103],[126.93625718789109,37.51121098482373],[126.93625919325228,37.511220080593965],[126.9362611612836,37.511229182650496],[126.93626309085641,37.51123828828971],[126.93626498196825,37.511247400214636],[126.9362668357518,37.51125651662388],[126.93626865107598,37.51126563751681],[126.93627042793995,37.51127476379442],[126.93627216747558,37.51128389455638],[126.93627386742071,37.51129302980144],[126.93627553003748,37.511302169530786],[126.93627715532583,37.51131131374448],[126.9362787410237,37.51132046244125],[126.93628028826285,37.511329614720765],[126.93628179817355,37.51133877148457],[126.93628326849449,37.51134793183051],[126.93628470148694,37.51135709666076],[126.93628609602146,37.51136626417273],[126.9362874520964,37.51137543616843],[126.93628876971255,37.511384611746855],[126.93629004886996,37.511393790907995],[126.93629128956931,37.51140297275085],[126.93629249180987,37.511412158176455],[126.93629365559235,37.511421346283775],[126.93629478091522,37.511430538874855],[126.93629586778154,37.51143973234561],[126.93629691618824,37.51144893030012],[126.93629792613758,37.51145813003537],[126.93629889762884,37.51146733245236],[126.93629983066118,37.51147653845208],[126.93630072523612,37.51148574623254],[126.93630158135372,37.51149495579374],[126.93630239901313,37.51150416803666],[126.93630317708329,37.511513382960736],[126.93630391782786,37.51152259876513],[126.93630461898314,37.51153181725069],[126.93630528281206,37.51154103751759],[126.93630590705321,37.511550258663625],[126.93630649283612,37.51155948249141],[126.93630704016154,37.51156870809994],[126.93630754903103,37.5115779336872],[126.93630801944296,37.51158716105522],[126.93630845139742,37.511596390204005],[126.93630884376401,37.511605620231904],[126.93630919767382,37.51161485113956],[126.93630951425789,37.511624082927604],[126.93630978904055,37.51163325973172],[126.93630979451561,37.511633466964],[126.9363100412977,37.51164232660181],[126.93631029247476,37.51165133490647],[126.93631054252162,37.511660342309526],[126.93631079369959,37.51166934971316],[126.93631104487685,37.51167835801778],[126.93631129492387,37.5116873654208],[126.93631732188553,37.511903771955865],[126.93604952035754,37.51190644125854],[126.93604346327623,37.51190669378459],[126.93603311582423,37.511907216033045],[126.93602277620927,37.51190783018664],[126.93601244556311,37.51190853534496],[126.93600212614712,37.511909332410276],[126.93599181909309,37.51191022048222],[126.9359815232699,37.51191119956019],[126.93597124320105,37.51191227054766],[126.93596097775693,37.51191343164201],[126.93595072919891,37.51191468374554],[126.93594049978981,37.51191602595846],[126.93593028839778,37.5119174591812],[126.93592009841602,37.5119189834156],[126.9359099309771,37.51192059686029],[126.9358997849491,37.51192230041572],[126.93588966485709,37.51192409318336],[126.93587956956911,37.51192597606358],[126.93586950134895,37.51192794725566],[126.93585946132598,37.51193000856223],[126.93584945063279,37.51193215818192],[126.93583947040048,37.5119343961154],[126.93582952289111,37.51193672236389],[126.9358196069744,37.51193913602581],[126.9358097260427,37.51194163800405],[126.9357998800968,37.5119442273976],[126.93579007139954,37.51194690330673],[126.93578023772649,37.511949683716786],[126.93577181930543,37.51195213604989],[126.93576087784813,37.51195545013286],[126.93575122832642,37.511958470308116],[126.93574162057834,37.51196157610055],[126.93573205799781,37.511964766611044],[126.93572253945372,37.51196804183898],[126.93571306834008,37.51197140088529],[126.93570364352573,37.51197484374932],[126.93569426840466,37.51197836953198],[126.93568494184582,37.51198197823265],[126.93567566724316,37.51198566895226],[126.93566644346555,37.511989441690176],[126.9356572739062,37.511993296448296],[126.93564815856669,37.51199723142463],[126.93563909857806,37.512001246619846],[126.93563009507132,37.51200534203459],[126.93562114917756,37.51200951766949],[126.93561226202938,37.51201377172319],[126.93560343475784,37.51201810419634],[126.93559460399543,37.51202254658851],[126.93558862812499,37.51202561565236],[126.93557622257413,37.51203203824076],[126.93556673990115,37.51203694878521],[126.9355572560959,37.51204185932827],[126.93554777228935,37.51204676987056],[126.9355382896127,37.51205168041271],[126.93552880580367,37.512056590953456],[126.9355193231253,37.512061500593084],[126.93550983931382,37.51206641113229],[126.93550035550109,37.51207132167076],[126.93549087281822,37.51207623220908],[126.93548138900299,37.512081142745984],[126.93547190631841,37.5120860523818],[126.93546242249991,37.512090963818146],[126.93545293868178,37.51209587345179],[126.93544345599267,37.512100783986256],[126.93543397330232,37.51210569451998],[126.93542448947967,37.512110605052314],[126.93541500565577,37.51211551558385],[126.93540552296248,37.51212042521429],[126.9353960391361,37.5121253357443],[126.93538655643954,37.5121302462742],[126.93537707261066,37.512135156802685],[126.93536758878058,37.51214006733041],[126.9353581060811,37.51214497695699],[126.93534862224847,37.51214988748317],[126.93533913954572,37.51215479800922],[126.93532965571065,37.51215970853387],[126.93532017300541,37.512164619058396],[126.93531068916782,37.51216952958152],[126.93530120532982,37.51217443920288],[126.93529172262085,37.512179349725095],[126.93528223877956,37.51218426024592],[126.93527079615725,37.5121901850908],[126.93526260914801,37.51219438545087],[126.93525232201604,37.51219955230281],[126.93524193088467,37.512204650619715],[126.93523147422711,37.512209661502254],[126.93522095091228,37.5122145849498],[126.93521036320398,37.51221941916156],[126.93519971223243,37.51222416503919],[126.93518900026149,37.512228820781935],[126.93517822616003,37.51223338638915],[126.93516739219027,37.51223786186204],[126.93515650061597,37.51224224539994],[126.93514555143634,37.5122465379038],[126.93513454578327,37.51225073847324],[126.9351234847879,37.51225484710887],[126.93511237071401,37.51225886200995],[126.93510120469261,37.51226278317715],[126.93508998672309,37.51226661151143],[126.93507871906989,37.512270344311005],[126.93506740286259,37.51227398337855],[126.93505621346756,37.51227747204992],[126.93505415209455,37.51227810338982],[126.93504459650492,37.51228098480654],[126.93503317310547,37.51228432738255],[126.93502167399991,37.512287583419194],[126.93501013312927,37.51229074302453],[126.93499855162462,37.51229380619921],[126.93498692948758,37.51229677114124],[126.9349752689796,37.51229963875284],[126.93496357123173,37.51230240903469],[126.93495183737672,37.5123050801854],[126.93494006854485,37.51230765310658],[126.93492826699918,37.512310126898505],[126.93491643273887,37.5123125024622],[126.93490456915883,37.5123147779975],[126.93489267399615,37.51231695440417],[126.93488075290783,37.51231902988338],[126.93486880363014,37.512321006235844],[126.93485682955719,37.512322882562486],[126.93484483069061,37.51232465706128],[126.93483281042127,37.512326332437176],[126.93482076762055,37.512327905986446],[126.93480870454982,37.51232937861144],[126.93479662234023,37.512330750312785],[126.93478452438582,37.512332020191316],[126.9347724084245,37.512333188245854],[126.93476027897982,37.51233425537989],[126.9347481349215,37.51233522069178],[126.93473597964288,37.512336084183474],[126.93472381427586,37.512336844954575],[126.93471163768861,37.51233750390545],[126.93470394494749,37.51233785634936],[126.93469945440546,37.51233806103865],[126.93469833573715,37.51233810275274],[126.93475619733213,37.51201759417449],[126.934796836852,37.511656431859],[126.93481109474476,37.51153091934363],[126.93482187019313,37.511449749218556],[126.93482890645289,37.51127691316556],[126.93481198452511,37.51097079893305],[126.9348037393608,37.51088414540456],[126.93480152628966,37.51085828374131],[126.93487347149876,37.509079435414904],[126.93593143378513,37.509080287012175]]]},"properties":{"OBJECTID":86543,"PRESENT_SN":"11590UQ181PS202306180002","LCLAS_CL":"UQ1200","MLSFC_CL":"UQ1220","SCLAS_CL":"UQ1221","ATRB_SE":"UQ1221","WTNNC_SN":"11000AGZ202305240002","NTFC_SN":"11590NTC202305240002","DGM_NM":"노량진5재정비촉진구역","SIGNGU_SE":"11590","DRAWING_NO":" ","CREATE_DAT":1687046400000,"DGM_AR":38237.13967335,"DGM_LT":931.29834311,"SHAPE.AREA":38237.145562595,"SHAPE.LEN":931.29844753793}},{"type":"Feature","id":83983,"geometry":{"type":"Polygon","coordinates":[[[126.93593143378513,37.509080287012175],[126.93597975674285,37.50908032554379],[126.93597876738163,37.50908388123083],[126.9359764413259,37.509092410581765],[126.93597416050346,37.50910094806672],[126.93597192378489,37.50910949188303],[126.9359697322989,37.509118044734386],[126.93596758491685,37.50912660391714],[126.93596548276975,37.509135169431914],[126.935963425856,37.50914374308072],[126.93596141304624,37.509152323060945],[126.9359594397959,37.50916093279595],[126.93595779907857,37.50916823536858],[126.93595564489604,37.509178100993175],[126.93595381189456,37.509186707201934],[126.93595202412892,37.50919531884171],[126.93595028159915,37.50920393591254],[126.93594858317427,37.50921255841382],[126.9359469311155,37.50922118724777],[126.9359453242926,37.509229821512754],[126.93594376157543,37.50923846030719],[126.93594224409419,37.509247104532676],[126.93594077297992,37.509255754189866],[126.93593934597217,37.5092644074755],[126.93593796533067,37.50927306709383],[126.93593662879572,37.5092817303406],[126.9359353386286,37.50929039811804],[126.93593409369903,37.50929906952457],[126.93593289287534,37.50930774546056],[126.93593173842028,37.50931642502624],[126.93593062920212,37.50932510912203],[126.93592956635341,37.5093337959465],[126.93592854761138,37.50934248639943],[126.93592757523807,37.50935118048208],[126.93592664810329,37.50935987729282],[126.93592576620621,37.50936857773264],[126.93592492954767,37.509377280900566],[126.93592413925876,37.50938598679719],[126.93592339307814,37.509394694520296],[126.93592269439819,37.50940340497273],[126.93592203982575,37.50941211815264],[126.93592143162378,37.50942083316031],[126.93592086866126,37.50942954999503],[126.93592035093812,37.509438268656886],[126.93591987958551,37.50944698914644],[126.93591945347312,37.509455710562115],[126.93591907260024,37.50946443380489],[126.93591873809866,37.5094731579744],[126.9359184488366,37.509481883971],[126.93591820481564,37.509490609992724],[126.93591800716605,37.50949933694116],[126.9359178547576,37.50950806391472],[126.93591774872058,37.50951679181504],[126.9359176867929,37.50952552064079],[126.9359176712382,37.50953424859132],[126.93591770205495,37.509542977468556],[126.93591777811375,37.50955170546993],[126.93591789941374,37.509560433496404],[126.93591806708683,37.50956916064763],[126.93591828000113,37.50957788782394],[126.93591853815836,37.50958661322337],[126.9359188426879,37.50959533864854],[126.9359191924603,37.50960406229683],[126.93591958747484,37.50961278506926],[126.93592002886336,37.5096215060654],[126.93592051549402,37.50963022618566],[126.93592104849861,37.50963894452966],[126.93592162561599,37.509647660195135],[126.93592224910658,37.50965637498536],[126.93592291897198,37.50966508709832],[126.93592363295018,37.50967379653279],[126.93592439330243,37.50968250419097],[126.93592519889854,37.509691209171265],[126.93592604973928,37.509699910572685],[126.93592694695414,37.50970861019784],[126.93592788941363,37.50971730624412],[126.93592887711787,37.509725998711474],[126.93592991006601,37.509734688500984],[126.93593098825885,37.50974337471157],[126.93593211282828,37.50975205644292],[126.93593328264166,37.50976073549636],[126.93593449656956,37.50976941006927],[126.93593575687404,37.50977808016293],[126.93593706242335,37.50978674667769],[126.93593841321825,37.509795408712556],[126.93593980925958,37.50980406536652],[126.93594125054572,37.5098127184416],[126.93594273707834,37.50982136613576],[126.93594426998841,37.509830008449676],[126.93594584701312,37.50983864628304],[126.93594746815408,37.509847277833885],[126.9359491356718,37.50985590490547],[126.93595084843602,37.50986452659611],[126.93595260644834,37.509873141103874],[126.93595440857537,37.5098817511311],[126.93595625595054,37.50989035397541],[126.93595814970017,37.50989895504345],[126.93595999855633,37.50990715874679],[126.93596008869248,37.509907555235515],[126.93596211001763,37.509916422168374],[126.9359641313448,37.50992528729922],[126.9359661515422,37.50993415152836],[126.93596817287032,37.509943016659086],[126.9359701930671,37.509951882690125],[126.93597221439698,37.50996074691978],[126.93597423459552,37.50996961204974],[126.93597625592555,37.50997847718026],[126.93597827725607,37.509987342310744],[126.93598029745682,37.50999620653956],[126.9359823187883,37.51000507166997],[126.9359843389892,37.51001393679969],[126.9359863603216,37.51002280192997],[126.93598838052347,37.510031667059586],[126.93599040185686,37.5100405321898],[126.93599242206047,37.510049396418346],[126.93599444339476,37.51005826154846],[126.93599646359856,37.510067126677875],[126.93599848493382,37.510075991807895],[126.93600050626958,37.510084856937866],[126.93600252647478,37.51009372206716],[126.9360045478115,37.51010258719704],[126.93600656801841,37.51011145142522],[126.9360085893561,37.51012031655499],[126.9360106095632,37.51012918168412],[126.9360126309018,37.51013804681378],[126.93601465110987,37.51014691194279],[126.93601667244943,37.51015577707238],[126.93601869265923,37.5101646413003],[126.93602071399975,37.51017350642979],[126.93602273534074,37.510182371559246],[126.93602475555119,37.510191236688],[126.93602677689313,37.51020010181735],[126.93602879710451,37.51020896694602],[126.93603081844742,37.510217832075284],[126.93603283866057,37.51022669630285],[126.93603486000441,37.51023556143202],[126.93603688021771,37.510244426560504],[126.9360389015625,37.51025329168957],[126.93604092177677,37.51026215681795],[126.93604294312254,37.51027102194693],[126.93604403379418,37.51027580414257],[126.9360449633385,37.510279886174224],[126.93604698468523,37.51028875130309],[126.93604900603243,37.51029761643192],[126.93605102624906,37.51030648156008],[126.93605304759718,37.510315346688806],[126.93605506781476,37.51032421181685],[126.93605708916387,37.5103330769455],[126.9360591093832,37.51034194117247],[126.93606113073325,37.51035080630101],[126.93606315095273,37.51035967142887],[126.93606517230373,37.510368536557316],[126.9360671936552,37.5103774016857],[126.93606921387611,37.510386266813434],[126.93607123522935,37.51039513104075],[126.93607325545122,37.51040399616838],[126.9360752768046,37.51041286129658],[126.93607729702742,37.51042172642413],[126.93607931838174,37.510430591552236],[126.93608133860553,37.51043945667967],[126.93608335996085,37.51044832180768],[126.93608538018634,37.51045718603403],[126.9360874015426,37.51046605116197],[126.93608942289931,37.510474916289844],[126.93609144312546,37.51048378141703],[126.93609346448315,37.510492646544805],[126.93609548471024,37.51050151167192],[126.93609750606966,37.51051037589862],[126.93609952629771,37.51051924102562],[126.93610154765729,37.5105281061532],[126.9361035678863,37.510536971280104],[126.93610558924685,37.51054583640762],[126.93610760947684,37.510554701534446],[126.93610963083829,37.51056356666183],[126.93611165107001,37.510572430887564],[126.93611367243246,37.51058129601486],[126.93611569379539,37.51059016114215],[126.93611771402772,37.51059902626872],[126.93611973539161,37.510607891395885],[126.93612175562491,37.51061675652237],[126.9361237769905,37.51062562074843],[126.93612579722475,37.51063448587484],[126.93612781859052,37.510643351001804],[126.93612983882572,37.51065221612811],[126.93613186019245,37.51066108125497],[126.93613388042861,37.510669946381185],[126.9361359017971,37.510678810606976],[126.93613792316523,37.51068767573371],[126.93613994340284,37.51069654085977],[126.93614196477192,37.510705405986414],[126.93614398501046,37.51071427111239],[126.93614600638054,37.51072313623892],[126.93614802662005,37.510732001364794],[126.93615004799106,37.51074086649124],[126.93615206823227,37.510749730716014],[126.93615408960426,37.510758595842375],[126.93615610984565,37.51076746096807],[126.93615813121858,37.51077632609431],[126.936160152592,37.51078519122052],[126.9361621728356,37.51079405544505],[126.93616419420992,37.510802920571194],[126.9361662144537,37.51081178569664],[126.93616823582903,37.51082065082266],[126.93617025607375,37.510829515948],[126.93617227745001,37.51083838107391],[126.9361742976957,37.510847246199184],[126.93617631907371,37.510856110424015],[126.93617833932035,37.510864975549175],[126.93618036069849,37.510873840674904],[126.93618238207713,37.51088270580061],[126.93618440232522,37.51089157092564],[126.9361864237048,37.510900436051216],[126.93618844395462,37.51090930027513],[126.93619046533438,37.51091816630162],[126.93619248558512,37.51092703052548],[126.93619450696663,37.51093589565087],[126.93619652721756,37.510944760775594],[126.9361985486,37.51095362590091],[126.93620056885187,37.51096249102553],[126.93620259023608,37.51097135524976],[126.93620461161997,37.510980220374925],[126.93620663187329,37.510989085499425],[126.9362086532581,37.51099795062449],[126.93621067351236,37.511006815748885],[126.93621269489815,37.511015680873875],[126.93621471515416,37.511024545097186],[126.93621673654089,37.51103341022207],[126.93621875679706,37.51104227534626],[126.93622077818475,37.51105114047106],[126.93622279844188,37.51106000559515],[126.93622481983053,37.51106887071986],[126.93622684121965,37.51107773584449],[126.93622886147897,37.51108660006746],[126.93623088286829,37.51109546609302],[126.93623290312858,37.511104330315895],[126.93623492451957,37.51111319544035],[126.93623694478005,37.511122060564134],[126.936238966172,37.511130925688484],[126.93624098643421,37.51113978991119],[126.93624300782713,37.51114865503544],[126.93624502808952,37.51115752015903],[126.93624704948341,37.5111663852832],[126.93624907087776,37.51117525040734],[126.93625109114154,37.51118411553078],[126.93625311253766,37.51119297975381],[126.93625468660908,37.51119988676444],[126.9362551530806,37.51120193769103],[126.93625718789109,37.51121098482373],[126.93625919325228,37.511220080593965],[126.9362611612836,37.511229182650496],[126.93626309085641,37.51123828828971],[126.93626498196825,37.511247400214636],[126.9362668357518,37.51125651662388],[126.93626865107598,37.51126563751681],[126.93627042793995,37.51127476379442],[126.93627216747558,37.51128389455638],[126.93627386742071,37.51129302980144],[126.93627553003748,37.511302169530786],[126.93627715532583,37.51131131374448],[126.9362787410237,37.51132046244125],[126.93628028826285,37.511329614720765],[126.93628179817355,37.51133877148457],[126.93628326849449,37.51134793183051],[126.93628470148694,37.51135709666076],[126.93628609602146,37.51136626417273],[126.9362874520964,37.51137543616843],[126.93628876971255,37.511384611746855],[126.93629004886996,37.511393790907995],[126.93629128956931,37.51140297275085],[126.93629249180987,37.511412158176455],[126.93629365559235,37.511421346283775],[126.93629478091522,37.511430538874855],[126.93629586778154,37.51143973234561],[126.93629691618824,37.51144893030012],[126.93629792613758,37.51145813003537],[126.93629889762884,37.51146733245236],[126.93629983066118,37.51147653845208],[126.93630072523612,37.51148574623254],[126.93630158135372,37.51149495579374],[126.93630239901313,37.51150416803666],[126.93630317708329,37.511513382960736],[126.93630391782786,37.51152259876513],[126.93630461898314,37.51153181725069],[126.93630528281206,37.51154103751759],[126.93630590705321,37.511550258663625],[126.93630649283612,37.51155948249141],[126.93630704016154,37.51156870809994],[126.93630754903103,37.5115779336872],[126.93630801944296,37.51158716105522],[126.93630845139742,37.511596390204005],[126.93630884376401,37.511605620231904],[126.93630919767382,37.51161485113956],[126.93630951425789,37.511624082927604],[126.93630978904055,37.51163325973172],[126.93630979451561,37.511633466964],[126.9363100412977,37.51164232660181],[126.93631029247476,37.51165133490647],[126.93631054252162,37.511660342309526],[126.93631079369959,37.51166934971316],[126.93631104487685,37.51167835801778],[126.93631129492387,37.5116873654208],[126.93631732188553,37.511903771955865],[126.93604952035754,37.51190644125854],[126.93604346327623,37.51190669378459],[126.93603311582423,37.511907216033045],[126.93602277620927,37.51190783018664],[126.93601244556311,37.51190853534496],[126.93600212614712,37.511909332410276],[126.93599181909309,37.51191022048222],[126.9359815232699,37.51191119956019],[126.93597124320105,37.51191227054766],[126.93596097775693,37.51191343164201],[126.93595072919891,37.51191468374554],[126.93594049978981,37.51191602595846],[126.93593028839778,37.5119174591812],[126.93592009841602,37.5119189834156],[126.9359099309771,37.51192059686029],[126.9358997849491,37.51192230041572],[126.93588966485709,37.51192409318336],[126.93587956956911,37.51192597606358],[126.93586950134895,37.51192794725566],[126.93585946132598,37.51193000856223],[126.93584945063279,37.51193215818192],[126.93583947040048,37.5119343961154],[126.93582952289111,37.51193672236389],[126.9358196069744,37.51193913602581],[126.9358097260427,37.51194163800405],[126.9357998800968,37.5119442273976],[126.93579007139954,37.51194690330673],[126.93578023772649,37.511949683716786],[126.93577181930543,37.51195213604989],[126.93576087784813,37.51195545013286],[126.93575122832642,37.511958470308116],[126.93574162057834,37.51196157610055],[126.93573205799781,37.511964766611044],[126.93572253945372,37.51196804183898],[126.93571306834008,37.51197140088529],[126.93570364352573,37.51197484374932],[126.93569426840466,37.51197836953198],[126.93568494184582,37.51198197823265],[126.93567566724316,37.51198566895226],[126.93566644346555,37.511989441690176],[126.9356572739062,37.511993296448296],[126.93564815856669,37.51199723142463],[126.93563909857806,37.512001246619846],[126.93563009507132,37.51200534203459],[126.93562114917756,37.51200951766949],[126.93561226202938,37.51201377172319],[126.93560343475784,37.51201810419634],[126.93559460399543,37.51202254658851],[126.93558862812499,37.51202561565236],[126.93557622257413,37.51203203824076],[126.93556673990115,37.51203694878521],[126.9355572560959,37.51204185932827],[126.93554777228935,37.51204676987056],[126.9355382896127,37.51205168041271],[126.93552880580367,37.512056590953456],[126.9355193231253,37.512061500593084],[126.93550983931382,37.51206641113229],[126.93550035550109,37.51207132167076],[126.93549087281822,37.51207623220908],[126.93548138900299,37.512081142745984],[126.93547190631841,37.5120860523818],[126.93546242249991,37.512090963818146],[126.93545293868178,37.51209587345179],[126.93544345599267,37.512100783986256],[126.93543397330232,37.51210569451998],[126.93542448947967,37.512110605052314],[126.93541500565577,37.51211551558385],[126.93540552296248,37.51212042521429],[126.9353960391361,37.5121253357443],[126.93538655643954,37.5121302462742],[126.93537707261066,37.512135156802685],[126.93536758878058,37.51214006733041],[126.9353581060811,37.51214497695699],[126.93534862224847,37.51214988748317],[126.93533913954572,37.51215479800922],[126.93532965571065,37.51215970853387],[126.93532017300541,37.512164619058396],[126.93531068916782,37.51216952958152],[126.93530120532982,37.51217443920288],[126.93529172262085,37.512179349725095],[126.93528223877956,37.51218426024592],[126.93527079615725,37.5121901850908],[126.93526260914801,37.51219438545087],[126.93525232201604,37.51219955230281],[126.93524193088467,37.512204650619715],[126.93523147422711,37.512209661502254],[126.93522095091228,37.5122145849498],[126.93521036320398,37.51221941916156],[126.93519971223243,37.51222416503919],[126.93518900026149,37.512228820781935],[126.93517822616003,37.51223338638915],[126.93516739219027,37.51223786186204],[126.93515650061597,37.51224224539994],[126.93514555143634,37.5122465379038],[126.93513454578327,37.51225073847324],[126.9351234847879,37.51225484710887],[126.93511237071401,37.51225886200995],[126.93510120469261,37.51226278317715],[126.93508998672309,37.51226661151143],[126.93507871906989,37.512270344311005],[126.93506740286259,37.51227398337855],[126.93505621346756,37.51227747204992],[126.93505415209455,37.51227810338982],[126.93504459650492,37.51228098480654],[126.93503317310547,37.51228432738255],[126.93502167399991,37.512287583419194],[126.93501013312927,37.51229074302453],[126.93499855162462,37.51229380619921],[126.93498692948758,37.51229677114124],[126.9349752689796,37.51229963875284],[126.93496357123173,37.51230240903469],[126.93495183737672,37.5123050801854],[126.93494006854485,37.51230765310658],[126.93492826699918,37.512310126898505],[126.93491643273887,37.5123125024622],[126.93490456915883,37.5123147779975],[126.93489267399615,37.51231695440417],[126.93488075290783,37.51231902988338],[126.93486880363014,37.512321006235844],[126.93485682955719,37.512322882562486],[126.93484483069061,37.51232465706128],[126.93483281042127,37.512326332437176],[126.93482076762055,37.512327905986446],[126.93480870454982,37.51232937861144],[126.93479662234023,37.512330750312785],[126.93478452438582,37.512332020191316],[126.9347724084245,37.512333188245854],[126.93476027897982,37.51233425537989],[126.9347481349215,37.51233522069178],[126.93473597964288,37.512336084183474],[126.93472381427586,37.512336844954575],[126.93471163768861,37.51233750390545],[126.93470394494749,37.51233785634936],[126.93469945440546,37.51233806103865],[126.93469833573715,37.51233810275274],[126.93475619733213,37.51201759417449],[126.934796836852,37.511656431859],[126.93481109474476,37.51153091934363],[126.93482187019313,37.511449749218556],[126.93482890645289,37.51127691316556],[126.93481198452511,37.51097079893305],[126.9348037393608,37.51088414540456],[126.93480152628966,37.51085828374131],[126.93487347149876,37.509079435414904],[126.93593143378513,37.509080287012175]]]},"properties":{"OBJECTID":83983,"PRESENT_SN":"11590UQ181PS202306180002","LCLAS_CL":"UQ1200","MLSFC_CL":"UQ1220","SCLAS_CL":"UQ1221","ATRB_SE":"UQ1221","WTNNC_SN":"11000AGZ202305240002","NTFC_SN":"11590NTC202305240002","DGM_NM":"노량진5재정비촉진구역","SIGNGU_SE":"11590","DRAWING_NO":" ","CREATE_DAT":1687046400000,"DGM_AR":38237.13967335,"DGM_LT":931.29834311,"SHAPE.AREA":38237.145562595,"SHAPE.LEN":931.29844753793}}]}