{"type":"FeatureCollection","features":[{"type":"Feature","id":86149,"geometry":{"type":"Polygon","coordinates":[[[126.81158195967888,37.56648565458109],[126.81133440345907,37.56648590478724],[126.81133519702298,37.56646760701542],[126.81122252263965,37.566470011299536],[126.81120272191013,37.566480475884966],[126.81119148980257,37.56646415892069],[126.81118210585782,37.566446592562535],[126.8111096375044,37.566501850388036],[126.81106209967304,37.566470122033614],[126.81104218649907,37.566484730951814],[126.81097721898372,37.566536901400276],[126.8109619787571,37.56652108249876],[126.81092048324969,37.566499031431974],[126.81084884489478,37.56647279614504],[126.81079904477198,37.56646717464031],[126.81074511042705,37.56647598024949],[126.81060282178478,37.56652430445439],[126.8105224424151,37.56655241139197],[126.81044566063805,37.56657677599011],[126.81032650388043,37.566617650090166],[126.8102112186705,37.56665828707618],[126.81011315382645,37.566692780105235],[126.81000646371066,37.56673175498807],[126.80990030466427,37.566771045981504],[126.80976571786995,37.56682141790424],[126.80971207339952,37.566822970564964],[126.80951894199163,37.56684795637414],[126.80933434289844,37.5668737396147],[126.80931027871505,37.56687817834776],[126.80912173831726,37.56690480176717],[126.80895961379248,37.56692798115034],[126.80891324968132,37.566933014121815],[126.8087818504293,37.56695397289176],[126.80864823635851,37.56697346829826],[126.80851028813979,37.56699254201421],[126.80837594756531,37.56701279275375],[126.80822696865455,37.567034136600306],[126.80806787910217,37.56705652685781],[126.80792338143128,37.567078220038326],[126.80787916460093,37.567080102669564],[126.80780751832344,37.56706149688789],[126.80779939064173,37.5670486354771],[126.80777083512945,37.56700842261758],[126.80771163013999,37.56689743195792],[126.80765960237194,37.5668035898261],[126.8076127525155,37.56671654060693],[126.80758008233491,37.56665685961973],[126.80755791587215,37.566619116895694],[126.80752095212404,37.56655216688138],[126.80747956633991,37.56647947029935],[126.80744210123638,37.56640949211812],[126.80740244607834,37.566337302905005],[126.80736229640607,37.566263788413416],[126.80734318671482,37.56622587047603],[126.80728389041289,37.56611565428734],[126.80723488560916,37.56611779008771],[126.80717751011142,37.56608740447153],[126.80717534930037,37.56606520059002],[126.80714632275303,37.56604013870018],[126.80709296328729,37.56599406715966],[126.80698428086049,37.56589796003039],[126.80706642045638,37.56591140291956],[126.80713803182547,37.565725133605945],[126.8071296083384,37.56569553131608],[126.80713796826532,37.56566246983698],[126.80723950899795,37.56549682827313],[126.80733004773028,37.56547935390563],[126.80735276084492,37.56548510351925],[126.80734189334318,37.56537230005564],[126.80732148261247,37.565347318147495],[126.80724464082907,37.56534692143898],[126.8072369445892,37.56526391883247],[126.80723516632439,37.56522516444103],[126.80720894549856,37.56485295944976],[126.80719633077169,37.56466343400679],[126.8071809222522,37.56442875547652],[126.80718082401263,37.564428666117074],[126.80717786065073,37.56438210271229],[126.80712181019688,37.56437415653357],[126.80665306541037,37.56429836491891],[126.8065565038509,37.56434638131236],[126.8065700995091,37.56430519619839],[126.80659753276281,37.56421944045331],[126.80683221507775,37.564239865615924],[126.80690874501093,37.56424657799987],[126.80711865747551,37.564268060968395],[126.80716644417579,37.564272518437484],[126.80720873681165,37.564296166889],[126.80720878533855,37.564296221929084],[126.80727567805626,37.564302760541956],[126.80733162761449,37.564306393454665],[126.8074231603846,37.56431530155884],[126.80780860186367,37.56435503741237],[126.80792065112519,37.564369943326305],[126.8080414701956,37.56438567439373],[126.80819359717393,37.56440552906778],[126.80831648860638,37.56442089384215],[126.80842782669937,37.56443514039027],[126.8085507093279,37.56444956787952],[126.8086636080048,37.564464384377956],[126.80875008746601,37.56447545457928],[126.80889552752912,37.56449453159206],[126.80904243673758,37.564514520818044],[126.80908373375723,37.5645206878178],[126.80926147089771,37.56454224968051],[126.80929667208765,37.564546523615796],[126.80946293480851,37.56456710243741],[126.80958706234495,37.56458174711018],[126.80966999629268,37.56458739053365],[126.80972463969705,37.56457922626422],[126.809856164995,37.5645426795526],[126.80987141855303,37.56454420896172],[126.80989601804053,37.56457395895027],[126.80990788481934,37.564552608587924],[126.8099292660066,37.564514020654144],[126.81001433820927,37.56453947641625],[126.81005947700633,37.56455310407634],[126.81013690437004,37.56457648048792],[126.81013526925913,37.56461392287704],[126.81015297663257,37.564607518527566],[126.81023817113662,37.56462549613041],[126.81024519647187,37.564618020305744],[126.81028941299238,37.56456252803036],[126.81033770343703,37.564591469366846],[126.81038599391908,37.564620410683546],[126.81040290239316,37.5645944265454],[126.81039910016322,37.56458302740408],[126.81039529793449,37.564571628262655],[126.81040351825962,37.564559370119305],[126.81041173858206,37.56454711197535],[126.81042821491269,37.56453520956823],[126.81044230420305,37.56453170500414],[126.81045639349209,37.56452820043839],[126.81045699144268,37.564528958235485],[126.81049284918566,37.56456647481005],[126.8105287069646,37.56460399137356],[126.81055429354622,37.56459035126467],[126.81057988011854,37.56457671115021],[126.81057511740867,37.564566891694284],[126.81060952148519,37.56455534260886],[126.81061267066507,37.564554320575034],[126.81061506088079,37.564553540580604],[126.81070310528695,37.56452365749556],[126.81079114962296,37.564493774344534],[126.810811798035,37.56448804137762],[126.81084596169278,37.56451750478578],[126.81085462724911,37.5645192666953],[126.8109063634121,37.564524161502646],[126.81095809958201,37.564529056287334],[126.81099359055449,37.56451068836866],[126.81102908150957,37.564492320439186],[126.81109322053665,37.56446254715526],[126.81113240389881,37.564445383463024],[126.81116255880075,37.56448456197103],[126.81121191939874,37.56455122451771],[126.81126218181234,37.56462381699395],[126.81134240789753,37.56473523621544],[126.81138341992609,37.56479576753568],[126.8114087583975,37.564834298521376],[126.81135945066964,37.56486559150149],[126.81122184161353,37.56494891835849],[126.81106080672143,37.56504840702154],[126.81094814269383,37.56513200804907],[126.81083633078137,37.56521424985282],[126.81073685156422,37.56528492477994],[126.81069062819579,37.56531820643566],[126.81074607850141,37.565377281884615],[126.81080600844946,37.56544051088669],[126.81085261990562,37.56548901423741],[126.81090250092258,37.565542595406725],[126.81093198773219,37.56553313759146],[126.8110899487112,37.5654811622292],[126.81119561946718,37.56544597786989],[126.81130378126618,37.565410391984585],[126.81140871569586,37.56537536842537],[126.81151600856232,37.56558379535321],[126.81141446145521,37.565626446813134],[126.81139813322865,37.56563348426244],[126.81136380498451,37.565646223000535],[126.81131232139548,37.565666322189074],[126.81125529992305,37.56568848109801],[126.81127807962713,37.56572338240979],[126.8112823347578,37.5657299016022],[126.81128932515712,37.5657406165945],[126.81133546162516,37.56582923094229],[126.81134435889147,37.56584676947656],[126.81137073492418,37.56584104563897],[126.81141889980584,37.56584861941233],[126.81142555019345,37.56588179546225],[126.81144358188378,37.565917107154704],[126.81150393087806,37.56589596802277],[126.81150143983191,37.56593197647584],[126.81149060845905,37.565931688747376],[126.8114894076812,37.56607021360893],[126.81148329645494,37.56619906297056],[126.81148360315149,37.566363502644656],[126.81148433534861,37.566396083521056],[126.81168123275974,37.56634487281],[126.81167059435387,37.56671722290242],[126.81156597538302,37.566713794861535],[126.81157355998177,37.56660198554488],[126.81158195967888,37.56648565458109]]]},"properties":{"OBJECTID":86149,"PRESENT_SN":"11000UQ181PS202310190001","LCLAS_CL":"UQ1200","MLSFC_CL":"UQ1206","SCLAS_CL":" ","ATRB_SE":"UQ1206","WTNNC_SN":"11000AGZ202310130001","NTFC_SN":"11000NTC202310130005","DGM_NM":"방화3재정비촉진구역","SIGNGU_SE":"11000","DRAWING_NO":" ","CREATE_DAT":1697673600000,"DGM_AR":91952.42432911,"DGM_LT":1676.65599954,"SHAPE.AREA":91952.42213223499,"SHAPE.LEN":1676.65595871813}}]}