{"type":"FeatureCollection","features":[{"type":"Feature","id":84877,"geometry":{"type":"Polygon","coordinates":[[[126.91702434137066,37.46360985662602],[126.91672809990021,37.46371207060475],[126.91669140769791,37.46374330010532],[126.91639876281998,37.463992370482785],[126.91618236387814,37.46417655984601],[126.91613821501618,37.46421413586577],[126.91592540846209,37.46404207037475],[126.91582969584637,37.46410703548623],[126.9155712375963,37.46399260050337],[126.91553691514247,37.46397740263062],[126.91462456355835,37.46366005046002],[126.9144185519344,37.46358839513119],[126.91397805889848,37.46353046848606],[126.9139533891554,37.46351604315538],[126.91395465185805,37.46348977081223],[126.91415804879774,37.463252993298646],[126.91432187464618,37.463062281608096],[126.91467339484274,37.46266256666173],[126.91514802795834,37.46246713526939],[126.91516533231326,37.462408906999876],[126.9150159649266,37.46219898090724],[126.91499256727087,37.46213038834378],[126.91502202245864,37.46182690660198],[126.91476311887368,37.460716436121075],[126.91475883774821,37.46068475365998],[126.91476254879656,37.460652212101174],[126.91478470260384,37.4604172824191],[126.91479688925925,37.46029798033791],[126.91482212285035,37.460028805709136],[126.91483337245307,37.4599182516838],[126.91483847661068,37.459863582466234],[126.91486937754864,37.45986442503915],[126.91490329614034,37.45986544100641],[126.91507851713529,37.45987120056649],[126.91526620503578,37.45987707708614],[126.91528768756218,37.45995943557492],[126.91528759543442,37.45998060911635],[126.91528728870796,37.46000164735042],[126.9152903061781,37.460189031479324],[126.91529139139367,37.46027751092106],[126.9153000687515,37.4603197293157],[126.91534617265415,37.46055665505599],[126.91537735518807,37.46071627271816],[126.91550030186389,37.46114654685072],[126.91550581600283,37.46116779654859],[126.91550374751745,37.461187563080564],[126.9155851281551,37.4612675503829],[126.91564544906518,37.46126061144208],[126.91567500360195,37.46126313770447],[126.91576823339548,37.46131053514582],[126.91585831406064,37.46138388816803],[126.91593596808481,37.46146141278336],[126.91601779442665,37.46158741440098],[126.91641237373265,37.46190649255578],[126.91647305144792,37.46201405308011],[126.91661540835996,37.462119500856],[126.91678711297138,37.4621510511105],[126.9169383146215,37.46215174506727],[126.91701348287903,37.462200002567194],[126.91704436112319,37.46220179961993],[126.91704201909906,37.4622540561946],[126.91706785980855,37.46232295643905],[126.91725128488343,37.46232571829622],[126.91729418280717,37.462404280406695],[126.91752815170086,37.46262312965108],[126.91762066989448,37.46267263346581],[126.91767658363035,37.4626858097861],[126.9178160690998,37.46270301872565],[126.91784363161639,37.462698353020954],[126.9184028436731,37.462855864729875],[126.91849704292645,37.46288239703631],[126.91849753354148,37.46288439400625],[126.91864207533739,37.46291918411416],[126.9188395130879,37.46296747026177],[126.91883925561001,37.46305759933157],[126.91883090894807,37.46312357402728],[126.91883535738653,37.46320003635209],[126.9188414934213,37.46329395230644],[126.91884394843741,37.46337409653905],[126.91884395204119,37.46338109013557],[126.91884399066792,37.46338707282994],[126.9187793619443,37.46339487624931],[126.91869000244236,37.46334851015401],[126.91868846624209,37.463347554013],[126.91858607135389,37.463284231715505],[126.91854280375163,37.46322143739779],[126.91834554703303,37.4634072840155],[126.91828696816984,37.46346268155899],[126.91822136181719,37.46352530017295],[126.91808948854084,37.46364454514602],[126.91797111196551,37.46376302464764],[126.91783796224809,37.463794560193676],[126.91780111281238,37.46375935439349],[126.9176497764386,37.46382577723523],[126.91753596370312,37.4638750894559],[126.91745292234914,37.46391109760874],[126.91735190072262,37.46395400360034],[126.91729470095652,37.46397806470863],[126.91726100092193,37.46399213239047],[126.9171589734454,37.46403470412787],[126.91713796045029,37.46400442440227],[126.91712845672939,37.46399216396189],[126.91700116140464,37.463827892043724],[126.91698012218122,37.46380093697523],[126.91694720932085,37.46375841306691],[126.91708558288494,37.46369047718749],[126.91702434137066,37.46360985662602]]]},"properties":{"OBJECTID":84877,"PRESENT_SN":"11620UQ181PS202410280001","LCLAS_CL":"UQ1200","MLSFC_CL":"UQ1220","SCLAS_CL":"UQ1221","ATRB_SE":"UQ1221","WTNNC_SN":"11620AGZ202407040001","NTFC_SN":"11620NTC202410140009","DGM_NM":"신림7 주택정비형 재개발사업","SIGNGU_SE":"11620","DRAWING_NO":" ","CREATE_DAT":1730073600000,"DGM_AR":77935.2458197,"DGM_LT":1650.18945825,"SHAPE.AREA":77935.24643065,"SHAPE.LEN":1650.1895115189}}]}