{"type":"FeatureCollection","features":[{"type":"Feature","id":84620,"geometry":{"type":"Polygon","coordinates":[[[127.13770799456252,37.494799272957],[127.13772695608023,37.49484168814723],[127.13771679448168,37.49497486750135],[127.13768729910271,37.49510978103456],[127.13760428065562,37.49534981268727],[127.13756553953255,37.49549978351163],[127.13758387055057,37.49556859871097],[127.13766671695072,37.49566968543363],[127.13777826234265,37.4957574943179],[127.13807921918753,37.49590644232347],[127.13828753083529,37.49603801747],[127.1370324004833,37.49671205933895],[127.13614485248934,37.49598155320934],[127.1361457893651,37.49593650220345],[127.13616171196698,37.49592423047484],[127.13520917330447,37.495137749121696],[127.13673567866876,37.493957595315464],[127.13770799456252,37.494799272957]]]},"properties":{"OBJECTID":84620,"PRESENT_SN":"11000UQ181PS201912151359","LCLAS_CL":"UQ1200","MLSFC_CL":"UQ1240","SCLAS_CL":" ","ATRB_SE":"UQ1240","WTNNC_SN":"11000AGZ201807120619","NTFC_SN":"11000NTC201711160221","DGM_NM":"삼환가락아파트 주택재건축 정비사업","SIGNGU_SE":"11000","DRAWING_NO":" ","CREATE_DAT":1576368000000,"DGM_AR":40749.16049995,"DGM_LT":859.56243736,"SHAPE.AREA":40749.1605,"SHAPE.LEN":859.562437362703}}]}