{"type":"FeatureCollection","features":[{"type":"Feature","id":84416,"geometry":{"type":"Polygon","coordinates":[[[126.88564871109952,37.52355975212855],[126.88567879116577,37.52368392067144],[126.88568858602162,37.52372161888157],[126.88573026706204,37.52389342535752],[126.88573469378834,37.52391308939861],[126.88576024795019,37.52401606208484],[126.88577954637077,37.524097062387035],[126.88582751159154,37.52429473351829],[126.88565796508112,37.52432031775332],[126.88550350160278,37.52434361902457],[126.88549468707076,37.52434495284827],[126.8853871815113,37.524361173217834],[126.88534194340016,37.52436799430901],[126.8853013786113,37.52437400908613],[126.88524750669272,37.52438232630658],[126.88520284504753,37.524389436230145],[126.88515820624282,37.52439640200021],[126.88510827183647,37.5244042184791],[126.88509295086399,37.5244066540833],[126.88506259165933,37.524411570614284],[126.88503264062629,37.52441589288361],[126.88500180676402,37.524420502592676],[126.8849730210269,37.524424753916854],[126.88494228884397,37.52442944480022],[126.88491325367745,37.52443404725147],[126.88488150299425,37.524438971372085],[126.88485899704686,37.52444236391475],[126.8848309344958,37.5244471294854],[126.88475922938005,37.52445833907611],[126.88470279657915,37.52442576638665],[126.88469388822828,37.524385681340995],[126.884689964995,37.52436974787791],[126.88468077716279,37.52433478921317],[126.88467048367625,37.524290675349555],[126.88466697635998,37.52427644517651],[126.88465669604292,37.52423840402733],[126.88465268399753,37.52422139829127],[126.88464687398428,37.524196678262854],[126.88464248664927,37.524180942557244],[126.884634016117,37.52414305636534],[126.8846303413199,37.52412742047365],[126.88460927257458,37.524043535050204],[126.88456963750373,37.523881587091225],[126.88455230137028,37.52380535479387],[126.88454564104838,37.52378187728929],[126.88454235314644,37.52376480919569],[126.88451936399255,37.5236720740823],[126.88451482854134,37.52364980601297],[126.88445403983042,37.523400873045986],[126.8844499473655,37.52338471415592],[126.88441879699755,37.52326636465971],[126.88457695934447,37.52324203231961],[126.8846995465854,37.52322342194456],[126.88482322069135,37.52320420884955],[126.88485096923596,37.52330636400671],[126.88486003747437,37.5233454491017],[126.88488356094709,37.52343669804063],[126.88491208537415,37.52354923340373],[126.88501371764279,37.52353371044639],[126.88530122400651,37.523489088107944],[126.88533168433983,37.52348436082296],[126.88561930467706,37.52343894494645],[126.88564871109952,37.52355975212855]]]},"properties":{"OBJECTID":84416,"PRESENT_SN":"11000UQ181PS201912151276","LCLAS_CL":"UQ1200","MLSFC_CL":"UQ1220","SCLAS_CL":"UQ1222","ATRB_SE":"UQ1222","WTNNC_SN":"11000AGZ201311259092","NTFC_SN":"11000NTC201311076987","DGM_NM":"양평제14 도시환경정비구역","SIGNGU_SE":"11000","DRAWING_NO":" ","CREATE_DAT":1576368000000,"DGM_AR":11105.17077602,"DGM_LT":469.39934736,"SHAPE.AREA":11105.170776,"SHAPE.LEN":469.39934735839404}}]}