{"type":"FeatureCollection","features":[{"type":"Feature","id":84787,"geometry":{"type":"Polygon","coordinates":[[[126.90182446029135,37.50995733057014],[126.90180060860203,37.51000693734496],[126.90176896645593,37.51007171933321],[126.90174372915487,37.51012558664051],[126.90173786763305,37.510136141372435],[126.9017367486794,37.51013980748436],[126.90169769550437,37.510219284756815],[126.90166143421492,37.51029579649184],[126.90166825089739,37.510298424154485],[126.90162661156292,37.5103875678117],[126.90158633068556,37.510475734119524],[126.90154287016773,37.510573360890184],[126.90153630689598,37.51058424388117],[126.90149232189388,37.5107018768199],[126.9013922736017,37.51088501875504],[126.90138766073477,37.51089212370913],[126.90137024685329,37.510888057165175],[126.90136771521948,37.510887466668066],[126.90136673536519,37.51089535856845],[126.90136526837495,37.51090722345126],[126.90136470905654,37.51091104320306],[126.90135853669041,37.51090866834853],[126.90129992932341,37.5109989615806],[126.90124143633044,37.51108820071308],[126.90118553630215,37.51117520754581],[126.90112762722606,37.511267402384036],[126.90105973852722,37.51123564760863],[126.90104490796503,37.51122901267033],[126.90097179705629,37.51119487477128],[126.90090066407052,37.51116184673741],[126.9008868170093,37.511155618065416],[126.900812800603,37.51112207395404],[126.9007393950435,37.5110885213073],[126.90072101462131,37.51108070299411],[126.90064053303871,37.51104396372948],[126.90062543115981,37.51103728345684],[126.9005054315658,37.51098311209589],[126.90040001309026,37.5109360709687],[126.90038475259153,37.51092962478854],[126.90037829810035,37.51092679914291],[126.90031390167823,37.511031529904876],[126.90021316122257,37.511197118821386],[126.90015081575108,37.511298742809764],[126.90014122553806,37.51131461915056],[126.90009414890979,37.51139135266295],[126.90004904531207,37.51146433069448],[126.90003847995528,37.51148197214215],[126.9000355566039,37.51148582589626],[126.89997195558779,37.51153704695718],[126.89990371224094,37.51159187698642],[126.89988608745297,37.511602322394666],[126.89978414741257,37.51165879020221],[126.89971031291583,37.51164953642726],[126.89969838701273,37.51163620040917],[126.89961275998179,37.5115405038061],[126.89957232946094,37.51149531998226],[126.89953167312048,37.511449883670224],[126.89948739165412,37.51140038972812],[126.8994631785877,37.51137333891404],[126.89942386631144,37.51132939036963],[126.89938124510984,37.511281753874734],[126.8993394709515,37.51123507315322],[126.89929739192753,37.51118804977406],[126.89925454502004,37.51114016075804],[126.89921378742967,37.51109460711689],[126.8991745318875,37.511050739626434],[126.89916387100901,37.511038828223846],[126.89910469902473,37.51097742807619],[126.89905962585448,37.51092832071228],[126.89900785557624,37.51087192746622],[126.89895704452343,37.51081717484374],[126.89890502558096,37.510760772325774],[126.8988873045975,37.510742385608445],[126.89887759902871,37.51069367830377],[126.89889570001617,37.51066580818149],[126.8990260606439,37.510461845596176],[126.89908535364135,37.51036812128228],[126.8991588466705,37.51025372235595],[126.8992094681283,37.51017373967323],[126.899307151084,37.51001977179787],[126.8993675315179,37.509924327371756],[126.89940808458998,37.50986222067979],[126.89940265669466,37.50986143212065],[126.89943199660989,37.50981927280664],[126.89947806325492,37.50975308933822],[126.8994804430707,37.50974967661575],[126.89951110896389,37.509705491183574],[126.89952215759469,37.50969001258736],[126.89952361953041,37.509687878487014],[126.89955616691547,37.509640730387375],[126.89962394641255,37.50954326496666],[126.89966171603716,37.509489994562074],[126.89969343586122,37.509444125124986],[126.8996999413108,37.50943430085592],[126.89975546008117,37.50935351125098],[126.8997775689327,37.509322193621],[126.89978871014692,37.50930508427408],[126.89984653975452,37.50922153956374],[126.89991899801949,37.509117879133925],[126.89994239723379,37.50908572465431],[126.89996470845016,37.509055191029155],[126.9000323490087,37.50908463967877],[126.90004637699478,37.5090905622693],[126.90016218341935,37.50914008136999],[126.9002907175272,37.50919538665437],[126.9003912983669,37.509238225104596],[126.90039372183247,37.50923930296955],[126.9004482514808,37.509158301355754],[126.90049592912655,37.50908747872602],[126.90054231628633,37.50901742082053],[126.90062875396525,37.508896094338155],[126.90068051135317,37.508827428497575],[126.90077535728295,37.50869379245123],[126.9007860405453,37.5086974055495],[126.90079950486249,37.50870194904487],[126.90090673131984,37.5087396390224],[126.90100528707482,37.50877426714538],[126.90101889885004,37.50877851341215],[126.90110610265234,37.50881061801115],[126.90111595015223,37.50881336541199],[126.90117023578944,37.50883272891353],[126.90121486696631,37.50884878654404],[126.90130802816617,37.50888331973379],[126.90143742262687,37.50892987582205],[126.90144493798026,37.508934324103976],[126.90145439799163,37.50893929661091],[126.90145534723074,37.50893991009291],[126.90146313322539,37.50894496227092],[126.90152927197865,37.50898141854889],[126.90156259434853,37.50899653844836],[126.90160300513679,37.50901398890616],[126.9016172814105,37.509020398058645],[126.90163676864643,37.509029100147785],[126.90166139897494,37.509040104123535],[126.9017007135582,37.5090569229233],[126.90176137822905,37.50908498616335],[126.90177713528216,37.50909206328466],[126.90179897751518,37.50909893831141],[126.90181946205773,37.50910616357709],[126.90199878112146,37.50916940258694],[126.90204361498188,37.50918642414118],[126.90208451551078,37.509192945753],[126.9021513538091,37.50920547179089],[126.90218738406041,37.50920865558158],[126.90215038072793,37.50928256928231],[126.90211460910177,37.509357267874265],[126.90208182991387,37.50942699547021],[126.90204898355631,37.50949615537158],[126.90201782656955,37.50956215418671],[126.90198903415309,37.50961905491641],[126.90196095044946,37.50967881239596],[126.9019540585221,37.50969029429784],[126.90192107270126,37.50975357954319],[126.90191656896346,37.50976376602069],[126.90188026237794,37.509840653506615],[126.90185465435334,37.50989274556332],[126.90185408591334,37.50989494351608],[126.90182668514872,37.509951295768836],[126.90182446029135,37.50995733057014]]]},"properties":{"OBJECTID":84787,"PRESENT_SN":"11000UQ181PS201912150530","LCLAS_CL":"UQ1200","MLSFC_CL":"UQ1220","SCLAS_CL":"UQ1221","ATRB_SE":"UQ1221","WTNNC_SN":"11000AGZ201411068408","NTFC_SN":"11000NTC201406267245","DGM_NM":"도림제16주택재개발정비구역","SIGNGU_SE":"11000","DRAWING_NO":" ","CREATE_DAT":1576368000000,"DGM_AR":53398.4964381,"DGM_LT":1018.16426113,"SHAPE.AREA":53398.496438124996,"SHAPE.LEN":1018.16426113259}},{"type":"Feature","id":85516,"geometry":{"type":"Polygon","coordinates":[[[126.90182446029135,37.50995733057014],[126.90180060860203,37.51000693734496],[126.90176896645593,37.51007171933321],[126.90174372915487,37.51012558664051],[126.90173786763305,37.510136141372435],[126.9017367486794,37.51013980748436],[126.90169769550437,37.510219284756815],[126.90166143421492,37.51029579649184],[126.90166825089739,37.510298424154485],[126.90162661156292,37.5103875678117],[126.90158633068556,37.510475734119524],[126.90154287016773,37.510573360890184],[126.90153630689598,37.51058424388117],[126.90149232189388,37.5107018768199],[126.9013922736017,37.51088501875504],[126.90138766073477,37.51089212370913],[126.90137024685329,37.510888057165175],[126.90136771521948,37.510887466668066],[126.90136673536519,37.51089535856845],[126.90136526837495,37.51090722345126],[126.90136470905654,37.51091104320306],[126.90135853669041,37.51090866834853],[126.90129992932341,37.5109989615806],[126.90124143633044,37.51108820071308],[126.90118553630215,37.51117520754581],[126.90112762722606,37.511267402384036],[126.90105973852722,37.51123564760863],[126.90104490796503,37.51122901267033],[126.90097179705629,37.51119487477128],[126.90090066407052,37.51116184673741],[126.9008868170093,37.511155618065416],[126.900812800603,37.51112207395404],[126.9007393950435,37.5110885213073],[126.90072101462131,37.51108070299411],[126.90064053303871,37.51104396372948],[126.90062543115981,37.51103728345684],[126.9005054315658,37.51098311209589],[126.90040001309026,37.5109360709687],[126.90038475259153,37.51092962478854],[126.90037829810035,37.51092679914291],[126.90031390167823,37.511031529904876],[126.90021316122257,37.511197118821386],[126.90015081575108,37.511298742809764],[126.90014122553806,37.51131461915056],[126.90009414890979,37.51139135266295],[126.90004904531207,37.51146433069448],[126.90003847995528,37.51148197214215],[126.9000355566039,37.51148582589626],[126.89997195558779,37.51153704695718],[126.89990371224094,37.51159187698642],[126.89988608745297,37.511602322394666],[126.89978414741257,37.51165879020221],[126.89971031291583,37.51164953642726],[126.89969838701273,37.51163620040917],[126.89961275998179,37.5115405038061],[126.89957232946094,37.51149531998226],[126.89953167312048,37.511449883670224],[126.89948739165412,37.51140038972812],[126.8994631785877,37.51137333891404],[126.89942386631144,37.51132939036963],[126.89938124510984,37.511281753874734],[126.8993394709515,37.51123507315322],[126.89929739192753,37.51118804977406],[126.89925454502004,37.51114016075804],[126.89921378742967,37.51109460711689],[126.8991745318875,37.511050739626434],[126.89916387100901,37.511038828223846],[126.89910469902473,37.51097742807619],[126.89905962585448,37.51092832071228],[126.89900785557624,37.51087192746622],[126.89895704452343,37.51081717484374],[126.89890502558096,37.510760772325774],[126.8988873045975,37.510742385608445],[126.89887759902871,37.51069367830377],[126.89889570001617,37.51066580818149],[126.8990260606439,37.510461845596176],[126.89908535364135,37.51036812128228],[126.8991588466705,37.51025372235595],[126.8992094681283,37.51017373967323],[126.899307151084,37.51001977179787],[126.8993675315179,37.509924327371756],[126.89940808458998,37.50986222067979],[126.89940265669466,37.50986143212065],[126.89943199660989,37.50981927280664],[126.89947806325492,37.50975308933822],[126.8994804430707,37.50974967661575],[126.89951110896389,37.509705491183574],[126.89952215759469,37.50969001258736],[126.89952361953041,37.509687878487014],[126.89955616691547,37.509640730387375],[126.89962394641255,37.50954326496666],[126.89966171603716,37.509489994562074],[126.89969343586122,37.509444125124986],[126.8996999413108,37.50943430085592],[126.89975546008117,37.50935351125098],[126.8997775689327,37.509322193621],[126.89978871014692,37.50930508427408],[126.89984653975452,37.50922153956374],[126.89991899801949,37.509117879133925],[126.89994239723379,37.50908572465431],[126.89996470845016,37.509055191029155],[126.9000323490087,37.50908463967877],[126.90004637699478,37.5090905622693],[126.90016218341935,37.50914008136999],[126.9002907175272,37.50919538665437],[126.9003912983669,37.509238225104596],[126.90039372183247,37.50923930296955],[126.9004482514808,37.509158301355754],[126.90049592912655,37.50908747872602],[126.90054231628633,37.50901742082053],[126.90062875396525,37.508896094338155],[126.90068051135317,37.508827428497575],[126.90077535728295,37.50869379245123],[126.9007860405453,37.5086974055495],[126.90079950486249,37.50870194904487],[126.90090673131984,37.5087396390224],[126.90100528707482,37.50877426714538],[126.90101889885004,37.50877851341215],[126.90110610265234,37.50881061801115],[126.90111595015223,37.50881336541199],[126.90117023578944,37.50883272891353],[126.90121486696631,37.50884878654404],[126.90130802816617,37.50888331973379],[126.90143742262687,37.50892987582205],[126.90144493798026,37.508934324103976],[126.90145439799163,37.50893929661091],[126.90145534723074,37.50893991009291],[126.90146313322539,37.50894496227092],[126.90152927197865,37.50898141854889],[126.90156259434853,37.50899653844836],[126.90160300513679,37.50901398890616],[126.9016172814105,37.509020398058645],[126.90163676864643,37.509029100147785],[126.90166139897494,37.509040104123535],[126.9017007135582,37.5090569229233],[126.90176137822905,37.50908498616335],[126.90177713528216,37.50909206328466],[126.90179897751518,37.50909893831141],[126.90181946205773,37.50910616357709],[126.90199878112146,37.50916940258694],[126.90204361498188,37.50918642414118],[126.90208451551078,37.509192945753],[126.9021513538091,37.50920547179089],[126.90218738406041,37.50920865558158],[126.90215038072793,37.50928256928231],[126.90211460910177,37.509357267874265],[126.90208182991387,37.50942699547021],[126.90204898355631,37.50949615537158],[126.90201782656955,37.50956215418671],[126.90198903415309,37.50961905491641],[126.90196095044946,37.50967881239596],[126.9019540585221,37.50969029429784],[126.90192107270126,37.50975357954319],[126.90191656896346,37.50976376602069],[126.90188026237794,37.509840653506615],[126.90185465435334,37.50989274556332],[126.90185408591334,37.50989494351608],[126.90182668514872,37.509951295768836],[126.90182446029135,37.50995733057014]]]},"properties":{"OBJECTID":85516,"PRESENT_SN":"11000UQ181PS201912150530","LCLAS_CL":"UQ1200","MLSFC_CL":"UQ1220","SCLAS_CL":"UQ1221","ATRB_SE":"UQ1221","WTNNC_SN":"11000AGZ201411068408","NTFC_SN":"11000NTC201406267245","DGM_NM":"도림제16주택재개발정비구역","SIGNGU_SE":"11000","DRAWING_NO":" ","CREATE_DAT":1576368000000,"DGM_AR":53398.4964381,"DGM_LT":1018.16426113,"SHAPE.AREA":53398.496438124996,"SHAPE.LEN":1018.16426113259}}]}