{"type":"FeatureCollection","features":[{"type":"Feature","id":85582,"geometry":{"type":"Polygon","coordinates":[[[127.1072859712248,37.60262084928045],[127.10728197651933,37.602638827463096],[127.10724584245195,37.60270428919274],[127.10722348495369,37.60270206577092],[127.10720664338491,37.60270051314283],[127.1071700330304,37.60274154963706],[127.10716308113359,37.60275046657747],[127.10715232696722,37.602769324758384],[127.10710800318304,37.60285741744626],[127.10713449568519,37.60286073638863],[127.10711566668158,37.60288725113312],[127.1070862471694,37.60292025341192],[127.10702426481453,37.60298975656914],[127.10688420447362,37.603054202828346],[127.10686585911714,37.60306240913516],[127.10675628028692,37.603100140929094],[127.10662717822869,37.60312195162751],[127.10654448629887,37.60312947636315],[127.1061140673116,37.603033129088125],[127.10584800179534,37.60302665224857],[127.10581771543644,37.60299076585049],[127.10588391711609,37.602868462016396],[127.10597337211561,37.60276560780026],[127.10596957920785,37.60267705357661],[127.10593930869665,37.60232023717637],[127.10593812365543,37.602306903681296],[127.10599337298773,37.602281113715584],[127.10604289607508,37.60225811283152],[127.10615312986388,37.602179251254874],[127.10616669375486,37.602169283371005],[127.10617519849663,37.60210473843998],[127.1061851396469,37.602095521581695],[127.1061267227295,37.602091113505196],[127.10613923312206,37.60200004009462],[127.10617020826373,37.60200233717024],[127.10617527443135,37.60197300569086],[127.1061435620635,37.60196988036595],[127.10615849058901,37.6018831655644],[127.10616937011629,37.601816275970144],[127.10630271534235,37.60168048768369],[127.10629897412822,37.60167748172249],[127.10632104796169,37.60165532497828],[127.10623454720927,37.60159430611034],[127.10604938147029,37.60137337807317],[127.10609691828246,37.60117766952397],[127.106365807602,37.60115945637016],[127.10655334156543,37.60114753181008],[127.10659164783533,37.60114514615061],[127.10673159049692,37.60113620086784],[127.106879074443,37.6011268522553],[127.10699167132607,37.60111940868284],[127.10708514353819,37.60111327051484],[127.10725191071509,37.60110271489085],[127.10741592587536,37.60109201734309],[127.10752026818882,37.60108516631085],[127.10756025386567,37.60111716033408],[127.10754994665122,37.601243262140876],[127.1075483126601,37.60126486917674],[127.10753934276214,37.60136780551035],[127.1075291071676,37.60148856441775],[127.10752666908502,37.60151810983288],[127.10751464963121,37.601658646909634],[127.10751154325501,37.601696067513],[127.10749988176175,37.60184151461844],[127.10756607384492,37.60187467439871],[127.10761808952648,37.601900936348336],[127.10756271075466,37.601922699799275],[127.10752351936588,37.60197992938641],[127.1074307439558,37.60211887212562],[127.10741868863721,37.60213842525696],[127.10736933933909,37.602211800504094],[127.1073680453236,37.602233632474686],[127.10736369432225,37.60227985678733],[127.1073414330778,37.60230552772449],[127.10731165351855,37.602339944928126],[127.10727337872339,37.60242098657809],[127.10729186653941,37.602449558190855],[127.10731728671082,37.60248742172762],[127.10730173521264,37.60255718073148],[127.1072859712248,37.60262084928045]]]},"properties":{"OBJECTID":85582,"PRESENT_SN":"11260UQ181PS202504220001","LCLAS_CL":"UQ1200","MLSFC_CL":"UQ1240","SCLAS_CL":" ","ATRB_SE":"UQ1240","WTNNC_SN":"11260AGZ202501160001","NTFC_SN":"11260NTC202503240005","DGM_NM":"망우1구역 공공재건축정비구역","SIGNGU_SE":"11260","DRAWING_NO":" ","CREATE_DAT":1745280000000,"DGM_AR":25180.15940611,"DGM_LT":720.33452634,"SHAPE.AREA":25180.159406,"SHAPE.LEN":720.3345263414341}}]}