{"type":"FeatureCollection","features":[{"type":"Feature","id":85726,"geometry":{"type":"Polygon","coordinates":[[[127.03476058312923,37.60237772011873],[127.03468804353189,37.6023871287685],[127.03460105511137,37.60239894704878],[127.03428876139618,37.60244584924059],[127.03401562231578,37.602482108233204],[127.03400332450455,37.602483138738954],[127.03396506179509,37.60248847407257],[127.03391703854066,37.602496262746975],[127.03382673499875,37.60251540635785],[127.03376101453507,37.60252971391831],[127.03369390075268,37.60254310281934],[127.0336058757107,37.602567867773665],[127.03352025144049,37.60259277616864],[127.03355727339162,37.60254590600164],[127.03360428825707,37.60248400471068],[127.03361044638856,37.602478597138685],[127.03365892558588,37.60239868477729],[127.03378236261095,37.60221880588473],[127.03384756002843,37.602121707125065],[127.033902693795,37.60203341369364],[127.03398853141627,37.60190187361589],[127.03405102817001,37.601819425466346],[127.03409781607338,37.601758416007094],[127.03413184759694,37.601711429350864],[127.03417405193731,37.60165702533276],[127.03422523104915,37.601590554648745],[127.03423463559618,37.601577109374425],[127.03426316608581,37.60153629593787],[127.03427040904832,37.60152594163234],[127.03430011998786,37.60149144375065],[127.0343323065924,37.6014471334668],[127.03436914331262,37.601393514723924],[127.03440592587722,37.60134561722715],[127.03441251303374,37.60133761466127],[127.03444526721934,37.60129671891345],[127.03444762083876,37.60129260977371],[127.03449131723342,37.601233060608216],[127.03450513620909,37.601215298368956],[127.03453149485242,37.601180549088745],[127.03454675138408,37.60116144397744],[127.03457943658904,37.60111854802783],[127.03461679618364,37.601070127731255],[127.03466005181095,37.601013146426794],[127.03469935627875,37.600958481743554],[127.03470135941367,37.60095569714234],[127.03472636004423,37.60092334481419],[127.03473216598488,37.60091583799048],[127.03475991517138,37.60087634008467],[127.03477524159247,37.60086187498679],[127.03476179723204,37.60085595931422],[127.03481413103802,37.60079107377122],[127.0348931756924,37.6006949976248],[127.03487500452155,37.600729321213024],[127.03488277529003,37.6007347789752],[127.0349427099447,37.600776910014545],[127.03502428200434,37.60083751404905],[127.03505066758574,37.600863626059855],[127.03508979119054,37.60088610348007],[127.03510524152729,37.60089552336916],[127.03511566779255,37.60093865947808],[127.0351048723416,37.60095594340826],[127.0351107855391,37.60096039258257],[127.0351160784119,37.601020774970166],[127.03522582198113,37.60114917883484],[127.03525275932869,37.601193067039425],[127.03531435258121,37.60129564437261],[127.03535154032909,37.60131872591732],[127.03537159723848,37.6013226394433],[127.03541364870821,37.60138305631467],[127.03541631219551,37.60138812808488],[127.03544458641498,37.60140799564957],[127.03546298677972,37.60142970405297],[127.03547223260273,37.60144130605641],[127.03552645596672,37.60149780010781],[127.03553467280985,37.60151270901074],[127.03556750886189,37.60157809289762],[127.03560202928227,37.60163689911166],[127.03563029639308,37.60169049043023],[127.03563629273874,37.60170323760789],[127.03565481803719,37.60175025455894],[127.03566832211261,37.60178720897861],[127.03571175566533,37.601897161387804],[127.0357630853868,37.6020136796547],[127.03577269981524,37.60203860706564],[127.03578068153075,37.60205912914257],[127.03580250675529,37.60211567751006],[127.03578025055938,37.602156498503334],[127.03566554797911,37.60218434508788],[127.03550294189499,37.602233720837184],[127.0353669712826,37.60228498079119],[127.0353282486006,37.60229943464672],[127.03529750528824,37.60230443489463],[127.03528991871646,37.6023060588349],[127.0351982343866,37.60232564537237],[127.03517763759399,37.602330489526274],[127.03510926146282,37.60233102256515],[127.03502955476235,37.60234292017734],[127.03502814866907,37.60233874001546],[127.03476058312923,37.60237772011873]]]},"properties":{"OBJECTID":85726,"PRESENT_SN":"11000UQ181PS201912150321","LCLAS_CL":"UQ1200","MLSFC_CL":"UQ1220","SCLAS_CL":"UQ1221","ATRB_SE":"UQ1221","WTNNC_SN":"11000AGZ200810297534","NTFC_SN":"11000NTC200706081103","DGM_NM":"종암6구역주택재개발사업","SIGNGU_SE":"11000","DRAWING_NO":" ","CREATE_DAT":1576368000000,"DGM_AR":19716.05546393,"DGM_LT":640.53528889,"SHAPE.AREA":19716.055464,"SHAPE.LEN":640.5352888870381}}]}