{"type":"FeatureCollection","features":[{"type":"Feature","id":86078,"geometry":{"type":"Polygon","coordinates":[[[126.85586346206011,37.51957017695474],[126.85593922652187,37.519582884285576],[126.85725252521878,37.51973135775955],[126.8585658291669,37.51987981663879],[126.85857948916058,37.51989415898926],[126.85843061373085,37.5207294712807],[126.8583609770192,37.521120328535645],[126.85831579022728,37.52114739370316],[126.8582949893399,37.521199626177726],[126.85832896969237,37.52123570716455],[126.85826527833841,37.52159305453396],[126.85813374680481,37.52157820872652],[126.85817847224232,37.52131940723581],[126.8581729307161,37.521318679715115],[126.85819546481716,37.52118833312355],[126.85820325970077,37.521134643295184],[126.85707071780276,37.521006645140695],[126.8559381798128,37.52087863433046],[126.85480564572804,37.52075061266664],[126.8547337131206,37.52068691306833],[126.8543956420058,37.52031879649184],[126.85402037180192,37.520173628710324],[126.85400897748961,37.52015802727068],[126.85407034652353,37.5193809056875],[126.85408790225759,37.5193694849647],[126.85586346206011,37.51957017695474]]]},"properties":{"OBJECTID":86078,"PRESENT_SN":"11000UQ181PS201912150405","LCLAS_CL":"UQ1200","MLSFC_CL":"UQ1220","SCLAS_CL":"UQ1221","ATRB_SE":"UQ1221","WTNNC_SN":"11000AGZ201106137966","NTFC_SN":"11000NTC201106076117","DGM_NM":"신정제4주택재개발구역","SIGNGU_SE":"11000","DRAWING_NO":" ","CREATE_DAT":1576368000000,"DGM_AR":54683.99022788,"DGM_LT":1148.14780818,"SHAPE.AREA":54683.990228,"SHAPE.LEN":1148.14780818163}}]}