{"type":"FeatureCollection","features":[{"type":"Feature","id":84630,"geometry":{"type":"Polygon","coordinates":[[[127.07808501935502,37.49137933432892],[127.07814613314903,37.49154183508622],[127.08018269748601,37.49192909787947],[127.07949412902978,37.49340809482808],[127.07936990065483,37.49345160493329],[127.07643477671382,37.4924953795431],[127.07639104586717,37.492412244989005],[127.07659701020657,37.49201098918317],[127.07670535219732,37.49179990612675],[127.07703251886521,37.491162600449414],[127.07808501935502,37.49137933432892]]]},"properties":{"OBJECTID":84630,"PRESENT_SN":"11680UQ181PS202205180001","LCLAS_CL":"UQ1200","MLSFC_CL":"UQ1206","SCLAS_CL":" ","ATRB_SE":"UQ1206","WTNNC_SN":"11680AGZ202112290001","NTFC_SN":"11000NTC202204270001","DGM_NM":"개포우성7차아파트 재건축사업","SIGNGU_SE":"11680","DRAWING_NO":" ","CREATE_DAT":1652832000000,"DGM_AR":48983.71950003,"DGM_LT":927.48857176,"SHAPE.AREA":48983.7195,"SHAPE.LEN":927.488571757804}}]}