{"type":"FeatureCollection","features":[{"type":"Feature","id":86983,"geometry":{"type":"Polygon","coordinates":[[[127.01418761337023,37.51665925436121],[127.01422982668666,37.51677475933899],[127.01447822758549,37.51745651611358],[127.01450335333001,37.51752543955326],[127.01350197902396,37.51775259460233],[127.01344507216895,37.51769124253258],[127.01338386628382,37.517625205687274],[127.01282374050349,37.51703070411949],[127.01405831241951,37.5163046288379],[127.01418761337023,37.51665925436121]]]},"properties":{"OBJECTID":86983,"PRESENT_SN":"11000UQ181PS201912151295","LCLAS_CL":"UQ1200","MLSFC_CL":"UQ1240","SCLAS_CL":" ","ATRB_SE":"UQ1240","WTNNC_SN":"11000AGZ201711300455","NTFC_SN":"11000NTC201707178205","DGM_NM":"신반포13차아파트 주택재건축정비사","SIGNGU_SE":"11000","DRAWING_NO":" ","CREATE_DAT":1576368000000,"DGM_AR":13276.84359051,"DGM_LT":468.88356358,"SHAPE.AREA":13276.84359056,"SHAPE.LEN":468.883563576576}}]}