{"type":"FeatureCollection","features":[{"type":"Feature","id":86438,"geometry":{"type":"Polygon","coordinates":[[[126.97388636775126,37.551426969264185],[126.97388674243905,37.55145426937363],[126.97388684137857,37.55146215306643],[126.97388809370064,37.55156448789533],[126.9738884233293,37.55159122937932],[126.97389003805145,37.55172351322416],[126.97389181805356,37.551867924440195],[126.97381589392042,37.55186895180228],[126.97365650868466,37.55187111272077],[126.97360661309305,37.55187178569049],[126.97346286761167,37.55187372479565],[126.97335650137956,37.551875168091435],[126.97332676093077,37.551875575450694],[126.97331418801036,37.55187574363661],[126.97331447564822,37.55189324995556],[126.9733144615273,37.55190069213577],[126.97331570197922,37.55197240228507],[126.97328148005136,37.55197286262196],[126.97318242432868,37.55197416335025],[126.97301251426644,37.551976419982374],[126.9729302073589,37.55197750830332],[126.97275949379127,37.55197977338675],[126.97273758451496,37.551980056365885],[126.97270757254135,37.55198014815625],[126.97266214677782,37.55198132637214],[126.97265940129311,37.55196971193065],[126.97264084945529,37.55189140229005],[126.97262897494407,37.55184127727014],[126.9726038588679,37.55173528757955],[126.97259448132793,37.55169567772859],[126.97257725150155,37.55162299058069],[126.97255676784978,37.55153650846228],[126.97254309648343,37.551480238232685],[126.97259255037159,37.551421262488525],[126.97263677562482,37.55142166073954],[126.97286754552195,37.551418815765686],[126.97310065795507,37.551415943874915],[126.97313347621322,37.5514158886988],[126.9733049242211,37.55141320879395],[126.97330167872974,37.5512267659849],[126.97330123888341,37.55122278350024],[126.97330113996851,37.55121499891567],[126.97330088676155,37.551196231215656],[126.97330011708152,37.5511365944468],[126.9732956570242,37.550929996172236],[126.97329504537902,37.5509014436245],[126.97329381088561,37.55084404119895],[126.97329244274958,37.55078092645843],[126.97329066286612,37.55069935031468],[126.97329002887025,37.55067005894789],[126.97328735892174,37.550548046115864],[126.97328856229193,37.55050790725641],[126.9733013321044,37.550495161286364],[126.9733200902812,37.5504772540668],[126.97332390531633,37.55047359695444],[126.97332807117249,37.550469912895956],[126.9733407159002,37.55045873461598],[126.97334562895139,37.55045423083339],[126.97342857911983,37.550453403662694],[126.97354605563542,37.55045326036057],[126.97356604056492,37.55045322905327],[126.97364930731982,37.55045313160513],[126.97374975251184,37.55045301110939],[126.97375923573456,37.55045299531922],[126.97376802710181,37.55045715996379],[126.97387118784442,37.55051943362718],[126.97387109291647,37.550531335695524],[126.97387051676047,37.550589945022146],[126.97387202746629,37.55069731646626],[126.9738726449922,37.55077181955057],[126.97387324002266,37.55084595322239],[126.9738734457366,37.55087113596643],[126.97387355372119,37.55088516442008],[126.97387448510258,37.550998464243136],[126.97387545902798,37.55111914318918],[126.97387613376972,37.55122259511765],[126.97387845987312,37.551236452901435],[126.9738801649236,37.55127727719576],[126.97388339533124,37.55135522266913],[126.97388475253852,37.551388010043],[126.97388636775126,37.551426969264185]]]},"properties":{"OBJECTID":86438,"PRESENT_SN":"11000UQ181PS201912151253","LCLAS_CL":"UQ1200","MLSFC_CL":"UQ1220","SCLAS_CL":"UQ1222","ATRB_SE":"UQ1222","WTNNC_SN":"11000AGZ201311229089","NTFC_SN":"11000NTC201305306841","DGM_NM":"동자동 제4구역 도시환경정비사업","SIGNGU_SE":"11000","DRAWING_NO":" ","CREATE_DAT":1576368000000,"DGM_AR":11911.47523803,"DGM_LT":553.85996454,"SHAPE.AREA":11911.475238,"SHAPE.LEN":553.8599645397741}}]}