{"type":"FeatureCollection","features":[{"type":"Feature","id":86981,"geometry":{"type":"Polygon","coordinates":[[[127.02456005005371,37.61305663421045],[127.02456211215912,37.61305916015962],[127.02455931766087,37.61306159335485],[127.0245515959307,37.61311403197697],[127.0245450164746,37.613161152783384],[127.02437854371256,37.61314244653397],[127.0241635650617,37.613104376465095],[127.02393816519748,37.613061172390594],[127.02360538482698,37.612981948773715],[127.02333592237078,37.612920461863304],[127.02316624567419,37.61287211040553],[127.02310610181404,37.61286130964462],[127.02303554091375,37.61286024135163],[127.0228952125536,37.612860266850745],[127.022399821355,37.61287927614344],[127.02216773332769,37.61289065672761],[127.02216751756042,37.61288857910228],[127.02216138413864,37.61282557454617],[127.02215210476268,37.61273113529761],[127.02214100987509,37.61262441598715],[127.02214124370889,37.61260989212559],[127.02214249067258,37.61253189394448],[127.02214253748004,37.612529136933084],[127.02190364281255,37.6125291784352],[127.0219015484254,37.61250758227161],[127.02190553315677,37.61250032868273],[127.02190619676789,37.61247511910705],[127.0221434535404,37.61247507788601],[127.02214447433342,37.61241475699893],[127.02214866584434,37.61233614563319],[127.0221531711074,37.612245361951445],[127.02215801298716,37.61218417545158],[127.02215971738431,37.61216317327475],[127.02217295408381,37.61202873550765],[127.02217311202229,37.61202648302621],[127.02219184292119,37.61189652217054],[127.02221719087215,37.61173603489335],[127.02227264823061,37.611514509822356],[127.02227759826708,37.61151699566106],[127.02227337665211,37.61140509448754],[127.02241882198291,37.611447261791135],[127.02246493920785,37.6114028784693],[127.02256486098027,37.611449354949336],[127.02267879354442,37.611498438076104],[127.02275801615154,37.611527199396846],[127.02289518570527,37.611579251369484],[127.0232643307201,37.61171334009223],[127.023733496456,37.61189020549733],[127.02383037801324,37.611923031603816],[127.02391801637772,37.61196621346485],[127.02402712278457,37.61199017503444],[127.02423324307713,37.61206363942058],[127.0244209267413,37.612112166054665],[127.02455303909854,37.61211589023035],[127.02456357354443,37.61214254641472],[127.02466648433254,37.61215644644059],[127.02468818654476,37.61214803242098],[127.02468066902917,37.61224482994228],[127.0246779581692,37.61224659459599],[127.02465269881665,37.61240602281558],[127.02464538328175,37.61240917588239],[127.02465082917294,37.612417824237205],[127.02464177936575,37.61247494823482],[127.02460719835128,37.61272137342633],[127.0246051934064,37.61273519667534],[127.02459836920393,37.61273777301487],[127.02460307769795,37.61274976776052],[127.024597026686,37.61279147176923],[127.0245917189757,37.61284156737269],[127.02456005005371,37.61305663421045]]]},"properties":{"OBJECTID":86981,"PRESENT_SN":"11000UQ181PS202503170001","LCLAS_CL":"UQ1200","MLSFC_CL":"UQ1206","SCLAS_CL":" ","ATRB_SE":"UQ1206","WTNNC_SN":"11000AGZ202010200004","NTFC_SN":"11000NTC202503040002","DGM_NM":"미아4재정비촉진구역","SIGNGU_SE":"11000","DRAWING_NO":" ","CREATE_DAT":1742169600000,"DGM_AR":28928.42319984,"DGM_LT":773.88488567,"SHAPE.AREA":28928.42467356,"SHAPE.LEN":773.885079399813}}]}