{"type":"FeatureCollection","features":[{"type":"Feature","id":85122,"geometry":{"type":"Polygon","coordinates":[[[127.00242887504717,37.480360392983194],[127.00238602641375,37.48042643673665],[127.00236067898115,37.48046553138728],[127.00227078695865,37.48060415111561],[127.00212406902767,37.480522935664396],[127.00199959030157,37.48046310972279],[127.00170348780091,37.48033976342142],[127.00152915070137,37.48026714282563],[127.00151230491808,37.48022416504061],[127.00158445900453,37.48011398150941],[127.00167994808871,37.47996818129933],[127.00169964280744,37.47993809681881],[127.00176515985595,37.47983823866334],[127.00178088618284,37.47981428098961],[127.00179660119383,37.479790314303656],[127.00187109473198,37.47967677885667],[127.0019314559266,37.47958478636655],[127.00199186219581,37.479492712753775],[127.00208595910787,37.479349290850834],[127.00215447111198,37.47924495447529],[127.00221039982851,37.47915966531437],[127.00231799469928,37.47899557415274],[127.00237402479365,37.478910140749726],[127.00242795277967,37.47889671541584],[127.00251342426652,37.47893230430415],[127.00262986233932,37.478980795191084],[127.00266997522802,37.478997499382935],[127.00284580284713,37.4790707129558],[127.00296072637018,37.479118563821174],[127.00304332668313,37.47915296303733],[127.00315819392901,37.47920079569067],[127.0032479736371,37.479238176979784],[127.00333061943678,37.47927259401378],[127.0034167588262,37.47930846154676],[127.0035016659583,37.47934386952645],[127.00351851268326,37.47938684703435],[127.00344875886368,37.47949325652297],[127.00336736031485,37.47961741588892],[127.00329896271512,37.479721752959364],[127.00322988657334,37.47982599989802],[127.00314525388407,37.47995269997596],[127.00303370245322,37.48011971116086],[127.0029078037385,37.480308202288256],[127.00290666183768,37.48030795002119],[127.00258218143045,37.48023668415331],[127.0025700840935,37.48023433264718],[127.00251729675043,37.48022404366584],[127.00242887504717,37.480360392983194]]]},"properties":{"OBJECTID":85122,"PRESENT_SN":"11000UQ181PS201912151272","LCLAS_CL":"UQ1200","MLSFC_CL":"UQ1240","SCLAS_CL":" ","ATRB_SE":"UQ1240","WTNNC_SN":"11000AGZ201812060940","NTFC_SN":"11000NTC201810250006","DGM_NM":"방배3 주택재건축 정비구역","SIGNGU_SE":"11000","DRAWING_NO":" ","CREATE_DAT":1576368000000,"DGM_AR":17880.16715345,"DGM_LT":561.23516538,"SHAPE.AREA":17880.1671535,"SHAPE.LEN":561.235165378551}}]}