{"type":"FeatureCollection","features":[{"type":"Feature","id":86321,"geometry":{"type":"Polygon","coordinates":[[[126.96282824398689,37.6002989614779],[126.96281939505076,37.60033022089439],[126.96278646489891,37.60028624391091],[126.96274629463423,37.600232710512984],[126.96272202543031,37.60020569015816],[126.96264081584738,37.600115277693014],[126.96263898601914,37.60011284984127],[126.96262689693783,37.60009680294971],[126.9626137819574,37.600089359208276],[126.96260482165924,37.6000842738076],[126.96254696598217,37.60006082915252],[126.96247281246724,37.60002945042538],[126.96246126227702,37.60002457949194],[126.96244081109502,37.60002035251672],[126.96244031515802,37.60002024964044],[126.96240974383299,37.60001798705628],[126.96228262119264,37.60000846201628],[126.96211353354647,37.59999579282036],[126.9621089882777,37.59999545253307],[126.96209562767108,37.599996527449235],[126.96209434549841,37.59999709103652],[126.96209021128398,37.599998908740844],[126.96198813576491,37.600043793120776],[126.96198805885531,37.600047897073985],[126.96198802154836,37.60004991976902],[126.9619871878527,37.60005039160506],[126.96180780030288,37.60015194067923],[126.96165535175703,37.6002074799583],[126.96158331685034,37.60022971169615],[126.96152222712493,37.60025937120164],[126.9615163744791,37.600262212721425],[126.96151421000972,37.60022074873731],[126.96151402281856,37.600217162760394],[126.96151223289074,37.60021007141526],[126.96151040680358,37.600202835900525],[126.9615090483094,37.600197881833914],[126.96152876316998,37.600175081925286],[126.96152921981071,37.60017455320282],[126.96149353877529,37.600134762695916],[126.96145403481594,37.60009070922935],[126.9614537337773,37.60009037396137],[126.9613814950471,37.60007052778515],[126.96134793320817,37.60003219394326],[126.96114857392593,37.59980448347607],[126.96112324089027,37.59977554783724],[126.9611234828335,37.59975113307318],[126.96091028605329,37.59969006334139],[126.96082804294556,37.59966644456933],[126.96081982192098,37.59966408386136],[126.96093399566136,37.59961168414135],[126.96105009894166,37.59955072923377],[126.96113620799757,37.59949888550878],[126.96121910669751,37.5994489741348],[126.96122634156443,37.59946572768818],[126.96124195020467,37.59950187145951],[126.96124812560511,37.59950519909634],[126.96125315988702,37.59950791187293],[126.96125454728846,37.59950749969582],[126.96133048173844,37.59948491900103],[126.96189278552387,37.59931770820621],[126.96213019625937,37.59924711002778],[126.96277181753439,37.59905630670384],[126.9628515513458,37.59902497862719],[126.96289468398987,37.599046616353],[126.96289663868488,37.59904842076152],[126.96292954480944,37.59907879106337],[126.96295963769168,37.59913412128255],[126.96298590904449,37.5992065716344],[126.96303472371054,37.59934119358449],[126.96303489727883,37.59934278477781],[126.96303663972354,37.59935876158396],[126.9630515336788,37.59940564730909],[126.9630764828473,37.59948418785432],[126.96309949880828,37.59955663981922],[126.96311475100607,37.599613904079],[126.96311735388416,37.59962367699162],[126.96311727197032,37.59962441937528],[126.96311010203232,37.59968977798015],[126.9631092783202,37.599697284705535],[126.96310903113877,37.59969790630363],[126.96309510504715,37.5997329608356],[126.96308035977744,37.59977548064704],[126.96303933379572,37.5998444826037],[126.96301973086275,37.599864299646754],[126.96300294517943,37.599893182399164],[126.96295178900165,37.59998120437973],[126.96290911059126,37.60005463948757],[126.9628598095268,37.60021618226933],[126.96285383389979,37.60023576408463],[126.96285035492305,37.60024716218539],[126.96284228560864,37.60029274388948],[126.96284206187045,37.600294008796695],[126.96283164380856,37.600293917085985],[126.96282824398689,37.6002989614779]]]},"properties":{"OBJECTID":86321,"PRESENT_SN":"11000UQ181PS201912150539","LCLAS_CL":"UQ1200","MLSFC_CL":"UQ1220","SCLAS_CL":"UQ1221","ATRB_SE":"UQ1221","WTNNC_SN":"11000AGZ201710198656","NTFC_SN":"11000NTC201709228288","DGM_NM":"신영제1주택재개발정비구역","SIGNGU_SE":"11000","DRAWING_NO":" ","CREATE_DAT":1576368000000,"DGM_AR":15589.26946387,"DGM_LT":596.74125725,"SHAPE.AREA":15589.269463925,"SHAPE.LEN":596.74125725445}},{"type":"Feature","id":87014,"geometry":{"type":"Polygon","coordinates":[[[126.96282824398689,37.6002989614779],[126.96281939505076,37.60033022089439],[126.96278646489891,37.60028624391091],[126.96274629463423,37.600232710512984],[126.96272202543031,37.60020569015816],[126.96264081584738,37.600115277693014],[126.96263898601914,37.60011284984127],[126.96262689693783,37.60009680294971],[126.9626137819574,37.600089359208276],[126.96260482165924,37.6000842738076],[126.96254696598217,37.60006082915252],[126.96247281246724,37.60002945042538],[126.96246126227702,37.60002457949194],[126.96244081109502,37.60002035251672],[126.96244031515802,37.60002024964044],[126.96240974383299,37.60001798705628],[126.96228262119264,37.60000846201628],[126.96211353354647,37.59999579282036],[126.9621089882777,37.59999545253307],[126.96209562767108,37.599996527449235],[126.96209434549841,37.59999709103652],[126.96209021128398,37.599998908740844],[126.96198813576491,37.600043793120776],[126.96198805885531,37.600047897073985],[126.96198802154836,37.60004991976902],[126.9619871878527,37.60005039160506],[126.96180780030288,37.60015194067923],[126.96165535175703,37.6002074799583],[126.96158331685034,37.60022971169615],[126.96152222712493,37.60025937120164],[126.9615163744791,37.600262212721425],[126.96151421000972,37.60022074873731],[126.96151402281856,37.600217162760394],[126.96151223289074,37.60021007141526],[126.96151040680358,37.600202835900525],[126.9615090483094,37.600197881833914],[126.96152876316998,37.600175081925286],[126.96152921981071,37.60017455320282],[126.96149353877529,37.600134762695916],[126.96145403481594,37.60009070922935],[126.9614537337773,37.60009037396137],[126.9613814950471,37.60007052778515],[126.96134793320817,37.60003219394326],[126.96114857392593,37.59980448347607],[126.96112324089027,37.59977554783724],[126.9611234828335,37.59975113307318],[126.96091028605329,37.59969006334139],[126.96082804294556,37.59966644456933],[126.96081982192098,37.59966408386136],[126.96093399566136,37.59961168414135],[126.96105009894166,37.59955072923377],[126.96113620799757,37.59949888550878],[126.96121910669751,37.5994489741348],[126.96122634156443,37.59946572768818],[126.96124195020467,37.59950187145951],[126.96124812560511,37.59950519909634],[126.96125315988702,37.59950791187293],[126.96125454728846,37.59950749969582],[126.96133048173844,37.59948491900103],[126.96189278552387,37.59931770820621],[126.96213019625937,37.59924711002778],[126.96277181753439,37.59905630670384],[126.9628515513458,37.59902497862719],[126.96289468398987,37.599046616353],[126.96289663868488,37.59904842076152],[126.96292954480944,37.59907879106337],[126.96295963769168,37.59913412128255],[126.96298590904449,37.5992065716344],[126.96303472371054,37.59934119358449],[126.96303489727883,37.59934278477781],[126.96303663972354,37.59935876158396],[126.9630515336788,37.59940564730909],[126.9630764828473,37.59948418785432],[126.96309949880828,37.59955663981922],[126.96311475100607,37.599613904079],[126.96311735388416,37.59962367699162],[126.96311727197032,37.59962441937528],[126.96311010203232,37.59968977798015],[126.9631092783202,37.599697284705535],[126.96310903113877,37.59969790630363],[126.96309510504715,37.5997329608356],[126.96308035977744,37.59977548064704],[126.96303933379572,37.5998444826037],[126.96301973086275,37.599864299646754],[126.96300294517943,37.599893182399164],[126.96295178900165,37.59998120437973],[126.96290911059126,37.60005463948757],[126.9628598095268,37.60021618226933],[126.96285383389979,37.60023576408463],[126.96285035492305,37.60024716218539],[126.96284228560864,37.60029274388948],[126.96284206187045,37.600294008796695],[126.96283164380856,37.600293917085985],[126.96282824398689,37.6002989614779]]]},"properties":{"OBJECTID":87014,"PRESENT_SN":"11000UQ181PS201912150539","LCLAS_CL":"UQ1200","MLSFC_CL":"UQ1220","SCLAS_CL":"UQ1221","ATRB_SE":"UQ1221","WTNNC_SN":"11000AGZ201710198656","NTFC_SN":"11000NTC201709228288","DGM_NM":"신영제1주택재개발정비구역","SIGNGU_SE":"11000","DRAWING_NO":" ","CREATE_DAT":1576368000000,"DGM_AR":15589.26946387,"DGM_LT":596.74125725,"SHAPE.AREA":15589.269463925,"SHAPE.LEN":596.74125725445}}]}