{"type":"FeatureCollection","features":[{"type":"Feature","id":83976,"geometry":{"type":"Polygon","coordinates":[[[127.0340612862343,37.636382833327986],[127.03406784111768,37.63634562113863],[127.03414248022732,37.63629460518532],[127.03423059729269,37.636234395475505],[127.03431327761267,37.636177701023726],[127.03435541064967,37.636149038213055],[127.03439709043602,37.63612028541573],[127.03443265426812,37.636096039198605],[127.03455123772042,37.63601464776697],[127.03467163326374,37.63593244482597],[127.03472273864497,37.63595405392444],[127.03477554392603,37.63597668062655],[127.03488036136558,37.6360215828025],[127.03492194863504,37.63603986088703],[127.03494268544856,37.63604859449988],[127.03502959919487,37.63608605052613],[127.03513974297958,37.63613359082295],[127.03518121683643,37.6361513282614],[127.0352452409242,37.63617915019338],[127.03533419477064,37.636217686584594],[127.03543912754319,37.63626558848514],[127.03544200579817,37.636266831007035],[127.03547493626652,37.63628215617715],[127.03541705996682,37.63632046437257],[127.03534921646457,37.63636499214385],[127.03537743906662,37.636391743088474],[127.03543989200475,37.636451910465496],[127.03544771272952,37.63645929623452],[127.03553045450192,37.63653891884644],[127.03554076901474,37.63654909692134],[127.03560254219701,37.636608723819954],[127.03565162049068,37.63665547037716],[127.03568152892619,37.63665203800676],[127.03568198470659,37.63665771403438],[127.03574588049962,37.63665147877197],[127.03577669545822,37.636648406505586],[127.03578847648912,37.636644709076094],[127.03578229849401,37.63661264507329],[127.0359415251674,37.63656633352573],[127.03595351640308,37.63657627682114],[127.03598559117826,37.63660266610397],[127.03602265364094,37.63663482017702],[127.03604161536944,37.63665081599518],[127.03592444697877,37.636679267053296],[127.03587788771313,37.6366905428408],[127.03580810533256,37.636707231226744],[127.03579371845373,37.63671083931729],[127.03578069091338,37.63671399652255],[127.03575814753708,37.636719318834416],[127.03567782976788,37.636738532937315],[127.03564237195565,37.636746651995644],[127.03558878893487,37.63675937126422],[127.03555503053757,37.63676748980561],[127.0355254637434,37.636774886347276],[127.03551334238152,37.63677768287074],[127.0354744860728,37.63678670383533],[127.03538839056822,37.63680700057667],[127.03536935893477,37.6368115109262],[127.035334920634,37.63681944940408],[127.03522946487419,37.636844319532806],[127.03517757040093,37.63685832653011],[127.03515412057168,37.636863648984985],[127.03509011518317,37.63687862344144],[127.03499778868184,37.63690000284328],[127.03496788173078,37.63690703895051],[127.03491848994291,37.63691867555302],[127.03483703850199,37.636937258719506],[127.03477597943927,37.63695393502124],[127.03476825350462,37.636955838261315],[127.03472364246129,37.636966842750624],[127.0346948830652,37.63695585891237],[127.0346733486634,37.6369476615632],[127.0346732998281,37.6369473957885],[127.03467265064252,37.63694739597091],[127.03465610271833,37.63693226419427],[127.03459875139566,37.63687903250536],[127.03453641326935,37.6368215675884],[127.03451306491026,37.63680022094794],[127.03445650737737,37.636748160237694],[127.0344039167359,37.636699432011945],[127.0343789816812,37.636676644222334],[127.03435438652808,37.63665385633279],[127.03428048786351,37.63658549266422],[127.03421055636562,37.63652100205378],[127.03419196840805,37.63650379852729],[127.03411931675973,37.63643651558399],[127.0340612862343,37.636382833327986]]]},"properties":{"OBJECTID":83976,"PRESENT_SN":"11305UQ181PS202406040001","LCLAS_CL":"UQ1800","MLSFC_CL":"UQ1810","SCLAS_CL":"UQ1812","ATRB_SE":"UQ1812","WTNNC_SN":"11305AGZ202405290001","NTFC_SN":"11305NTC202405290004","DGM_NM":"번동454-61번지일대 가로주택정비사업","SIGNGU_SE":"11305","DRAWING_NO":" ","CREATE_DAT":1717459200000,"DGM_AR":9761.09555047,"DGM_LT":465.08927171,"SHAPE.AREA":9761.095538325,"SHAPE.LEN":465.08932282923405}},{"type":"Feature","id":85338,"geometry":{"type":"Polygon","coordinates":[[[127.0340612862343,37.636382833327986],[127.03406784111768,37.63634562113863],[127.03414248022732,37.63629460518532],[127.03423059729269,37.636234395475505],[127.03431327761267,37.636177701023726],[127.03435541064967,37.636149038213055],[127.03439709043602,37.63612028541573],[127.03443265426812,37.636096039198605],[127.03455123772042,37.63601464776697],[127.03467163326374,37.63593244482597],[127.03472273864497,37.63595405392444],[127.03477554392603,37.63597668062655],[127.03488036136558,37.6360215828025],[127.03492194863504,37.63603986088703],[127.03494268544856,37.63604859449988],[127.03502959919487,37.63608605052613],[127.03513974297958,37.63613359082295],[127.03518121683643,37.6361513282614],[127.0352452409242,37.63617915019338],[127.03533419477064,37.636217686584594],[127.03543912754319,37.63626558848514],[127.03544200579817,37.636266831007035],[127.03547493626652,37.63628215617715],[127.03541705996682,37.63632046437257],[127.03534921646457,37.63636499214385],[127.03537743906662,37.636391743088474],[127.03543989200475,37.636451910465496],[127.03544771272952,37.63645929623452],[127.03553045450192,37.63653891884644],[127.03554076901474,37.63654909692134],[127.03560254219701,37.636608723819954],[127.03565162049068,37.63665547037716],[127.03568152892619,37.63665203800676],[127.03568198470659,37.63665771403438],[127.03574588049962,37.63665147877197],[127.03577669545822,37.636648406505586],[127.03578847648912,37.636644709076094],[127.03578229849401,37.63661264507329],[127.0359415251674,37.63656633352573],[127.03595351640308,37.63657627682114],[127.03598559117826,37.63660266610397],[127.03602265364094,37.63663482017702],[127.03604161536944,37.63665081599518],[127.03592444697877,37.636679267053296],[127.03587788771313,37.6366905428408],[127.03580810533256,37.636707231226744],[127.03579371845373,37.63671083931729],[127.03578069091338,37.63671399652255],[127.03575814753708,37.636719318834416],[127.03567782976788,37.636738532937315],[127.03564237195565,37.636746651995644],[127.03558878893487,37.63675937126422],[127.03555503053757,37.63676748980561],[127.0355254637434,37.636774886347276],[127.03551334238152,37.63677768287074],[127.0354744860728,37.63678670383533],[127.03538839056822,37.63680700057667],[127.03536935893477,37.6368115109262],[127.035334920634,37.63681944940408],[127.03522946487419,37.636844319532806],[127.03517757040093,37.63685832653011],[127.03515412057168,37.636863648984985],[127.03509011518317,37.63687862344144],[127.03499778868184,37.63690000284328],[127.03496788173078,37.63690703895051],[127.03491848994291,37.63691867555302],[127.03483703850199,37.636937258719506],[127.03477597943927,37.63695393502124],[127.03476825350462,37.636955838261315],[127.03472364246129,37.636966842750624],[127.0346948830652,37.63695585891237],[127.0346733486634,37.6369476615632],[127.0346732998281,37.6369473957885],[127.03467265064252,37.63694739597091],[127.03465610271833,37.63693226419427],[127.03459875139566,37.63687903250536],[127.03453641326935,37.6368215675884],[127.03451306491026,37.63680022094794],[127.03445650737737,37.636748160237694],[127.0344039167359,37.636699432011945],[127.0343789816812,37.636676644222334],[127.03435438652808,37.63665385633279],[127.03428048786351,37.63658549266422],[127.03421055636562,37.63652100205378],[127.03419196840805,37.63650379852729],[127.03411931675973,37.63643651558399],[127.0340612862343,37.636382833327986]]]},"properties":{"OBJECTID":85338,"PRESENT_SN":"11305UQ181PS202406040001","LCLAS_CL":"UQ1800","MLSFC_CL":"UQ1810","SCLAS_CL":"UQ1812","ATRB_SE":"UQ1812","WTNNC_SN":"11305AGZ202405290001","NTFC_SN":"11305NTC202405290004","DGM_NM":"번동454-61번지일대 가로주택정비사업","SIGNGU_SE":"11305","DRAWING_NO":" ","CREATE_DAT":1717459200000,"DGM_AR":9761.09555047,"DGM_LT":465.08927171,"SHAPE.AREA":9761.095538325,"SHAPE.LEN":465.08932282923405}}]}