{"type":"FeatureCollection","features":[{"type":"Feature","id":85848,"geometry":{"type":"Polygon","coordinates":[[[127.01522609548385,37.55057028465819],[127.01531529452744,37.55070578331214],[127.01534847640468,37.55083813500135],[127.01532075271035,37.550848139244565],[127.01528905549743,37.550850521561394],[127.01517772482357,37.55085890469794],[127.01511880736192,37.55083962128252],[127.01510095973741,37.550831739666044],[127.01488043561156,37.55071278897077],[127.01483957940712,37.55069289970646],[127.01474100464247,37.55064854599047],[127.01467894906625,37.550608116448025],[127.01465960699038,37.55059582908518],[127.01459144034283,37.55055398562046],[127.01453087917331,37.55051625880707],[127.01444275980101,37.550463443382625],[127.01432442239604,37.550392214916684],[127.01429539335439,37.55037890141414],[127.01420386610131,37.550314571513624],[127.01414299579042,37.550253211538205],[127.01408757015129,37.55019995086079],[127.01407195095565,37.550185077160215],[127.01400801043064,37.55010170622875],[127.01390402168376,37.55002108749162],[127.0137771766983,37.5499568780844],[127.01362389962894,37.54984011644243],[127.01356544339868,37.54979633425325],[127.01352001403671,37.5497628039903],[127.01345761932676,37.549715877688385],[127.01342018019827,37.549687238960225],[127.0133372237055,37.549639855159235],[127.01323083843857,37.549566795378375],[127.01317028856633,37.549519409234556],[127.01309231698471,37.549506803026595],[127.01288329381624,37.5494391588933],[127.01285149348269,37.54942970154245],[127.01274341770119,37.54939772667934],[127.01262402519353,37.549362419114644],[127.01260829121921,37.549333498776704],[127.0124161390736,37.54932630873706],[127.01249872478753,37.54916673554699],[127.01255244630414,37.54895725008143],[127.01259088754378,37.5487270432186],[127.01258408335616,37.548629286303004],[127.01254332482067,37.54849233943878],[127.01249464703021,37.54836845766788],[127.01232768813601,37.54805447758445],[127.01217600715565,37.54773914438306],[127.01217204120694,37.54770175359686],[127.01217373201301,37.54765535238567],[127.0119121101373,37.54769537972275],[127.01178537618068,37.54773944929041],[127.01165230355497,37.54777234697232],[127.01144363283386,37.54775614685041],[127.0114130778681,37.54774443652624],[127.01134700900865,37.547719093551216],[127.01127660796615,37.5477598548359],[127.01105727116548,37.547515433780966],[127.01089667701568,37.54735993551734],[127.01085706948206,37.54734822576709],[127.01081179869503,37.547294169849536],[127.0108070430414,37.547270564246645],[127.01070111283555,37.54716966148361],[127.01069533882999,37.54714641635152],[127.0107118574953,37.54712461107198],[127.01076379429506,37.54709568518929],[127.01066238456303,37.54694387601249],[127.01080268336523,37.546790065806526],[127.0107803725139,37.54664086335319],[127.01069504582125,37.546602397673944],[127.01069167508865,37.545875117474495],[127.01068035466113,37.54583727670152],[127.01072108596921,37.54579222394841],[127.010821787151,37.54571743374429],[127.0109270172669,37.545665167886106],[127.01098133202551,37.54565795561211],[127.01141698165038,37.54560295940072],[127.01164894999694,37.54556870204148],[127.01171073217608,37.54555536204704],[127.01181845285247,37.545517240748815],[127.01196396781525,37.545477944725654],[127.01199123770593,37.54547055417779],[127.01202959682077,37.545461811149394],[127.01203989380926,37.54545946765377],[127.01205381224374,37.54546005205746],[127.01205403951573,37.545466854525046],[127.01205405654262,37.54546723294009],[127.01205585618405,37.54551055246365],[127.01205636704113,37.54552226531095],[127.01205687789837,37.54553397815826],[127.01205818364872,37.54556551275322],[127.01205948940016,37.545597047348],[127.01205972101539,37.545602543376994],[127.0120608517949,37.545629032433396],[127.01210249636125,37.54564722874135],[127.01210457292547,37.545648090804306],[127.01224610192531,37.545706861435626],[127.01224847839214,37.5457079424098],[127.01227224302541,37.54571848185126],[127.0122729220106,37.54571875208693],[127.0123503268489,37.545752982697714],[127.01235440078975,37.54575478430739],[127.01245194909939,37.54579793281919],[127.01247243200093,37.54580703093729],[127.0125078527122,37.545822704902086],[127.01253818379936,37.545855137777146],[127.01257009939054,37.545889372479344],[127.01259431955803,37.54591883263875],[127.01261084360719,37.5459389232026],[127.01265127373944,37.545930567204834],[127.01265271080241,37.54593026974209],[127.01265950225618,37.545943513679454],[127.01266030362733,37.545944938071734],[127.01266032513298,37.54594497591135],[127.0126928927483,37.54600288587692],[127.01270369858348,37.54601288766357],[127.01276249468957,37.54606730017525],[127.01278176344555,37.54608346212958],[127.01278179513365,37.54608348735432],[127.01285110885368,37.546141623517094],[127.0129087138092,37.5461899111278],[127.01298431336059,37.54625333362381],[127.01300673311074,37.54627317128082],[127.01306287307277,37.54632281585115],[127.01306291834247,37.546322856391335],[127.013065798623,37.546325405015075],[127.01328828439368,37.5464263842107],[127.01335742966101,37.54645953379018],[127.01410933047727,37.546896166632585],[127.01414995682228,37.546908505878015],[127.01429231423934,37.546924528213864],[127.0144820778702,37.54689603620087],[127.01452564246341,37.54688557990827],[127.01466051759664,37.54682303616075],[127.01468688048641,37.546804562896796],[127.01485965426947,37.54668912648309],[127.01493795165996,37.546640193768184],[127.01496443924788,37.54662370260902],[127.0149664634373,37.546622440089294],[127.01505551072093,37.54656683963432],[127.01518051123415,37.54648302130624],[127.01518076241614,37.546482852791755],[127.01522149318082,37.5464477093993],[127.01525566090582,37.54641986388741],[127.015256588669,37.54641910694651],[127.01525597799417,37.54642119191217],[127.01524534884238,37.54645741931823],[127.01528885628082,37.546753389990975],[127.01502618099673,37.547262732823015],[127.01500007465967,37.547261005902755],[127.01499094734879,37.547287153717505],[127.01498936392298,37.54729168588532],[127.01498598237454,37.54730246212922],[127.01496876925525,37.54735728942278],[127.01496332935973,37.547374607098426],[127.01488439224484,37.547457372126],[127.01489464282784,37.54751093490748],[127.01489546959938,37.54751485412666],[127.01490678388457,37.54756829064725],[127.01491429277472,37.54760376182872],[127.01495921765205,37.54760447751696],[127.01496306546761,37.547606459260116],[127.01499803529856,37.5476242949039],[127.01500363925454,37.54763820557182],[127.01499838962525,37.54764389142716],[127.0149648975084,37.54766299626404],[127.0149714392278,37.54766874384427],[127.01498440956728,37.54768056337343],[127.01505129855725,37.54774152581633],[127.01513531152531,37.547816938149474],[127.01518295915866,37.547854711214974],[127.01509072419236,37.54793107186297],[127.01513365267184,37.54796672816019],[127.01522849555055,37.54804238244261],[127.01525486576926,37.54806227326745],[127.01526196181442,37.54806681343826],[127.01533058968175,37.548104043404095],[127.01533741401185,37.54810784478919],[127.01539016587684,37.54814759034283],[127.01539486243722,37.548149544942255],[127.01538416190662,37.54817404415412],[127.01536812281627,37.54821296886265],[127.0153515403324,37.54825080343284],[127.01533844164899,37.548280186294086],[127.01532798810376,37.54829420694219],[127.01528727068553,37.548345577212615],[127.01528437471543,37.5483508483495],[127.01524759864905,37.548420661438406],[127.01520339042003,37.54850493628699],[127.01519862725424,37.548510144568624],[127.01514341647915,37.54857747302149],[127.01508707433608,37.54864674771892],[127.01508278751832,37.54865793852312],[127.0150828451345,37.54866365080118],[127.01506093694698,37.54866370737523],[127.0150615544779,37.54869938655886],[127.01503097144857,37.548725545839005],[127.01499810064247,37.54880412504374],[127.01497397335847,37.54886116955154],[127.0149685648122,37.54886462096419],[127.01496973058975,37.54886575608038],[127.0149421718258,37.548908231943635],[127.01492001224524,37.54895829353366],[127.014875068322,37.54904564972507],[127.01487447762469,37.54909645668647],[127.01487402598698,37.549165562762944],[127.01490243641936,37.54920211275908],[127.01492217814008,37.54923614996706],[127.01492487222569,37.549240645607235],[127.01492417197989,37.549248268072176],[127.0149169983918,37.54925357572446],[127.0149166733072,37.54927082974252],[127.01491569798476,37.54932221338013],[127.01493345265507,37.54931868848895],[127.01495402498453,37.549314595650074],[127.01495839154366,37.54936905105962],[127.0149584671253,37.54938663479463],[127.01495866340547,37.54943358001578],[127.01502859739526,37.549490983191525],[127.01507946103753,37.54953512592735],[127.01509983352989,37.54955200815994],[127.0151069299506,37.54955789081567],[127.01512261683577,37.54957120565847],[127.01515031231077,37.549595114769225],[127.01516235481294,37.54960551982596],[127.01516154008593,37.54960579922735],[127.01513299068269,37.54961555124647],[127.01511321353804,37.54963678087603],[127.01505279750899,37.54971066908809],[127.01507792330725,37.54972967711809],[127.01506061822924,37.54977932371405],[127.01505826651423,37.54979715279568],[127.01505508079288,37.54982131053429],[127.01506050847216,37.54979815444071],[127.01511347347696,37.54982184442061],[127.01528121871286,37.55001923213514],[127.0152778308415,37.55005761474933],[127.01526097382956,37.55008194347097],[127.0152437773962,37.55010672272509],[127.01515054657126,37.55019791381892],[127.01499950124341,37.5503604699412],[127.0150187461721,37.55039884995967],[127.01502576606416,37.55041921155367],[127.01510635973717,37.55053110538911],[127.01517289996777,37.55052677295676],[127.01522609548385,37.55057028465819]]]},"properties":{"OBJECTID":85848,"PRESENT_SN":"11000UQ181PS201912151252","LCLAS_CL":"UQ1200","MLSFC_CL":"UQ1220","SCLAS_CL":"UQ1221","ATRB_SE":"UQ1221","WTNNC_SN":"11000AGZ201704198609","NTFC_SN":"11000NTC201610287923","DGM_NM":"성동구 옥수 제13주택재개발구역 정비","SIGNGU_SE":"11000","DRAWING_NO":" ","CREATE_DAT":1576368000000,"DGM_AR":124632.77891021,"DGM_LT":1944.62601387,"SHAPE.AREA":124632.77891028,"SHAPE.LEN":1944.6260138756502}}]}