{"type":"FeatureCollection","features":[{"type":"Feature","id":85492,"geometry":{"type":"Polygon","coordinates":[[[126.93906653722847,37.59607555451731],[126.93904814079869,37.5960977630436],[126.93904509705142,37.596095076500816],[126.93904204198849,37.59609238094214],[126.93903220922594,37.596083690253046],[126.93902237646569,37.59607499956312],[126.93900700736376,37.596065359907406],[126.93899162694244,37.59605572024369],[126.9389796809689,37.596055479659086],[126.93896774632634,37.596055230069446],[126.93896062108226,37.5960586139925],[126.93895349583751,37.59606199791514],[126.93894245506995,37.59606255067236],[126.93893141430219,37.59606310342855],[126.93891245335455,37.59605626391561],[126.93889349241036,37.596049424399645],[126.93884385378067,37.5960322253007],[126.93879420385045,37.596015026174825],[126.93879004587944,37.596017753946235],[126.93878589923148,37.596020481723485],[126.9387798552631,37.59601724397913],[126.93877379997188,37.59601400622841],[126.93876159890992,37.59600740454024],[126.93875793632559,37.59600542583429],[126.93877704944963,37.59598742893236],[126.9387930343846,37.59599180719975],[126.93879764971275,37.59598380891578],[126.93883406000863,37.59597708889861],[126.93870895869996,37.595910493747276],[126.93871811672877,37.595900083246796],[126.9387513259039,37.595862322657794],[126.93881029233872,37.5958150433367],[126.93893361061261,37.59568503374443],[126.93900081622733,37.59554772337316],[126.93894073039937,37.59549881315564],[126.93891160407156,37.59547511084301],[126.93886862928473,37.595438003542526],[126.93885990620619,37.595402428066556],[126.9388527662176,37.595274926038016],[126.93885917524084,37.59523434912297],[126.93899979211854,37.595255939182984],[126.93901885871809,37.59523099202459],[126.93905381657895,37.59518682627588],[126.93912136346088,37.5951010793182],[126.939196630653,37.59512632861454],[126.93923978303847,37.595004655483415],[126.93924004408082,37.595003925824095],[126.93920913564538,37.59495840981994],[126.93925172264842,37.59495797279149],[126.93930511209764,37.59495742431394],[126.93938368627288,37.594968232460985],[126.93940919293213,37.59497372386787],[126.93948813509986,37.59499140664694],[126.93953031928653,37.59494422625612],[126.93954456898331,37.594924439119985],[126.93954692693849,37.59492115176636],[126.93961502996848,37.5947508294428],[126.93963003028917,37.594713320333206],[126.93973328138838,37.594637223252555],[126.93982961722345,37.59459816192158],[126.9398991318932,37.59451364988626],[126.93992260506087,37.5944858487593],[126.93993198929068,37.59448907917899],[126.93997022055113,37.59449760441006],[126.94009058768656,37.59430227970155],[126.94006532294519,37.594278210274894],[126.94003501375056,37.59426104876343],[126.93997508580838,37.5942270954805],[126.94002616052408,37.59412167091694],[126.94010347540627,37.59414827218194],[126.94009703026356,37.59416484693636],[126.94011973829727,37.59417228285978],[126.94015497613142,37.59418566277875],[126.94021186832518,37.59420727992122],[126.9402206213635,37.59419313901634],[126.94027278205992,37.59421287962524],[126.94028689677286,37.59412249121016],[126.94029776993925,37.5940635454576],[126.94031656133059,37.593972781048805],[126.94032440490066,37.593935349223386],[126.94033297599313,37.59389443096554],[126.94033606168372,37.593776673932254],[126.9403874936535,37.593621091597974],[126.94047388910025,37.59349534089255],[126.94047323919158,37.593473122285125],[126.94047272282499,37.59342603658154],[126.94045056159239,37.59338708457897],[126.94040425943048,37.593307035193085],[126.94040944399407,37.59329484756018],[126.94043243981547,37.59324081842651],[126.94043846044441,37.59321700852766],[126.94044507877827,37.59319614515627],[126.94045607891724,37.593147777001015],[126.94046331265815,37.59310818248323],[126.94052176583321,37.59306147864815],[126.94054555646031,37.593046201236056],[126.94052630303086,37.59291289966935],[126.94058529496188,37.59288566635096],[126.94055421027008,37.59280643575756],[126.94051889988798,37.59271617492272],[126.94051260657702,37.59269959355811],[126.94048637121911,37.59263056459365],[126.94048065859947,37.59258232293647],[126.94047902803608,37.59256854604213],[126.94065025447568,37.5924824913447],[126.9407303527637,37.5925097603697],[126.9407422045091,37.592513793872804],[126.94074211239919,37.5925017476641],[126.9407732275784,37.592501763680794],[126.94082439477786,37.59250269999577],[126.94082492343229,37.592507034002516],[126.94085719464826,37.59250569010505],[126.94085672753032,37.59250923974349],[126.9408721574338,37.592513112895176],[126.94088408985074,37.592515416535484],[126.94087654732951,37.59260099716723],[126.94086625530997,37.5926004242591],[126.94086126135329,37.59267088768052],[126.94086033373716,37.59278143798439],[126.94085409710361,37.592750729232634],[126.94085228098898,37.59288175845217],[126.9408667742317,37.5928818559986],[126.94085590696461,37.59296220019635],[126.94084561552033,37.59307243934721],[126.94084380292968,37.59311541536661],[126.94084039786088,37.59316733734101],[126.94083412684353,37.59322078050493],[126.94083087041753,37.593270909595866],[126.94081328438523,37.59345393550494],[126.94080650395084,37.593535056638444],[126.94079700217587,37.59364872893026],[126.94078868218463,37.59375721215814],[126.94080701305249,37.59377254732912],[126.94078922291257,37.59377456539197],[126.94078689526219,37.59383820971755],[126.9407768264902,37.593911040097645],[126.9407751731495,37.59392518469835],[126.94070544816992,37.59418655132807],[126.94070383069243,37.594198344377],[126.94063190870128,37.59436219631019],[126.94062054623255,37.59438267882703],[126.94061251764175,37.594397171518764],[126.94060511893545,37.59441682717382],[126.94059836702493,37.594434789312096],[126.94050342468461,37.59458463699427],[126.94044553801524,37.594657154294076],[126.94038011077657,37.59474255173092],[126.9403103889815,37.59483150579021],[126.94020484954481,37.59497827537053],[126.94011295910899,37.5950915173301],[126.9399990533468,37.595207955246515],[126.93988533610758,37.59531504994543],[126.93985858041684,37.59534102935866],[126.93966339467771,37.59549919407323],[126.93954061661385,37.59560778832889],[126.93954139318524,37.59561350097459],[126.93952398226659,37.595621907020984],[126.93923463113143,37.59588756295782],[126.93911785907937,37.596016233855146],[126.93910140203292,37.59603478542087],[126.93908493365488,37.59605333697824],[126.93906653722847,37.59607555451731]]]},"properties":{"OBJECTID":85492,"PRESENT_SN":"11410UQ181PS202303240001","LCLAS_CL":"UQ1200","MLSFC_CL":"UQ1206","SCLAS_CL":" ","ATRB_SE":"UQ1206","WTNNC_SN":"11410AGZ202303150001","NTFC_SN":"11410NTC202303150002","DGM_NM":"홍은제1 주택재건축 정비사업","SIGNGU_SE":"11410","DRAWING_NO":" ","CREATE_DAT":1679616000000,"DGM_AR":19183.76188707,"DGM_LT":1071.00255089,"SHAPE.AREA":19183.761887,"SHAPE.LEN":1071.00255089484}}]}