{"type":"FeatureCollection","features":[{"type":"Feature","id":86841,"geometry":{"type":"Polygon","coordinates":[[[126.81444933575902,37.56310664603318],[126.81444952435524,37.56303121563588],[126.81443866331394,37.56302032350503],[126.81452838849515,37.563018546532824],[126.81470181212653,37.56303073211474],[126.81491885405194,37.56304857250825],[126.81520876399537,37.563075429265766],[126.81529338326031,37.56307875225609],[126.81540378521296,37.56307321407016],[126.8155383458447,37.56306100147793],[126.81567721428107,37.5630369114837],[126.81576396079058,37.563017676750576],[126.8158710527892,37.56297760706766],[126.81599378361851,37.56292506516037],[126.81600635088702,37.562918931159686],[126.81606028022118,37.56289259891728],[126.81611706874185,37.562858874029665],[126.81612795119068,37.562865783674084],[126.816255942865,37.56276369542199],[126.81625964736777,37.56278060376642],[126.81627030061682,37.56284808645024],[126.8162703852071,37.56288706331628],[126.81627111945849,37.56290593115325],[126.81627282060734,37.562931074085306],[126.81627543236947,37.56296968280777],[126.81627363945117,37.563040119221405],[126.81627191527276,37.5630782192902],[126.81627065919567,37.56343010710149],[126.81625084018691,37.563434851239826],[126.81617391262056,37.56341959391243],[126.8161342792812,37.563472870164546],[126.8159881031826,37.56358634521258],[126.81593519702044,37.56360608379656],[126.81593261523932,37.56359743025649],[126.81586055756445,37.56353532901859],[126.81584144538228,37.56351063893072],[126.81582592096976,37.56349058555916],[126.81576274273769,37.563467258717274],[126.81573036774635,37.563455296721095],[126.81567140696818,37.56345196037427],[126.81563218049271,37.56343243728937],[126.81559563910588,37.563425532247805],[126.81548127672369,37.56342135172437],[126.81533273578115,37.56341592789541],[126.81534054857075,37.56346017871239],[126.81532393402597,37.563496192021745],[126.81521041563077,37.56349394068054],[126.81521438985064,37.5636706306398],[126.81511786184112,37.56367227125445],[126.81511785855909,37.5637689922766],[126.8151158800862,37.56385894376158],[126.81511653321697,37.56394660188128],[126.81511848805167,37.56404331698035],[126.81511782538213,37.564104862398835],[126.81512379009126,37.56423667729278],[126.81512323592658,37.564250128162776],[126.81512363509492,37.56431706316117],[126.81512379548766,37.56435717538166],[126.81512298713811,37.564399962005616],[126.81512070961243,37.56447365018337],[126.81512093582933,37.564496427506064],[126.81510634619391,37.56449641348233],[126.81511955625582,37.56454588053505],[126.81511899330067,37.5645946591122],[126.81511598862504,37.56470125020406],[126.8151181031229,37.56477477412416],[126.81511723530407,37.56490956949497],[126.81512095238368,37.56502585680837],[126.8151206855312,37.56516022064822],[126.81512145737805,37.56530472223345],[126.81511962940174,37.56537968150179],[126.81512124726613,37.56545265502697],[126.81514226042883,37.565454958687134],[126.81512209041337,37.56550948163392],[126.81508268073912,37.56561305999113],[126.81508777414369,37.56561761802003],[126.81509278241226,37.56565634135587],[126.81508384814975,37.565671472846574],[126.81511799994914,37.56569750223454],[126.8151214604237,37.56582139346053],[126.81512128319038,37.56591069904679],[126.81512101461891,37.56601849184649],[126.8151224768704,37.56605852592271],[126.81512142445354,37.56608568902888],[126.81512584079005,37.56617574968251],[126.8151208785474,37.566195761786375],[126.81512132819344,37.56621063779654],[126.8151233769253,37.56627877368986],[126.81512503883026,37.56633407891288],[126.81512294810787,37.566360024045785],[126.81511779845795,37.56651430097456],[126.81521021040017,37.566539791605834],[126.81520843958327,37.566591820824804],[126.81520740659705,37.56666663897659],[126.81511048245274,37.566665808447944],[126.81505609296124,37.56662122280481],[126.81495963548063,37.56662028657289],[126.8148234944628,37.566619116331566],[126.81468650248684,37.566618764485085],[126.81447000481711,37.56661906139881],[126.81445926052635,37.56662011655152],[126.81445676450757,37.56661793220785],[126.814438918278,37.56664360909714],[126.81419731780377,37.56663833367092],[126.81407137447938,37.566632899051804],[126.8140021143158,37.566637294008544],[126.81387671367825,37.56663662626608],[126.81374813537965,37.566634782053455],[126.81368030245265,37.566634241681264],[126.81355019296927,37.5666336471893],[126.81335282871271,37.566632161529654],[126.81321185756374,37.566629783419096],[126.81321075995456,37.56663864738262],[126.81308272275965,37.56663319034967],[126.8129552710087,37.566628986485114],[126.81271324626186,37.56662594179284],[126.8127013483872,37.56663558134882],[126.8125973535499,37.56631600601179],[126.81256617605459,37.56619711590158],[126.81255957281516,37.56617194976934],[126.81253296637875,37.566094124953565],[126.81250877056378,37.566059892853836],[126.81248625917735,37.56602917909825],[126.81241677424681,37.56593460832168],[126.81238059374974,37.56588756388052],[126.81232581510338,37.56580527003355],[126.81226369943384,37.56571504472105],[126.81222041648529,37.56564344594919],[126.81219901918594,37.565609570556546],[126.81214405341773,37.56553428600343],[126.81209445501797,37.56546887134189],[126.81202088512849,37.56536800938371],[126.81197308063804,37.56530316967572],[126.81193968810649,37.56525494927727],[126.811899032969,37.565191769824374],[126.81187474602042,37.56515487142201],[126.81186653299486,37.565144226578425],[126.81180205508397,37.565048645354366],[126.81175222080405,37.56497651330399],[126.81168923387874,37.56488225886386],[126.81162791158414,37.56479221467747],[126.81157494077914,37.564711797430114],[126.81154659064536,37.564670486592114],[126.81150163426275,37.56460317355344],[126.81147528075238,37.56456455986353],[126.81145366840173,37.56453271931495],[126.811438732825,37.564510712978084],[126.8114574188917,37.5644616266259],[126.81214700657367,37.5641127127113],[126.81223686692927,37.56407146543317],[126.8122461123865,37.564067696106555],[126.81228374412244,37.564050736770355],[126.81245073803572,37.56396997848293],[126.81253366861945,37.563925242068436],[126.81254607965909,37.56394529088758],[126.81261245602167,37.564037604175724],[126.81261370065052,37.5640646628245],[126.81266276601666,37.56411416949463],[126.81270677553626,37.56413987297715],[126.81283757552734,37.564098321298005],[126.81293288597199,37.564068056227846],[126.81294617320391,37.56409528727517],[126.81299071572204,37.56405773316433],[126.8129827161987,37.56405217931718],[126.81296589279256,37.564031339638724],[126.8128773502865,37.56392268326014],[126.81279402427346,37.56381914375145],[126.81275654540823,37.56383841002397],[126.81274563495231,37.563824724598376],[126.81317952323752,37.56361136085944],[126.81320478216887,37.56359491307368],[126.81324928179403,37.5635742342924],[126.8133927070501,37.563503095668246],[126.81395406185953,37.5632211056404],[126.81413657175123,37.56315757846624],[126.81414785236241,37.56315458706914],[126.81423105177053,37.563137339017146],[126.81434103277084,37.56311463734066],[126.81444933575902,37.56310664603318]]]},"properties":{"OBJECTID":86841,"PRESENT_SN":"11500UQ181PS202109130002","LCLAS_CL":"UQ1200","MLSFC_CL":"UQ1206","SCLAS_CL":" ","ATRB_SE":"UQ1206","WTNNC_SN":"11500AGZ202109010002","NTFC_SN":"11500NTC202109010002","DGM_NM":"방화5재정비촉진구역","SIGNGU_SE":"11500","DRAWING_NO":" ","CREATE_DAT":1631491200000,"DGM_AR":99513.8915958,"DGM_LT":1622.85628885,"SHAPE.AREA":99513.89272874,"SHAPE.LEN":1622.85616352828}}]}