{"type":"FeatureCollection","features":[{"type":"Feature","id":85619,"geometry":{"type":"Polygon","coordinates":[[[127.04196672704457,37.59120039704224],[127.04194616265707,37.59119587213392],[127.04180724701015,37.59113654473628],[127.04178928526528,37.59112906368243],[127.04172699473376,37.5910993344014],[127.04153390728443,37.590988939287065],[127.04148348009534,37.5909536377691],[127.04143267717632,37.59091434499401],[127.04141945809813,37.59090387101052],[127.04137571929722,37.59088346046278],[127.04136645515426,37.59087923797199],[127.04130978484835,37.590835451210076],[127.04123267448976,37.59078631944966],[127.04117912178623,37.59074958628609],[127.04108876188853,37.59069611613515],[127.04099596772997,37.59064257464983],[127.04091710661778,37.59057924374682],[127.04087680254538,37.59056579647901],[127.04086581605998,37.59058045916408],[127.04084140527821,37.59058171065726],[127.0408055363645,37.59058353357977],[127.04079253751304,37.59058248375305],[127.04078333188473,37.59058174800792],[127.04077575948992,37.59054319738724],[127.04077017529553,37.59051749414797],[127.04083038614097,37.590469721917266],[127.040928172969,37.59039395252829],[127.04097911525275,37.590355247222],[127.04090176757897,37.59026265181224],[127.0408912653522,37.59025077132559],[127.0408162412852,37.59016250882018],[127.04071533519667,37.590054559333424],[127.04070030183713,37.590038481744315],[127.04068128512793,37.59004812859293],[127.04067977383376,37.59004645776738],[127.04030255740797,37.58962947584878],[127.04000960409384,37.589085376808335],[127.03997264665081,37.58901673379422],[127.03980745888683,37.588805326298505],[127.03958847770573,37.588567176666906],[127.03952497856737,37.58849264061059],[127.03952074265258,37.588487668536494],[127.03955218595995,37.58847269124525],[127.03959779446676,37.58845096550348],[127.03972266986403,37.58839148626611],[127.03985546938198,37.58832739217996],[127.03985296477613,37.58825648546265],[127.0398657448434,37.58825121054866],[127.03986766830107,37.58824864211614],[127.03987893878164,37.58823609674099],[127.03990047048273,37.58820794296596],[127.04001764428384,37.58805471931197],[127.04002883773522,37.58802462275587],[127.04006767049898,37.58793235820761],[127.04012027535506,37.58784872959063],[127.04013859418671,37.58782603679132],[127.04019674926306,37.58774729867265],[127.04025585260422,37.587663406577555],[127.04029106266562,37.58761641764769],[127.0403035202071,37.58760079948107],[127.04036214143923,37.587526484962424],[127.04036898639065,37.58751702236468],[127.04038419505042,37.58752295485128],[127.04041498597586,37.58744772145003],[127.04044548283608,37.587373199915156],[127.04043890256817,37.58736908458212],[127.04043654714566,37.58736825645219],[127.04043918138059,37.58731744902339],[127.0404361316036,37.58730949432875],[127.04043747291095,37.58729793424524],[127.04045460102954,37.58720682997336],[127.0404507117341,37.58715215045753],[127.04044748389843,37.58710664275352],[127.0404444842806,37.587064540698385],[127.04044135485044,37.58703188101199],[127.0404397371958,37.587014988070294],[127.04043966223671,37.587001491334625],[127.04043825014016,37.586985805645426],[127.04043015456814,37.58696341882839],[127.04043387576658,37.586890978379564],[127.04043566798556,37.586853902241195],[127.04043675994306,37.586841846697055],[127.0404404002803,37.58676634292287],[127.04055692772431,37.58676940383485],[127.04056742336556,37.58676971570839],[127.04058501793155,37.586770106320614],[127.04071416967085,37.586773685470384],[127.04074864549311,37.58677441282639],[127.04086856979389,37.58677792279452],[127.04090761991414,37.586779054022664],[127.04097063898212,37.586780762870326],[127.04103832289573,37.586782821507065],[127.04110117215912,37.58678456638131],[127.04117005603315,37.5867862911756],[127.04125472323481,37.586788911603286],[127.04142709233247,37.5867948720389],[127.04141297040245,37.58685212542227],[127.0414120656286,37.58685397274802],[127.04140886836011,37.58686682187969],[127.04140663116235,37.586875363976816],[127.04162095144372,37.58690795208355],[127.0417051033773,37.586920600330124],[127.04179490559781,37.58693431876158],[127.041856479737,37.58694369501453],[127.04191722728272,37.58695288231132],[127.04201373291893,37.586967904710704],[127.04204200640298,37.58697236389574],[127.04203058641069,37.58702138141768],[127.04202740995206,37.587030662656645],[127.04204805036672,37.587031340320856],[127.04204628899159,37.5870403057296],[127.04203830630794,37.58708087082928],[127.04215491984415,37.587095489775656],[127.04221767087249,37.58710343286813],[127.04228362609851,37.58711146491931],[127.04236931706183,37.58712208494342],[127.0424554495743,37.58713264168323],[127.04251714769144,37.5871405399323],[127.04258130266429,37.5871483652157],[127.04274611712047,37.58716801231918],[127.04273928863337,37.587206730042325],[127.04273620357642,37.587217362746095],[127.04273356160357,37.58723076131994],[127.04247628190333,37.588310123035534],[127.0424532456027,37.58842155585629],[127.04245416996622,37.58843481803661],[127.04243110605812,37.58853731308809],[127.04242915719563,37.58855537851471],[127.04242186249994,37.58859097896354],[127.04240811727021,37.588653061597824],[127.0424073200475,37.58866523418238],[127.04240146556063,37.58870504173071],[127.0423889360139,37.58877487241206],[127.0423831110414,37.58878585743653],[127.04236512116546,37.58889172940633],[127.04235964886519,37.58890581369594],[127.04234147469487,37.58900605456733],[127.04233811873101,37.58901844427194],[127.04232859983819,37.58906574927669],[127.04231606570312,37.5891274080136],[127.04231271080643,37.58914177087403],[127.04229242169292,37.589246517389654],[127.04228924963456,37.58926397957432],[127.04227055460628,37.58936449991395],[127.04226808375405,37.58938054730923],[127.042247442292,37.58948304147212],[127.0422433853778,37.58949740457192],[127.04222450968444,37.589599051193765],[127.04222363374396,37.589612286964496],[127.04220422660586,37.58971533930082],[127.04220017089663,37.58973195486046],[127.04217864013337,37.58984430608648],[127.04219589939461,37.58987218562288],[127.0422530578813,37.58987722043806],[127.04229282434659,37.58988090074707],[127.04232220779707,37.58988398097224],[127.04237935240286,37.58988430358005],[127.04239213525986,37.589883947770566],[127.04237219775086,37.589948537268896],[127.04237653731722,37.58995413989293],[127.0423744745706,37.59007466535302],[127.04237206784921,37.59010447076512],[127.04235588929248,37.590189709529994],[127.0423240259164,37.5902900091708],[127.04231813886352,37.59041567155837],[127.04230992111269,37.59058606864299],[127.04232584972037,37.590747889012285],[127.04234473740806,37.59093741363208],[127.0423484177435,37.59097975864126],[127.04232941898343,37.59108454072356],[127.04230526534568,37.5911007938258],[127.04217204139408,37.59118079316424],[127.04212908075198,37.591197025676145],[127.04196998486721,37.59119466566328],[127.04196672704457,37.59120039704224]]]},"properties":{"OBJECTID":85619,"PRESENT_SN":"11000UQ181PS201912150101","LCLAS_CL":"UQ1200","MLSFC_CL":"UQ1220","SCLAS_CL":"UQ1221","ATRB_SE":"UQ1221","WTNNC_SN":"11000AGZ200811267597","NTFC_SN":"11000NTC200811242385","DGM_NM":"청량리6구역주택재개발사업","SIGNGU_SE":"11000","DRAWING_NO":" ","CREATE_DAT":1576368000000,"DGM_AR":84486.42176668,"DGM_LT":1357.13597436,"SHAPE.AREA":84486.421766695,"SHAPE.LEN":1357.13597436398}}]}