{"type":"FeatureCollection","features":[{"type":"Feature","id":86752,"geometry":{"type":"Polygon","coordinates":[[[126.93971177826711,37.521267271937305],[126.93962500951073,37.52133236576306],[126.93935154765039,37.521541072868935],[126.93886815181962,37.52123750640301],[126.93857166859526,37.52153984894477],[126.93855061000724,37.52156132645828],[126.93857163954694,37.52157442912847],[126.93878369906909,37.52170661884397],[126.93897203735072,37.52182571316659],[126.93857117618244,37.52212602718014],[126.93792229775077,37.52263125501542],[126.93785021616463,37.52268417667691],[126.93781995135728,37.522689386131326],[126.93777568599604,37.52268981274926],[126.93772784416602,37.52267904705991],[126.93750303032925,37.52253888376177],[126.9366511682705,37.52200651651637],[126.93616652225812,37.52170579448966],[126.93500228615537,37.520981230926985],[126.9343946273404,37.52060123475118],[126.93440405804212,37.52056723654286],[126.93469056874986,37.52027426011851],[126.93532109221543,37.51961216721207],[126.93574972990695,37.519175504869594],[126.93618038979791,37.51873608500873],[126.93624844444966,37.518667133390615],[126.93628489350097,37.51865091758234],[126.93632715082167,37.51865450885453],[126.9371098232631,37.519147899985974],[126.93767037313887,37.51949809694963],[126.93857291761022,37.52005291887128],[126.9394876936319,37.520619894701824],[126.93975845438837,37.52078798212816],[126.93999152154493,37.5209323260929],[126.94000969644193,37.52097797097495],[126.94000992792401,37.52101292971632],[126.93997539183889,37.52106854819181],[126.93979474256557,37.521204996174504],[126.94003576562402,37.52135500785593],[126.94006391062531,37.521326787110716],[126.9401709102963,37.52139338303813],[126.94014304909919,37.52142178055107],[126.94017870364361,37.52144397166565],[126.94010935450174,37.521514721427614],[126.93971177826711,37.521267271937305]]]},"properties":{"OBJECTID":86752,"PRESENT_SN":"11560UQ181PS202505010001","LCLAS_CL":"UQ1200","MLSFC_CL":"UQ1240","SCLAS_CL":" ","ATRB_SE":"UQ1240","WTNNC_SN":"11560AGZ202411080002","NTFC_SN":"11560NTC202503070001","DGM_NM":"여의도 시범아파트 재건축사업","SIGNGU_SE":"11560","DRAWING_NO":" ","CREATE_DAT":1746057600000,"DGM_AR":109531.57238038,"DGM_LT":1546.72055422,"SHAPE.AREA":109531.57070194,"SHAPE.LEN":1546.72064739599}}]}