{"type":"FeatureCollection","features":[{"type":"Feature","id":87028,"geometry":{"type":"Polygon","coordinates":[[[127.05742341609955,37.608286039842554],[127.05746446495567,37.60823379947444],[127.05753384920263,37.608150993346385],[127.0575844961205,37.60809133329753],[127.05766608662135,37.60799073590512],[127.05771701400091,37.60792781410934],[127.05776655026563,37.607867505801906],[127.05780955902624,37.60781675099654],[127.05788294848884,37.607744817601215],[127.05794257427254,37.607683270053904],[127.05799355180973,37.60762735775246],[127.05804259413907,37.607573383466864],[127.05812260822567,37.60762087192705],[127.05814305979091,37.607633647053156],[127.05827119569219,37.607712421443374],[127.05836987249765,37.607772892921076],[127.05840261671688,37.60779192390558],[127.05848767416943,37.607843608262016],[127.05857677644599,37.607897407909206],[127.05863968278045,37.60793521872805],[127.05856273399866,37.60801707412415],[127.0584410087939,37.608148297858406],[127.05841815099437,37.60817343726894],[127.058354403054,37.608242726471985],[127.05828369028602,37.60831243344149],[127.05822811439256,37.60836827599273],[127.05817514636922,37.60842826178259],[127.05816660184452,37.60843623957454],[127.05815350777976,37.60844846317418],[127.0581437250429,37.608458959803215],[127.05806741353898,37.608538809878745],[127.05804929555724,37.608557036413494],[127.05796775895598,37.60863917291512],[127.05794021917038,37.6086735765647],[127.05788834851857,37.60867255621068],[127.05781540204958,37.60861218018755],[127.05780451456293,37.60862206014253],[127.05770212459183,37.60853438932302],[127.05757508897196,37.60842881859941],[127.0575929151383,37.608413997987604],[127.05742633336888,37.60832523117814],[127.05742341609955,37.608286039842554]]]},"properties":{"OBJECTID":87028,"PRESENT_SN":"11290UQ181PS202408070001","LCLAS_CL":"UQ1800","MLSFC_CL":"UQ1810","SCLAS_CL":"UQ1812","ATRB_SE":"UQ1812","WTNNC_SN":"11290AGZ202406260001","NTFC_SN":"11290NTC202406260004","DGM_NM":"석관1의2구역 가로주택정비사업","SIGNGU_SE":"11290","DRAWING_NO":" ","CREATE_DAT":1722988800000,"DGM_AR":6612.39988489,"DGM_LT":334.33178313,"SHAPE.AREA":6612.39988525,"SHAPE.LEN":334.331783133721}}]}