{"type":"FeatureCollection","features":[{"type":"Feature","id":85590,"geometry":{"type":"Polygon","coordinates":[[[126.93298272241165,37.61836179993361],[126.9329374226999,37.61847709910316],[126.9329249427966,37.61849934606456],[126.93291479621014,37.618509259960035],[126.93284478772118,37.61864210483086],[126.93283954702123,37.618650489907864],[126.93282907696955,37.61866723303834],[126.93282646848769,37.61867083544129],[126.93276125752118,37.618759634123954],[126.93274538245733,37.61877863555792],[126.93265557277829,37.6188883225851],[126.93258628241887,37.61897856035547],[126.93257426128316,37.618994437615264],[126.93250349792524,37.61908500783745],[126.93239622576134,37.61921450601262],[126.93237807962218,37.6192394525349],[126.932312404778,37.6193387921573],[126.93226056816592,37.61941705692689],[126.93224050421259,37.61943353308762],[126.93220751843516,37.619459822340275],[126.9321587791766,37.619544584949786],[126.9321520639101,37.619556258606885],[126.93214557327666,37.61956754317219],[126.93213516786925,37.61960339606596],[126.93212545775953,37.619639429563506],[126.93211768706531,37.61966422897792],[126.93210341804291,37.61970978315241],[126.93208497669283,37.61980833953227],[126.93208087903669,37.619829780448676],[126.93208358310191,37.61984527889825],[126.9320777228234,37.61986199764134],[126.93202361676393,37.62001697041164],[126.93197018176015,37.62010793792242],[126.9319083595098,37.62010718158782],[126.9318016034294,37.62010587431276],[126.93179597088435,37.620109096493756],[126.93176403506088,37.62010223017198],[126.93176362131724,37.620084372501786],[126.93176164025503,37.61999825565186],[126.93174014090951,37.61997472736006],[126.93171033571494,37.61999092737448],[126.93167694050186,37.619970094973844],[126.9315840091652,37.62002328786162],[126.93152870292447,37.620055690356565],[126.93142743048071,37.62006509053989],[126.9312874160326,37.6200782517021],[126.93114185453491,37.62009998672065],[126.93111939801196,37.619998595044564],[126.93109346639082,37.6198708205904],[126.931087158801,37.619833155856305],[126.93108606369032,37.61979090734289],[126.93108459849012,37.61977355449173],[126.93108283968651,37.61975284891813],[126.93107385581943,37.61964646482821],[126.93105050365831,37.61954617179242],[126.93102929755179,37.61945236708965],[126.93100752038785,37.61936360752956],[126.93098687800835,37.61927268628985],[126.93095359656706,37.61913202337873],[126.93094728425571,37.61909949421707],[126.93093044397033,37.619024657734776],[126.93092246939837,37.61898919939101],[126.93091153806986,37.61894224276919],[126.93090114821103,37.6188976470383],[126.9308934319339,37.618864567434365],[126.93068011231799,37.61899708189165],[126.93062217633502,37.61886487329323],[126.93088467775414,37.618827090424666],[126.93103972111554,37.61872942676092],[126.93118377172448,37.61863743251646],[126.93120802483185,37.61862285108783],[126.93116760255036,37.61848731955464],[126.93117092848644,37.6184436239904],[126.93122389737759,37.618005328596176],[126.93129168332146,37.617539167429115],[126.93118487378368,37.617587700905],[126.93110181250859,37.617626844022496],[126.93105438988673,37.6175886141435],[126.93105877973305,37.61761780853221],[126.9310039291354,37.61764912989069],[126.93090459113105,37.61765249421726],[126.93085765563447,37.61769805573482],[126.93080722506411,37.617606846303936],[126.93081715935364,37.61752225018849],[126.93083089238844,37.617492886451174],[126.93087033182648,37.61746885388928],[126.93094611786674,37.617457366684626],[126.9310001447675,37.617458570256005],[126.93102371946102,37.617442366691876],[126.93102027745478,37.61742900399576],[126.93106029068451,37.617420972225744],[126.93106551356071,37.617431597904165],[126.9310980402125,37.61742322017996],[126.931091034873,37.617405016193125],[126.93130325351542,37.61732955038678],[126.93132716065938,37.617321050342944],[126.93136073263362,37.61730910528499],[126.93145265239038,37.617328648104674],[126.93149772392114,37.61733759456339],[126.93153682785946,37.61734491570123],[126.93156000937684,37.61734925415241],[126.93158718826233,37.61735458604643],[126.93172625588434,37.6173794453383],[126.93175038258354,37.617378378427915],[126.93190101286318,37.617393153367324],[126.93195214177837,37.6173804166246],[126.93213244578214,37.61736085437005],[126.93230223545204,37.61735689966599],[126.93229937899555,37.617322561622636],[126.93229484232798,37.617267968550955],[126.93222228699715,37.61721602948922],[126.93224447214091,37.61719555421666],[126.93223404053387,37.61714652574074],[126.9322300523657,37.617147829821015],[126.93219955260533,37.6171448837227],[126.93221694062589,37.617118630351754],[126.93224811827618,37.617074564578566],[126.93223995715586,37.61705049639875],[126.93212258282726,37.61700469095852],[126.9321027228794,37.616997327276735],[126.93221537923442,37.61684833526],[126.93222627594977,37.616823294397896],[126.9322501124786,37.6167685287703],[126.93227294395672,37.61669826568089],[126.93228332225567,37.61662150822021],[126.93228883164686,37.61654312613623],[126.9322954430214,37.6164978106876],[126.93231938147191,37.616455118243636],[126.93238137607682,37.61641325897844],[126.93243405432302,37.61640229786409],[126.9325173044347,37.61640171588323],[126.93252683964361,37.616379016745064],[126.93252742119998,37.61636252913862],[126.93252595242282,37.616358563964944],[126.93252212989731,37.61632774819079],[126.93251580431627,37.61630909419211],[126.93248450842206,37.61622429360556],[126.93247456656327,37.61619680787796],[126.93248018398803,37.61612383172678],[126.93246765847483,37.616085442619905],[126.93248960217825,37.61608066224009],[126.93262060728304,37.61605211463875],[126.93264422761669,37.61604696580689],[126.93275701607188,37.61602238975572],[126.93280563873562,37.61601185858225],[126.93283046450168,37.61602974939328],[126.93280812343394,37.616081136437295],[126.93278234578698,37.61615356027566],[126.93274702832377,37.61625372875412],[126.93271692517052,37.616349305258844],[126.93270318993292,37.61638209294708],[126.93267799310526,37.61643856973973],[126.93267913687963,37.616438786642284],[126.93264178645029,37.61652008736341],[126.93262973665637,37.61656747191235],[126.93261528001595,37.61664548839611],[126.93262133788795,37.616708830871374],[126.93263703702765,37.61675731279332],[126.93265420207214,37.616812913315044],[126.93266594519181,37.616852473215765],[126.93267689978532,37.61688734755593],[126.932721006552,37.616959812117166],[126.9327463489838,37.61699136120899],[126.93277652138396,37.617029967786735],[126.93280325945996,37.61705887780588],[126.93281265014745,37.617070145530676],[126.93282001448885,37.61706789736654],[126.93289761878037,37.617172366164894],[126.93292224278458,37.61720935672266],[126.93292383757411,37.61721181732657],[126.93298084871313,37.617318103086475],[126.93302407209408,37.617428110874606],[126.93303610748846,37.617458057442],[126.93305351232777,37.617499692840504],[126.93306454345962,37.617574931111726],[126.93307802981182,37.61769017433829],[126.93307111939176,37.61769143170301],[126.93307540461153,37.61771206664134],[126.93307876189742,37.617731773031416],[126.93308419208734,37.617763706928336],[126.93307738973283,37.617770631523236],[126.93308640276787,37.61782334410712],[126.93309124507799,37.61785407935834],[126.93307173654499,37.61800668512181],[126.93305121206997,37.618155425082655],[126.93302552795029,37.618248841845755],[126.9330040665793,37.618307483210806],[126.93298272241165,37.61836179993361]]]},"properties":{"OBJECTID":85590,"PRESENT_SN":"11380UQ181PS202311240001","LCLAS_CL":"UQ1200","MLSFC_CL":"UQ1220","SCLAS_CL":"UQ1222","ATRB_SE":"UQ1222","WTNNC_SN":"11380AGZ202308080001","NTFC_SN":"11380NTC202309190007","DGM_NM":"독바위역세권 도시정비형재개발정비구역","SIGNGU_SE":"11380","DRAWING_NO":" ","CREATE_DAT":1700784000000,"DGM_AR":47776.37847931,"DGM_LT":1363.12583535,"SHAPE.AREA":47776.378522775005,"SHAPE.LEN":1363.12590706756}}]}