{"type":"FeatureCollection","features":[{"type":"Feature","id":86245,"geometry":{"type":"Polygon","coordinates":[[[127.06175135037765,37.56718707633689],[127.0617405793037,37.567195641220316],[127.06167440032571,37.567129398256284],[127.06164845775412,37.56714422371928],[127.0615794917815,37.56718747022218],[127.0615216108667,37.567122574433355],[127.06147115020607,37.56715017030985],[127.06147439215775,37.56712780613336],[127.06146973276155,37.567118717527116],[127.06137502559041,37.567103277589034],[127.06131820810074,37.56709401719022],[127.06132295721856,37.5670879331135],[127.06124636014322,37.56701531618726],[127.06116580934784,37.56706601948298],[127.0611399755092,37.56706114917445],[127.06116129260003,37.567051236546064],[127.06116020239067,37.5670325415887],[127.06109507904625,37.56696919894712],[127.0610218342156,37.567012294116616],[127.06098596006461,37.56703540452211],[127.06100453855433,37.5670404587177],[127.06098685629831,37.56708067873478],[127.06099523531476,37.56708439559597],[127.06099299849396,37.567089856712066],[127.0609834032079,37.56711670198757],[127.06093072327475,37.56710654733986],[127.0609180432248,37.56710306689496],[127.0607902578046,37.56708225521439],[127.06058744185076,37.567050957412825],[127.06056689592297,37.56704848997212],[127.06057185127287,37.567016808743524],[127.06057806269355,37.566970368696985],[127.06048070184885,37.56696243460142],[127.06044011235734,37.566962923378426],[127.0603561210055,37.56697160574252],[127.06031660846574,37.56698860004702],[127.06030930610402,37.566972142626135],[127.06027621439544,37.56690645902787],[127.06020557173694,37.566934127475804],[127.06019212785095,37.5669091677699],[127.06016240966731,37.566901677301416],[127.06013105881283,37.56691957748813],[127.0600155719968,37.5669060118186],[127.05999024835292,37.56690205100379],[127.05988217702492,37.56689041865608],[127.05989146856622,37.566816176224485],[127.05986653048264,37.566813085547246],[127.05975303833627,37.5668025009064],[127.0597484300702,37.566858805943085],[127.0596876141436,37.5668570393503],[127.0596606494878,37.56685625435629],[127.05966249924202,37.566839080606904],[127.05964106495748,37.56683819017211],[127.05954998962778,37.56683440577082],[127.05955106947536,37.56682567466265],[127.05946793239845,37.56682658945538],[127.05943638345285,37.56682272167586],[127.05943094300008,37.56679860488548],[127.05933609507048,37.56681965340944],[127.0593139028814,37.56682521436321],[127.05930732089597,37.56680322445851],[127.0593025133145,37.56679242396073],[127.05927165681805,37.566732460260944],[127.05939001679434,37.566670990936466],[127.05940049385543,37.566665462741724],[127.05944947398146,37.566640202034186],[127.05953313129831,37.56659521064569],[127.05951133205333,37.566581913756096],[127.05958460093298,37.56654005746663],[127.05965273322256,37.566501133675075],[127.05974750883274,37.56644597350918],[127.05983891289546,37.56639289621553],[127.05986552446257,37.566379458339796],[127.05997340543007,37.56632224627065],[127.0600400570509,37.56628652510031],[127.06006947412305,37.56627116668237],[127.06009533546982,37.566253782797126],[127.06011866312804,37.56623863461514],[127.06026473701414,37.566142588732696],[127.06027281385818,37.56613644898214],[127.06028258712058,37.56612851541963],[127.06035399970924,37.56607338080522],[127.06050008240575,37.565960588852256],[127.06052623467878,37.56597938482109],[127.06058732563625,37.56602358199741],[127.06091758001413,37.56626022852104],[127.06101543468152,37.56633797059432],[127.06101837472795,37.56634006120791],[127.0610803284761,37.56638388828616],[127.0611239641968,37.566385614182884],[127.06121408897151,37.56648956974521],[127.06123605776459,37.56651356997725],[127.0612796536231,37.566558813577174],[127.06128137995778,37.56656047953194],[127.06135011843291,37.566626730435864],[127.06164233209745,37.56691349093235],[127.06184477114556,37.567111758274514],[127.06183705735593,37.567118917864875],[127.06175135037765,37.56718707633689]]]},"properties":{"OBJECTID":86245,"PRESENT_SN":"11000UQ181PS201912151105","LCLAS_CL":"UQ1200","MLSFC_CL":"UQ1220","SCLAS_CL":"UQ1221","ATRB_SE":"UQ1221","WTNNC_SN":"11000AGZ201409298394","NTFC_SN":"11000NTC201407247268","DGM_NM":"답십리제17구역 주택재개발사업","SIGNGU_SE":"11000","DRAWING_NO":" ","CREATE_DAT":1576368000000,"DGM_AR":13948.15921269,"DGM_LT":641.87392929,"SHAPE.AREA":13948.15921274,"SHAPE.LEN":641.873929286864}}]}