{"type":"FeatureCollection","features":[{"type":"Feature","id":86588,"geometry":{"type":"Polygon","coordinates":[[[127.02016647616878,37.584404973932436],[127.02023495496437,37.584427361601875],[127.02032490191749,37.5844588998289],[127.02038773108806,37.58448039633345],[127.0205336793219,37.58452889099859],[127.0205875182423,37.584546541635135],[127.02060059581788,37.58455074712547],[127.02075073381202,37.58460107885527],[127.02079947770177,37.58461722557864],[127.02083447602838,37.58462915791845],[127.0208502032128,37.58463457026842],[127.02095150710979,37.584669205547456],[127.02098288224666,37.584679967158074],[127.02099863642007,37.584701975640904],[127.02101296416359,37.58472433574152],[127.02101163003375,37.584731345630736],[127.0209853148191,37.584804320806334],[127.02095802706089,37.58488181007367],[127.02093644089442,37.58494199947073],[127.0209083268864,37.585020786280026],[127.02090608695487,37.58502760710951],[127.02087287007068,37.58511909864502],[127.02084644159271,37.585192947759495],[127.0208303647607,37.58523695452966],[127.02083017300778,37.585239729596836],[127.02082538670363,37.58525056022716],[127.02082488956792,37.585254515635434],[127.02082259254307,37.58525951648139],[127.0208035519123,37.585313335465564],[127.02080087022546,37.58531942656651],[127.02080032755924,37.58532244495701],[127.0207970466384,37.585331716635025],[127.02077119603594,37.585407953247476],[127.02076824266211,37.58541420656931],[127.02076695351745,37.585420180314166],[127.0207637518012,37.58542929881061],[127.02075757425024,37.5854453914206],[127.02075757476959,37.585447409628316],[127.02075620571023,37.585450815577026],[127.02073209588843,37.585516573433154],[127.02070002215771,37.58560838007135],[127.02062422915574,37.585633818175324],[127.02060087019652,37.58562574011275],[127.02055703919585,37.58560896182807],[127.02044186294552,37.58556621056046],[127.02038891750378,37.58554759566323],[127.02037177487688,37.585541949222474],[127.02029753142055,37.585516355045144],[127.0201893196832,37.58547890021772],[127.02011420443786,37.585452756461464],[127.0200564130158,37.585432448325],[127.02000142973112,37.585413374070846],[127.01994017377386,37.585392525828325],[127.0198678553699,37.58536715632611],[127.01976734348851,37.58533225871302],[127.01965650540093,37.58529383974728],[127.01962184534585,37.58522995617546],[127.01961628910819,37.58519451225185],[127.01964331335539,37.58514468359902],[127.01964918652703,37.58513309602153],[127.01966610505276,37.585102324761486],[127.01968919064242,37.58505812786323],[127.01970332507432,37.58503180789522],[127.0197420052407,37.58496011950958],[127.0197608927555,37.58492561785029],[127.01977040988075,37.584907479537186],[127.0197894783027,37.58487210388892],[127.01979990094257,37.584853118506565],[127.01981913923922,37.58481805817188],[127.01983010491871,37.58479749597748],[127.01985255745672,37.584758002288694],[127.01987004105054,37.58472378013435],[127.01988165181167,37.58470229882912],[127.01988981102969,37.58468721505855],[127.01990094715569,37.58466933776809],[127.01991010215609,37.584652154544216],[127.01991834042381,37.58463629591149],[127.01992749509454,37.58461780625688],[127.01992873762144,37.58460621037659],[127.01996928507168,37.58453309806261],[127.0200073994723,37.5844647613394],[127.02006179876399,37.58436877980264],[127.02016647616878,37.584404973932436]]]},"properties":{"OBJECTID":86588,"PRESENT_SN":"11000UQ181PS201912151475","LCLAS_CL":"UQ1200","MLSFC_CL":"UQ1220","SCLAS_CL":"UQ1221","ATRB_SE":"UQ1221","WTNNC_SN":"11000AGZ201809130116","NTFC_SN":"11000NTC201801053007","DGM_NM":"보문5구역주택재개발정비구역","SIGNGU_SE":"11000","DRAWING_NO":" ","CREATE_DAT":1576368000000,"DGM_AR":10798.53375551,"DGM_LT":408.17487434,"SHAPE.AREA":10798.5337555,"SHAPE.LEN":408.174874340715}},{"type":"Feature","id":85388,"geometry":{"type":"Polygon","coordinates":[[[127.02016647616878,37.584404973932436],[127.02023495496437,37.584427361601875],[127.02032490191749,37.5844588998289],[127.02038773108806,37.58448039633345],[127.0205336793219,37.58452889099859],[127.0205875182423,37.584546541635135],[127.02060059581788,37.58455074712547],[127.02075073381202,37.58460107885527],[127.02079947770177,37.58461722557864],[127.02083447602838,37.58462915791845],[127.0208502032128,37.58463457026842],[127.02095150710979,37.584669205547456],[127.02098288224666,37.584679967158074],[127.02099863642007,37.584701975640904],[127.02101296416359,37.58472433574152],[127.02101163003375,37.584731345630736],[127.0209853148191,37.584804320806334],[127.02095802706089,37.58488181007367],[127.02093644089442,37.58494199947073],[127.0209083268864,37.585020786280026],[127.02090608695487,37.58502760710951],[127.02087287007068,37.58511909864502],[127.02084644159271,37.585192947759495],[127.0208303647607,37.58523695452966],[127.02083017300778,37.585239729596836],[127.02082538670363,37.58525056022716],[127.02082488956792,37.585254515635434],[127.02082259254307,37.58525951648139],[127.0208035519123,37.585313335465564],[127.02080087022546,37.58531942656651],[127.02080032755924,37.58532244495701],[127.0207970466384,37.585331716635025],[127.02077119603594,37.585407953247476],[127.02076824266211,37.58541420656931],[127.02076695351745,37.585420180314166],[127.0207637518012,37.58542929881061],[127.02075757425024,37.5854453914206],[127.02075757476959,37.585447409628316],[127.02075620571023,37.585450815577026],[127.02073209588843,37.585516573433154],[127.02070002215771,37.58560838007135],[127.02062422915574,37.585633818175324],[127.02060087019652,37.58562574011275],[127.02055703919585,37.58560896182807],[127.02044186294552,37.58556621056046],[127.02038891750378,37.58554759566323],[127.02037177487688,37.585541949222474],[127.02029753142055,37.585516355045144],[127.0201893196832,37.58547890021772],[127.02011420443786,37.585452756461464],[127.0200564130158,37.585432448325],[127.02000142973112,37.585413374070846],[127.01994017377386,37.585392525828325],[127.0198678553699,37.58536715632611],[127.01976734348851,37.58533225871302],[127.01965650540093,37.58529383974728],[127.01962184534585,37.58522995617546],[127.01961628910819,37.58519451225185],[127.01964331335539,37.58514468359902],[127.01964918652703,37.58513309602153],[127.01966610505276,37.585102324761486],[127.01968919064242,37.58505812786323],[127.01970332507432,37.58503180789522],[127.0197420052407,37.58496011950958],[127.0197608927555,37.58492561785029],[127.01977040988075,37.584907479537186],[127.0197894783027,37.58487210388892],[127.01979990094257,37.584853118506565],[127.01981913923922,37.58481805817188],[127.01983010491871,37.58479749597748],[127.01985255745672,37.584758002288694],[127.01987004105054,37.58472378013435],[127.01988165181167,37.58470229882912],[127.01988981102969,37.58468721505855],[127.01990094715569,37.58466933776809],[127.01991010215609,37.584652154544216],[127.01991834042381,37.58463629591149],[127.01992749509454,37.58461780625688],[127.01992873762144,37.58460621037659],[127.01996928507168,37.58453309806261],[127.0200073994723,37.5844647613394],[127.02006179876399,37.58436877980264],[127.02016647616878,37.584404973932436]]]},"properties":{"OBJECTID":85388,"PRESENT_SN":"11000UQ181PS201912151475","LCLAS_CL":"UQ1200","MLSFC_CL":"UQ1220","SCLAS_CL":"UQ1221","ATRB_SE":"UQ1221","WTNNC_SN":"11000AGZ201809130116","NTFC_SN":"11000NTC201801053007","DGM_NM":"보문5구역주택재개발정비구역","SIGNGU_SE":"11000","DRAWING_NO":" ","CREATE_DAT":1576368000000,"DGM_AR":10798.53375551,"DGM_LT":408.17487434,"SHAPE.AREA":10798.5337555,"SHAPE.LEN":408.174874340715}}]}