{"type":"FeatureCollection","features":[{"type":"Feature","id":85156,"geometry":{"type":"Polygon","coordinates":[[[127.02799066517822,37.63551889184094],[127.02798818744397,37.635518892396746],[127.02797820062604,37.63560844102729],[127.02796803636122,37.635699255569314],[127.02782865848985,37.63568917144844],[127.02768917527783,37.63567904484031],[127.02764412265029,37.63567542117952],[127.02750257075103,37.635665323640026],[127.02750073558937,37.635682171429444],[127.02738157224098,37.6356735716443],[127.02735034674055,37.63566872851989],[127.02733951031821,37.635760840562206],[127.02722756957772,37.63575286612164],[127.02709842238802,37.635743438424754],[127.02706854377185,37.63574140328191],[127.02694109610921,37.635732198487304],[127.02680494036144,37.63572200614763],[127.02677867146129,37.63572041614185],[127.02678183875533,37.63569243649694],[127.0267888725319,37.63563029364555],[127.02679788433294,37.63555120838101],[127.02680692121413,37.635472638468705],[127.02681618359273,37.635390909677696],[127.02682589689563,37.635305948079306],[127.02683514448118,37.63522414991237],[127.0268550381726,37.63504880902478],[127.02685521491371,37.63504882069953],[127.02688418683665,37.635050662381346],[127.02693064043795,37.63505414728046],[127.02701354353898,37.63506012991177],[127.02714010072883,37.63506938347545],[127.02717181789653,37.635071628128685],[127.0273047094335,37.635081145927096],[127.02737650502213,37.635086214435425],[127.02751816232431,37.63509637787546],[127.02756427376477,37.63509965177162],[127.0277104256412,37.6351103410608],[127.0277439611985,37.635112586057566],[127.02788938459237,37.635123109507],[127.027941719415,37.63512682424489],[127.02803516823701,37.635133457005516],[127.02801911075622,37.635272604043124],[127.02800947678563,37.63535699360125],[127.02799066517822,37.63551889184094]]]},"properties":{"OBJECTID":85156,"PRESENT_SN":"11305UQ181PS202408190001","LCLAS_CL":"UQ1800","MLSFC_CL":"UQ1810","SCLAS_CL":"UQ1812","ATRB_SE":"UQ1812","WTNNC_SN":"11305AGZ202407290001","NTFC_SN":"11305NTC202407290006","DGM_NM":"번동3-2구역 가로주택정비사업","SIGNGU_SE":"11305","DRAWING_NO":" ","CREATE_DAT":1724025600000,"DGM_AR":7198.54178015,"DGM_LT":359.18927997,"SHAPE.AREA":7198.539531615,"SHAPE.LEN":359.189059880653}},{"type":"Feature","id":85735,"geometry":{"type":"Polygon","coordinates":[[[127.02799066517822,37.63551889184094],[127.02798818744397,37.635518892396746],[127.02797820062604,37.63560844102729],[127.02796803636122,37.635699255569314],[127.02782865848985,37.63568917144844],[127.02768917527783,37.63567904484031],[127.02764412265029,37.63567542117952],[127.02750257075103,37.635665323640026],[127.02750073558937,37.635682171429444],[127.02738157224098,37.6356735716443],[127.02735034674055,37.63566872851989],[127.02733951031821,37.635760840562206],[127.02722756957772,37.63575286612164],[127.02709842238802,37.635743438424754],[127.02706854377185,37.63574140328191],[127.02694109610921,37.635732198487304],[127.02680494036144,37.63572200614763],[127.02677867146129,37.63572041614185],[127.02678183875533,37.63569243649694],[127.0267888725319,37.63563029364555],[127.02679788433294,37.63555120838101],[127.02680692121413,37.635472638468705],[127.02681618359273,37.635390909677696],[127.02682589689563,37.635305948079306],[127.02683514448118,37.63522414991237],[127.0268550381726,37.63504880902478],[127.02685521491371,37.63504882069953],[127.02688418683665,37.635050662381346],[127.02693064043795,37.63505414728046],[127.02701354353898,37.63506012991177],[127.02714010072883,37.63506938347545],[127.02717181789653,37.635071628128685],[127.0273047094335,37.635081145927096],[127.02737650502213,37.635086214435425],[127.02751816232431,37.63509637787546],[127.02756427376477,37.63509965177162],[127.0277104256412,37.6351103410608],[127.0277439611985,37.635112586057566],[127.02788938459237,37.635123109507],[127.027941719415,37.63512682424489],[127.02803516823701,37.635133457005516],[127.02801911075622,37.635272604043124],[127.02800947678563,37.63535699360125],[127.02799066517822,37.63551889184094]]]},"properties":{"OBJECTID":85735,"PRESENT_SN":"11305UQ181PS202408190001","LCLAS_CL":"UQ1800","MLSFC_CL":"UQ1810","SCLAS_CL":"UQ1812","ATRB_SE":"UQ1812","WTNNC_SN":"11305AGZ202407290001","NTFC_SN":"11305NTC202407290006","DGM_NM":"번동3-2구역 가로주택정비사업","SIGNGU_SE":"11305","DRAWING_NO":" ","CREATE_DAT":1724025600000,"DGM_AR":7198.54178015,"DGM_LT":359.18927997,"SHAPE.AREA":7198.539531615,"SHAPE.LEN":359.189059880653}}]}