{"type":"FeatureCollection","features":[{"type":"Feature","id":85620,"geometry":{"type":"Polygon","coordinates":[[[127.09739635301365,37.59517056666288],[127.09746243116832,37.59518482059504],[127.09761131719078,37.595217360147466],[127.09774552398707,37.59524647873115],[127.09778002430342,37.595253973815716],[127.09804180119016,37.59531094548619],[127.09807726429925,37.5953186379129],[127.09820995133072,37.59534558584011],[127.09845526944835,37.59539740743637],[127.09869536241355,37.59544851834384],[127.09866636397247,37.595462852538915],[127.09862278904198,37.595591350658665],[127.09861289835094,37.59562202828166],[127.09857579133012,37.59573498810069],[127.09856653105687,37.5957628541315],[127.09853189284375,37.59586744176561],[127.09851503053682,37.59591837922231],[127.0984648694012,37.59596308219305],[127.09828046176219,37.595923067652485],[127.09811224032278,37.59588685974986],[127.09807208785202,37.59587822513759],[127.09791044678899,37.59584302967576],[127.09779249266413,37.59581763711076],[127.09767231827176,37.59579148941007],[127.09755384309965,37.59576583574543],[127.09752322729331,37.595758977134636],[127.09740462743585,37.5957331432247],[127.09732564783343,37.595716007576286],[127.09727517419915,37.5957382037232],[127.09724753717799,37.59582029674827],[127.09721477737371,37.59591651233375],[127.09718302227792,37.59601039354659],[127.09715186505112,37.596102562396034],[127.09712435095776,37.59618359212698],[127.0970235864942,37.59617670909537],[127.09684851123242,37.59613799119408],[127.09670245597367,37.59610656562254],[127.09661581920398,37.5960876066779],[127.0964518565397,37.5960519876278],[127.09644279550535,37.59605015690815],[127.09628661439915,37.596016297298206],[127.09614958637692,37.59598647655452],[127.09603092994503,37.595960587251604],[127.095892531841,37.5959306411684],[127.09577881399987,37.5959058829026],[127.09566053183467,37.59588026322307],[127.09554846804654,37.595856053015915],[127.0954362114264,37.595831518501484],[127.0953267980102,37.595807756466634],[127.09521593501674,37.59578378825465],[127.09514869026295,37.59576938082452],[127.09500014204617,37.595735351278236],[127.0946607155848,37.59566421663958],[127.09448094477762,37.595626471989505],[127.09427266313814,37.59558048745121],[127.09420469311814,37.59556532322615],[127.09418231206274,37.59556033132825],[127.09403091632583,37.595530420291816],[127.09392008746971,37.595505919253945],[127.09379985951067,37.59548074071271],[127.09379634929111,37.59548074345691],[127.09378662073938,37.59547925542879],[127.09361361124904,37.59544185555444],[127.09357118295517,37.59543273465439],[127.0933893960917,37.59539367447566],[127.09321858464023,37.59535702913718],[127.09322559297331,37.595282575398684],[127.09323156446197,37.59522134890729],[127.0932415343268,37.59512426015058],[127.09324411760417,37.59509786832591],[127.09325262134773,37.595014836054006],[127.09326229636775,37.59491743217692],[127.09326963769055,37.59484680735304],[127.09327228952932,37.59482093804389],[127.09327586640069,37.59478302186062],[127.09328330623208,37.594709648956744],[127.09329465053257,37.594597755952535],[127.09330616857783,37.59447984423718],[127.09331729139565,37.59436284281953],[127.09341027084542,37.594311837849006],[127.09347217968097,37.59432536746646],[127.0936088975924,37.594354966324886],[127.09364528830103,37.59436266837102],[127.09376766713686,37.594388926575334],[127.09388950279327,37.59441538329412],[127.09392667628349,37.59442332340156],[127.09405466056877,37.59445073468394],[127.09417536368882,37.594476849621216],[127.0942033511376,37.594483260674174],[127.09423712643635,37.594491054689605],[127.09467448679699,37.59458486315973],[127.09481360658214,37.59461479208949],[127.09498381700861,37.59465145362051],[127.09507333949186,37.594670717816214],[127.09516524019139,37.59469022332283],[127.09522921073324,37.59470395760818],[127.09542756687023,37.59474633541793],[127.0956326398422,37.59479026624085],[127.0956974029964,37.594803855482745],[127.09582409891892,37.59483130641629],[127.09594711346179,37.59485762491905],[127.0960681689385,37.59488375565609],[127.09619057241716,37.594910245581204],[127.09636492968258,37.594947847825175],[127.09639706244079,37.59495476858716],[127.09649990536448,37.59497686810092],[127.09660132132566,37.594998734418645],[127.09663682912243,37.595006183977034],[127.09674941296889,37.59503048283375],[127.09686370712032,37.59505511356547],[127.09690398378387,37.5950639196769],[127.09701845912821,37.59508848704331],[127.09703491632769,37.59509203261355],[127.09710675942476,37.59510749840815],[127.09713202868897,37.595113055032236],[127.09716632485681,37.59512038828469],[127.09728075580777,37.595145523052174],[127.09739635301365,37.59517056666288]]]},"properties":{"OBJECTID":85620,"PRESENT_SN":"11260UQ181PS202504300001","LCLAS_CL":"UQ1200","MLSFC_CL":"UQ1220","SCLAS_CL":"UQ1221","ATRB_SE":"UQ1221","WTNNC_SN":"11260AGZ202502070001","NTFC_SN":"11260NTC202504010005","DGM_NM":"상봉13구역 주택정비형 재개발사업","SIGNGU_SE":"11260","DRAWING_NO":" ","CREATE_DAT":1745971200000,"DGM_AR":49353.15788469,"DGM_LT":1183.7766709,"SHAPE.AREA":49353.15798655,"SHAPE.LEN":1183.7767622056801}}]}