{"type":"FeatureCollection","features":[{"type":"Feature","id":86725,"geometry":{"type":"Polygon","coordinates":[[[126.9342167530559,37.620646945474476],[126.93409990739143,37.62065409562702],[126.93398976773857,37.62066082604092],[126.93386060877229,37.62066872573285],[126.9338015455867,37.62062272024989],[126.93379320339808,37.62061622300039],[126.93366716860353,37.62063897242453],[126.93361809400055,37.620545422469874],[126.93364344970777,37.62053920227477],[126.93358307674214,37.62043908667005],[126.93356022719429,37.620442181894795],[126.93354048156861,37.62037029934234],[126.933536586667,37.6203560886429],[126.93365961043625,37.62035560985293],[126.93365912662611,37.62026479078285],[126.93367048937594,37.62022551458453],[126.93367159223818,37.620208495704674],[126.93362129860539,37.62021017864036],[126.93362578018441,37.62006502431416],[126.93362736278226,37.62003115738201],[126.93367074391568,37.620032659939156],[126.9336756082177,37.61990248912643],[126.93369552919056,37.619843693603265],[126.93370802246031,37.61980672455741],[126.9337544418964,37.61976770274211],[126.93364663050606,37.61968175935421],[126.93358390453702,37.61965379287536],[126.93337358084592,37.619621587704806],[126.93337189337632,37.61962131643627],[126.93332601962808,37.619571222467464],[126.93330762079472,37.61955065146602],[126.93324359455931,37.61958232894296],[126.93313861612477,37.619434147014964],[126.93314180523876,37.61941495798436],[126.93316188002441,37.61926270395641],[126.93321389050541,37.619117045566],[126.93322362914859,37.61911975414321],[126.93323713285257,37.61909273254959],[126.93322592419096,37.61908732018196],[126.93328926975627,37.618932388216095],[126.93335329524363,37.61877682591854],[126.93337235506665,37.61874314026269],[126.93340723288381,37.61875280088771],[126.93341722661998,37.61872415548122],[126.9333830395232,37.618702332023574],[126.93342911192389,37.61860856656313],[126.9334553837792,37.6186155192673],[126.9334628755643,37.618597864373356],[126.93343796399829,37.61858974118121],[126.93349413170893,37.618479944066806],[126.93349245772714,37.618452463200846],[126.93353851991047,37.61836959955024],[126.93354617750906,37.61835638657906],[126.93362076807719,37.61822765239208],[126.933693383143,37.6180912857155],[126.933772062077,37.617887709330894],[126.93377818601056,37.617879423826174],[126.93380949073291,37.61783196012158],[126.93391216065604,37.617776608685936],[126.93395760181936,37.617753209217604],[126.93398006106375,37.61771736305047],[126.93398856673772,37.61770556507377],[126.93402055166729,37.61765720072045],[126.93404778308528,37.617617248798204],[126.93389747037776,37.617488466708],[126.93404096844749,37.61737466490847],[126.9340616037224,37.617351611604114],[126.9341138942741,37.61729378952229],[126.93409892123009,37.617292979096426],[126.93412723987507,37.61725297371559],[126.93412822654926,37.617251577759156],[126.9342205834455,37.61728951669581],[126.93439799549735,37.61722272893924],[126.9344536035065,37.61720372283495],[126.93466124956787,37.61713272626055],[126.93466939744181,37.61728001416862],[126.93467079080351,37.617305107266155],[126.93472653687577,37.61728369549367],[126.93473945467979,37.617277576136495],[126.93479554067075,37.61725598432753],[126.93480528492464,37.61725220571818],[126.93481151720856,37.61724923600539],[126.93493388453054,37.61720434618182],[126.93495008637173,37.617198949438844],[126.9350256603869,37.61717016066699],[126.93510723919377,37.61713939306871],[126.93513363845308,37.61713003772415],[126.93514116270437,37.6171262127891],[126.93515686658472,37.617120320198254],[126.93527753482257,37.61707506866951],[126.93536330720428,37.617040969619275],[126.93545474031615,37.617009666715404],[126.93559535064306,37.61695568651095],[126.93570604614678,37.6169159249529],[126.93578663111016,37.61698417409801],[126.93582866729447,37.61696752936351],[126.93588674416146,37.61699981678281],[126.93598456162401,37.616920945242555],[126.9360495921129,37.61690260133295],[126.93608286167398,37.61693739763687],[126.93596836672565,37.61704761412064],[126.93592027781925,37.617120747022945],[126.93586685803473,37.6172021659604],[126.93579235660034,37.617170860464434],[126.9357568509857,37.617154316700464],[126.93571963794714,37.61717307239269],[126.93570569727392,37.61728605659131],[126.93570017571304,37.61733085026486],[126.93568655438193,37.617441275851554],[126.93571769172314,37.61745363665066],[126.93580054315917,37.61752125635761],[126.9358285064781,37.617536588595414],[126.93587809656586,37.617560041682545],[126.93594341790542,37.6175980993755],[126.93612019887904,37.6176301822836],[126.93629020014447,37.61764379107935],[126.93623947830892,37.6177486371621],[126.93628314187865,37.61781434278425],[126.9363181228368,37.61783553515755],[126.93638507493986,37.61782250791272],[126.93660103945527,37.61786326113231],[126.93658785262593,37.61791830378388],[126.93658612823617,37.617947494601935],[126.93656006405256,37.61809235791332],[126.93658169896644,37.61835185217954],[126.93658515917778,37.61841059800493],[126.93658339074034,37.61849042389343],[126.93669428074486,37.618620045835414],[126.93658041314197,37.61865818479791],[126.93658046701456,37.61872647913748],[126.93657267844206,37.61895595453848],[126.93659441660226,37.61896677826365],[126.93670462191058,37.61897260511722],[126.93677477506739,37.61905724567616],[126.93676943034293,37.619081569211396],[126.9367754644339,37.61917662594111],[126.93674760380569,37.61917255624138],[126.93674112840723,37.619194536605555],[126.93670976718198,37.619308583486934],[126.93667259786434,37.61932820443747],[126.93668332791812,37.61936334856261],[126.93674861787171,37.61943987763755],[126.93688711103117,37.619480587777865],[126.93678648771038,37.61965748513767],[126.93676576069952,37.619655942099904],[126.93677151893276,37.61967729848995],[126.93649963977943,37.619713908997014],[126.93649796364447,37.61968759945208],[126.93643016169501,37.6196341339493],[126.9362892603212,37.619497557648394],[126.93624208528313,37.61943085902643],[126.93617040846802,37.61940496122387],[126.93613119924635,37.61942557195209],[126.93607098485805,37.61937436289529],[126.93595528362118,37.61943511483583],[126.93586769234453,37.61934505821405],[126.93594144606246,37.61932744000933],[126.93588914202596,37.619297498388335],[126.93576134028288,37.61920768961006],[126.93576013844297,37.61915759443777],[126.93573113748879,37.61916226337123],[126.9357507017916,37.61906911291615],[126.935666005715,37.619036270001125],[126.93569018309641,37.61897826035981],[126.93578641459247,37.61903147183823],[126.93579254275872,37.619018230841306],[126.93572556870176,37.61892629353041],[126.9356362264544,37.61889609688491],[126.93542180770585,37.61889774290496],[126.93537605092045,37.618893572758296],[126.93543763478321,37.61929057916823],[126.93543977200848,37.619307401666134],[126.93548984252061,37.61932673769907],[126.93552396734087,37.61929188885254],[126.93554083527448,37.619302259557315],[126.9355291558992,37.619316578612704],[126.93550471334913,37.619418015316235],[126.9354749228997,37.61941871943185],[126.93541465983111,37.61942301039509],[126.93540168977549,37.61942382302103],[126.93538475192051,37.61946680830605],[126.93541382163805,37.61947418560203],[126.93539587282122,37.619533189750065],[126.93535084801181,37.619597314303334],[126.93532068788527,37.61963162473389],[126.93523833202987,37.619641579386794],[126.93513299211676,37.61964061919442],[126.9351206416459,37.61964520724494],[126.9350954580448,37.61968762923919],[126.93501185171746,37.61970253842102],[126.9349682347005,37.61971170382917],[126.93494096401132,37.619808093324856],[126.9348562537789,37.61979056648744],[126.93485158196228,37.61982164766382],[126.93463623808871,37.61992999481171],[126.93461100146278,37.61994269333558],[126.93460938196765,37.61994239509393],[126.93460105727165,37.620042768570094],[126.93457352932285,37.62037488125053],[126.93457036880531,37.6204130720027],[126.93455889717382,37.62057425082576],[126.93451902093128,37.620579634072605],[126.93450345258304,37.620635576092766],[126.93445315779051,37.62063825046014],[126.93438462521323,37.620642175804036],[126.93437828138342,37.62064289297889],[126.93435268073641,37.62064441007661],[126.93431088426658,37.62064375559389],[126.9342167530559,37.620646945474476]]]},"properties":{"OBJECTID":86725,"PRESENT_SN":"11000UQ181PS201912151234","LCLAS_CL":"UQ1200","MLSFC_CL":"UQ1220","SCLAS_CL":"UQ1221","ATRB_SE":"UQ1221","WTNNC_SN":"11000AGZ200808057491","NTFC_SN":"11000NTC200604069911","DGM_NM":"불광3구역주택재개발사업","SIGNGU_SE":"11000","DRAWING_NO":" ","CREATE_DAT":1576368000000,"DGM_AR":76996.91479197,"DGM_LT":1707.3612667,"SHAPE.AREA":76996.914792,"SHAPE.LEN":1707.36126670112}}]}