{"type":"FeatureCollection","features":[{"type":"Feature","id":84651,"geometry":{"type":"Polygon","coordinates":[[[127.01157534961114,37.602458285837706],[127.01156785306738,37.602459646960455],[127.01152321327187,37.602465885554636],[127.01143107306588,37.60251206870654],[127.01141962477497,37.60251694398533],[127.01142531155804,37.60244623436233],[127.01139276784377,37.60229370967392],[127.01137799100003,37.60221860496323],[127.01135221121373,37.602089820596284],[127.01130791883608,37.60206675911128],[127.01123347434572,37.60216514360139],[127.01119831554547,37.60218986045465],[127.01115111827718,37.60220923545084],[127.01107863984318,37.602187608739946],[127.01099547463092,37.60219227352823],[127.0109750594743,37.60221276351983],[127.01089484291806,37.60225222396589],[127.01089191983397,37.602241006959225],[127.01089044578082,37.60222593363003],[127.01088753533205,37.60222515901563],[127.01087282883583,37.60216507362266],[127.01086892010788,37.60215037889879],[127.01084296952973,37.60209769146235],[127.01082748714269,37.60208115063527],[127.01082301321489,37.602074501732986],[127.01077235173707,37.60201093234996],[127.01077203429313,37.60200799517004],[127.01076154735654,37.60191125743819],[127.01075273888647,37.60183433219094],[127.01075396358694,37.601756297948285],[127.0106975002024,37.60175098655183],[127.01050329452467,37.60170063653662],[127.0104790373668,37.60169543970777],[127.01045714552005,37.601678043383345],[127.01040453145825,37.601664325382565],[127.01039578866951,37.60166032567527],[127.01030251717944,37.60161735575713],[127.0102829242863,37.60160056288778],[127.010247124554,37.60156769767535],[127.01022763728396,37.601485313215605],[127.01016915609749,37.60145983771196],[127.01020918271253,37.60142144387951],[127.01028118304772,37.60133381794354],[127.01028395746584,37.6013337456589],[127.01034594800478,37.6012541481852],[127.01042520529495,37.60115382676266],[127.01047024649023,37.60110102573966],[127.01046303004216,37.60107628528758],[127.01046238140376,37.60104986850873],[127.0104588911518,37.60102968674892],[127.01055142753691,37.60108596412618],[127.01058003411856,37.60110057588151],[127.01076201022335,37.6011673426479],[127.01081352400774,37.60116860898928],[127.0110540762122,37.60120219647656],[127.01105065503936,37.601192213859015],[127.0110469624895,37.601185384704486],[127.01113042302616,37.601196423992285],[127.01118810901755,37.601201617954175],[127.01129460296102,37.60121267325654],[127.01138979460504,37.601217629752234],[127.01142617966127,37.60122132073513],[127.01144414000325,37.60122285089779],[127.0115432386142,37.60122858178669],[127.01160810399138,37.60123233336028],[127.01169610493406,37.60123805605899],[127.01173715519026,37.6012389264663],[127.01181160197247,37.6012509030748],[127.0118343306118,37.601258253113606],[127.01184820315916,37.601261351282645],[127.01195227974289,37.60131417578338],[127.01198796529263,37.60133584126927],[127.01207242131504,37.601417498863206],[127.01212668489143,37.601483148642075],[127.01214813679543,37.60151017620689],[127.01217864556861,37.60151951665098],[127.01217440311747,37.601548483642176],[127.01217283057666,37.60155918746385],[127.01211627697884,37.60155621931023],[127.01215855851977,37.601613896447276],[127.01217442701001,37.6016366178105],[127.01217792691482,37.60164163597053],[127.01221015071243,37.60168597043597],[127.0122746776416,37.601774287948814],[127.01229145204202,37.60179631545613],[127.01234092381226,37.60184741469242],[127.0123906534277,37.60188008877957],[127.01243519432964,37.60189744661302],[127.01244713208214,37.60191088817613],[127.01251585703044,37.60197360823577],[127.01252408715352,37.60203261285024],[127.01252895011169,37.602065426200035],[127.01250165511755,37.60211914535283],[127.01233021791282,37.60205134418426],[127.01227932312744,37.60210647097848],[127.01223389877418,37.602088644655836],[127.01223317578217,37.602100943140215],[127.01222849378881,37.60222369349573],[127.01221992336902,37.60223831722772],[127.01217466198567,37.602315539172],[127.01208273693132,37.60230942615579],[127.01206010038158,37.602347220813364],[127.0120215042654,37.6023598668475],[127.01197211407036,37.60235848551972],[127.01189738404383,37.60232105086341],[127.01185236669629,37.60229866178074],[127.0118079151232,37.60235510324036],[127.01176355802846,37.60235776499832],[127.01166192383535,37.60237108129451],[127.0117169002253,37.60242974857149],[127.01166510232733,37.602427599685754],[127.01165948596889,37.60243144736581],[127.01162951036184,37.60243118865207],[127.01157534961114,37.602458285837706]]]},"properties":{"OBJECTID":84651,"PRESENT_SN":"11000UQ181PS201912150523","LCLAS_CL":"UQ1200","MLSFC_CL":"UQ1220","SCLAS_CL":"UQ1221","ATRB_SE":"UQ1221","WTNNC_SN":"11000AGZ201512168520","NTFC_SN":"11000NTC201503197437","DGM_NM":"정릉제10구역주택재개발정비사업","SIGNGU_SE":"11000","DRAWING_NO":" ","CREATE_DAT":1576368000000,"DGM_AR":17972.24153482,"DGM_LT":682.87120591,"SHAPE.AREA":17972.24153482,"SHAPE.LEN":682.8712059041111}}]}