{"type":"FeatureCollection","features":[{"type":"Feature","id":85345,"geometry":{"type":"Polygon","coordinates":[[[127.00883862259961,37.51577617205996],[127.00834423715564,37.516097947451854],[127.0082879065532,37.516094256609435],[127.00635740757488,37.51434795012797],[127.00531278084993,37.51330832829704],[127.00526583842591,37.51326273936217],[127.00586540539831,37.512878263497775],[127.00586551833392,37.51287529020424],[127.00883862259961,37.51577617205996]]]},"properties":{"OBJECTID":85345,"PRESENT_SN":"11000UQ181PS201912151179","LCLAS_CL":"UQ1200","MLSFC_CL":"UQ1240","SCLAS_CL":" ","ATRB_SE":"UQ1240","WTNNC_SN":"11000AGZ201812110947","NTFC_SN":"11000NTC201809130011","DGM_NM":"신반포5차아파트 주택재건축 정비사","SIGNGU_SE":"11000","DRAWING_NO":" ","CREATE_DAT":1576368000000,"DGM_AR":27562.31279989,"DGM_LT":958.0452114,"SHAPE.AREA":27562.3128,"SHAPE.LEN":958.04521140581}}]}