{"type":"FeatureCollection","features":[{"type":"Feature","id":85612,"geometry":{"type":"Polygon","coordinates":[[[127.17073743419463,37.54970615642412],[127.1705254329952,37.5506387135611],[127.17048744362896,37.55065381445953],[127.16861180798863,37.55038339334706],[127.16842299046706,37.55035699107117],[127.16832960063557,37.55034396857853],[127.16823553867377,37.55033401032719],[127.16814103089878,37.55032711599621],[127.16804630342715,37.55032319516662],[127.16795146981242,37.55032242787592],[127.16785664280646,37.550324633767005],[127.16546210929836,37.55044114684851],[127.1654012234312,37.55038798284916],[127.16541542698684,37.550000987876146],[127.16542287184598,37.54993835872654],[127.16543427820636,37.54987608447296],[127.16544953348675,37.549814435567605],[127.16546852431728,37.54975332206742],[127.16549147800255,37.54969319415008],[127.16551805484697,37.54963396218608],[127.16554836859828,37.54957589631206],[127.16558230608616,37.549518996682416],[127.1656196417681,37.549463624003614],[127.16566048880168,37.54940977811514],[127.16570473441429,37.5493576393683],[127.16575203931137,37.5493072983302],[127.16580251704826,37.54925893503731],[127.16682280044779,37.548288045597715],[127.1668766557168,37.5482324691872],[127.16692699853598,37.5481749154928],[127.16697382910854,37.54811547461768],[127.16701692131693,37.5480542369819],[127.16705616260424,37.547991473044405],[127.16709166633773,37.547927272749085],[127.16712309324274,37.54786172667409],[127.16715055708677,37.54779510496022],[127.16717383155869,37.54772740792763],[127.16719303042724,37.54765890571629],[127.16720792778167,37.547589778843246],[127.16721863719232,37.5475202073488],[127.16722504551086,37.54745019139288],[127.16722726670672,37.54738009121243],[127.16722518763206,37.54730990696643],[127.16722473706923,37.547259722424805],[127.16725529235197,37.547260670634195],[127.1673241732025,37.5472966135623],[127.16750750811559,37.54735474019056],[127.16771554035579,37.54742553574347],[127.16793576261989,37.54753298406416],[127.16798314544022,37.547569767791536],[127.16811276246948,37.54769320089937],[127.16822662915732,37.54775619963799],[127.16837271221749,37.54780365571378],[127.16857011924935,37.54782815385715],[127.1686267232013,37.547838705456904],[127.16868788477352,37.54786321592962],[127.1687415995272,37.54789746761291],[127.16875748020635,37.547965199604235],[127.16881029721671,37.54815469317532],[127.16888006788767,37.548284246829674],[127.16893273569197,37.54830507605135],[127.16912435876921,37.54887918556541],[127.1692322929387,37.549121578900376],[127.16924030111078,37.54916031010696],[127.16923457613672,37.5492314964669],[127.16922997038434,37.54924663964417],[127.16939969442448,37.549439390576424],[127.1694484539305,37.5495341054138],[127.1695509303573,37.54966325172758],[127.16963117389422,37.549768733562374],[127.16972207506251,37.54983275461408],[127.16991624296688,37.5499239283759],[127.17010057212399,37.54996754358547],[127.17028501668996,37.55001205933194],[127.17034954904977,37.54997466609527],[127.17051058122945,37.54992443080153],[127.17069269815573,37.549790192803634],[127.17073743419463,37.54970615642412]]]},"properties":{"OBJECTID":85612,"PRESENT_SN":"11000UQ181PS201912150319","LCLAS_CL":"UQ1200","MLSFC_CL":"UQ1240","SCLAS_CL":" ","ATRB_SE":"UQ1240","WTNNC_SN":"11000AGZ201001269850","NTFC_SN":"11000NTC201001144422","DGM_NM":"고덕주공7단지주택재건축사업","SIGNGU_SE":"11000","DRAWING_NO":" ","CREATE_DAT":1576368000000,"DGM_AR":89869.44826184,"DGM_LT":1461.95737771,"SHAPE.AREA":89869.448262,"SHAPE.LEN":1461.95737770932}}]}