{"type":"FeatureCollection","features":[{"type":"Feature","id":86506,"geometry":{"type":"Polygon","coordinates":[[[127.0683913470488,37.484111982353234],[127.06833240238409,37.48419634939881],[127.06827594589733,37.48428170610916],[127.06822186452962,37.48436805255161],[127.0681703844975,37.484455478701854],[127.06812139250265,37.484543714326826],[127.06807488863207,37.48463284952964],[127.06741641074294,37.48593804810012],[127.06730902141145,37.48596630927121],[127.06693166719354,37.485781723528525],[127.06688879604148,37.485760303436535],[127.0668464897004,37.485738252316025],[127.06680463510376,37.48571557023008],[127.0667633453976,37.48569234721679],[127.06672262050405,37.48566849317668],[127.06668234735656,37.48564400817269],[127.06664275216778,37.48561898218069],[127.0666037217929,37.485593325163585],[127.06656525631041,37.485567127221955],[127.0665273557205,37.48554038835635],[127.06546339466567,37.48474250196273],[127.064663435064,37.484181518460915],[127.06528837191854,37.48381474567751],[127.06539148872764,37.483817302881484],[127.06548443890529,37.48396321477596],[127.06552290495563,37.483991485379235],[127.0659203878566,37.48406253857739],[127.06604737762304,37.48408364281603],[127.06608978159346,37.484089115756234],[127.0661138606405,37.48408477778933],[127.06613839077934,37.48407908806918],[127.06616223864539,37.48406889371187],[127.06651437012218,37.48386336238131],[127.06672962301919,37.483708361683284],[127.06684916204468,37.48361324002729],[127.06694123797227,37.483531558375866],[127.06699276039606,37.48349179568519],[127.06701849339039,37.48343961345515],[127.06722359238537,37.48331209801165],[127.0672616828562,37.4832984717056],[127.06730046551722,37.4833006125227],[127.06757829834285,37.48346966553415],[127.06772633396247,37.483509497026155],[127.06776941937434,37.483518663087054],[127.06779780300081,37.48352387297517],[127.06792906416419,37.483517131861845],[127.06813823099043,37.48338835114482],[127.06817641006387,37.48334733405839],[127.0683682739698,37.483087917516045],[127.06843723726261,37.482955251097074],[127.06844095877673,37.482944527074544],[127.06843143304826,37.48291263702558],[127.06845946205698,37.48239382460995],[127.06858679734486,37.48229788585784],[127.06882667809249,37.48213079390123],[127.06895532990937,37.48211693522283],[127.06979908726443,37.48271363430967],[127.06902625016065,37.48340757903491],[127.06894683194194,37.48348051537787],[127.06886956307576,37.48355489204329],[127.06879444348326,37.48363061893519],[127.06872158623099,37.4837076959934],[127.06865099132206,37.48378612322197],[127.06858254561487,37.48386581058904],[127.0685164751612,37.48394666787],[127.06845278004607,37.48402878516884],[127.0683913470488,37.484111982353234]]]},"properties":{"OBJECTID":86506,"PRESENT_SN":"11000UQ181PS201912150407","LCLAS_CL":"UQ1200","MLSFC_CL":"UQ1240","SCLAS_CL":" ","ATRB_SE":"UQ1240","WTNNC_SN":"11000AGZ201211160062","NTFC_SN":"11000NTC201209276643","DGM_NM":"개포주공3단지 주택재건축정비사업","SIGNGU_SE":"11000","DRAWING_NO":" ","CREATE_DAT":1576368000000,"DGM_AR":64293.7692502,"DGM_LT":1388.71140083,"SHAPE.AREA":64293.76925,"SHAPE.LEN":1388.71140083061}}]}