{"type":"FeatureCollection","features":[{"type":"Feature","id":86567,"geometry":{"type":"Polygon","coordinates":[[[127.04764149951704,37.48524788548108],[127.04784224894657,37.48497309174258],[127.04826080153319,37.484399890230826],[127.04842449285019,37.48417574638293],[127.04862320308415,37.48390365508189],[127.04880474049986,37.48401314430801],[127.04934392679186,37.48433845899237],[127.05037322343702,37.48495945829189],[127.05044392522774,37.48501393959617],[127.05055785531718,37.485124895684585],[127.05075472367145,37.48532762912441],[127.05078866742095,37.485363835212105],[127.05081390234766,37.485395900319375],[127.05083812526313,37.48543643525224],[127.0508588514304,37.485489585653],[127.05087008072124,37.48554382121798],[127.05087349738415,37.48558130142844],[127.05086889737736,37.485635633704106],[127.05085649549763,37.48568960883692],[127.05079546716316,37.48590425271296],[127.05076353378391,37.48600283551969],[127.050711144931,37.48611647354842],[127.05066293482854,37.48622308200743],[127.05063201839837,37.48632112374984],[127.05057277502803,37.486500627716424],[127.05050177383023,37.48668256922511],[127.05044903696779,37.4867840437593],[127.0478040308948,37.48533684081545],[127.04764149951704,37.48524788548108]]]},"properties":{"OBJECTID":86567,"PRESENT_SN":"11680UQ181PS202204290001","LCLAS_CL":"UQ1200","MLSFC_CL":"UQ1206","SCLAS_CL":" ","ATRB_SE":"UQ1206","WTNNC_SN":"11680AGZ200202200001","NTFC_SN":"11000NTC202204270006","DGM_NM":"개포우성4차아파트 재건축사업","SIGNGU_SE":"11680","DRAWING_NO":" ","CREATE_DAT":1651190400000,"DGM_AR":46064.89699996,"DGM_LT":890.69993934,"SHAPE.AREA":46064.897,"SHAPE.LEN":890.699939339251}}]}