{"type":"FeatureCollection","features":[{"type":"Feature","id":85193,"geometry":{"type":"Polygon","coordinates":[[[126.85226162627048,37.5162729622011],[126.85226049431479,37.51633017397991],[126.8522590454913,37.51640336361025],[126.85223320255687,37.51640275972158],[126.85221058084231,37.51640228063229],[126.85208616186678,37.51639942031552],[126.85205675373042,37.51639875241234],[126.85202135096227,37.51639789671614],[126.8519866041752,37.51639707968152],[126.85197447164141,37.51642315534718],[126.85193630182394,37.51650518769829],[126.85190881026013,37.51656434827844],[126.85188120481983,37.516623869105416],[126.8518730257548,37.51664133805406],[126.85186939029373,37.51664926220758],[126.85185030536998,37.51669023331636],[126.85181861065071,37.516758308401755],[126.85178873307301,37.5168226917003],[126.85177478034058,37.51685275824748],[126.85167335350503,37.51682434738271],[126.85158223469931,37.5167988236905],[126.85156086811689,37.51679284999834],[126.85132233158296,37.51672605347921],[126.85123132613057,37.51670052966024],[126.851091822009,37.516661519188744],[126.85101042592537,37.516638710422356],[126.85088607089358,37.5166038635877],[126.85086798289863,37.51659879494628],[126.8508433379551,37.51659191594771],[126.85072768790766,37.51655951273716],[126.85065149235419,37.51653815195446],[126.85056470072865,37.51651380519831],[126.85033349153139,37.51703449202952],[126.8502954736241,37.517067662159555],[126.85027100987966,37.5170269959509],[126.85020671508232,37.51700882342546],[126.85010225675805,37.516979497324215],[126.85007026354386,37.516970536455965],[126.84988938355903,37.51691975857125],[126.84986677373776,37.51691333247931],[126.84983647619312,37.51690491432182],[126.84982404078676,37.516901384471176],[126.84966848437162,37.51685766652923],[126.84963637814788,37.51684870539809],[126.84950320584575,37.51681123288518],[126.84937579899591,37.516775479539135],[126.84927088923608,37.51674597192159],[126.84923505255784,37.51673592467871],[126.84924525940997,37.516662146319746],[126.84909190463017,37.51665365937312],[126.84897631536637,37.5166472932923],[126.84897721733958,37.5166487360496],[126.84875923262788,37.516709169720954],[126.84869776042578,37.51673382613338],[126.84856520484817,37.51650534235029],[126.84851009738452,37.51651572252711],[126.84850211476123,37.516268171819625],[126.84887836761857,37.515416136717576],[126.84892603692693,37.51539196152643],[126.85175100795487,37.51561668131922],[126.85183379834143,37.51556900376265],[126.85183388089327,37.515569013778205],[126.8520423929274,37.515602434450734],[126.8521504937411,37.515619690108075],[126.85226583143434,37.515638126104804],[126.85239202434502,37.51565837768464],[126.85252941200622,37.51568035514146],[126.85252699931546,37.515756035721296],[126.85252603477502,37.51578603765497],[126.85252278802022,37.515882980674846],[126.85252001752912,37.515967941053994],[126.85251896718421,37.516041100561075],[126.8524149081511,37.516038716768534],[126.85229048977052,37.51603585666809],[126.85226651659029,37.51603531641657],[126.85226613362016,37.51605438640253],[126.85226487815241,37.51611682380105],[126.8522642479954,37.51614925884085],[126.85226325445615,37.516193766760146],[126.85226162627048,37.5162729622011]]]},"properties":{"OBJECTID":85193,"PRESENT_SN":"11470UQ181PS202312280001","LCLAS_CL":"UQ1200","MLSFC_CL":"UQ1220","SCLAS_CL":"UQ1221","ATRB_SE":"UQ1221","WTNNC_SN":"11470AGZ202309070001","NTFC_SN":"11470NTC202309070003","DGM_NM":"신정동 1152번지일대 주택정비형 재개발사업","SIGNGU_SE":"11470","DRAWING_NO":" ","CREATE_DAT":1703721600000,"DGM_AR":44081.72739064,"DGM_LT":1010.22459899,"SHAPE.AREA":44081.74472466,"SHAPE.LEN":1010.22461848671}}]}