{"type":"FeatureCollection","features":[{"type":"Feature","id":85666,"geometry":{"type":"Polygon","coordinates":[[[126.90293046495557,37.5702650108733],[126.90268256583171,37.57044766263889],[126.90287612386965,37.570614098163006],[126.90304787559478,37.570759931219456],[126.90320899699131,37.570640234152286],[126.90332704402833,37.570738449930424],[126.90341801746231,37.570670780304745],[126.90368748011045,37.57089507048171],[126.90244786398628,37.571842235941425],[126.90244315177661,37.57189593083236],[126.9029028034077,37.572271576881214],[126.90297219337029,37.57227181501899],[126.90283431798488,37.572357924335435],[126.90263854459921,37.572510153515495],[126.90262620461777,37.572519756713604],[126.90230385718144,37.57277039318407],[126.90219782776732,37.57285284346928],[126.90206620152594,37.57295407570065],[126.90205060940606,37.57296607272404],[126.90157130812686,37.573334703253046],[126.9015321008114,37.57336485312249],[126.9006309180029,37.57336606863523],[126.90061999795256,37.57332137034312],[126.90061093420127,37.573243247014545],[126.90060448873562,37.57307034207616],[126.90054235763681,37.57280756109726],[126.90053872086108,37.572415790728925],[126.90053800847832,37.57233976481597],[126.90053565270223,37.57208917121187],[126.90053523720745,37.57204477921263],[126.90053367117791,37.57203090266875],[126.90053175783807,37.57201435890536],[126.90052472101262,37.571953510114376],[126.90048452429863,37.57166799698533],[126.90046092286873,37.57150033907645],[126.9004349129912,37.5714815762725],[126.90043347577426,37.571456167197766],[126.90046993210912,37.571199597193086],[126.90048400720792,37.57091949224191],[126.90046086201282,37.57070756017658],[126.90043709813015,37.5705347304282],[126.9004261708403,37.5702445129827],[126.90038505808262,37.56974249252613],[126.9003709382246,37.569570076441344],[126.9003929023046,37.56931556623262],[126.90039295516756,37.56927646341099],[126.90036879525952,37.56889469420577],[126.90035095849822,37.56860834500034],[126.90054789479798,37.568403863207955],[126.90057664056786,37.568374011030606],[126.90094990435429,37.5679851928958],[126.90125888009973,37.56774227903003],[126.9013380839921,37.567680006904155],[126.90139486370788,37.56763535705495],[126.90140861953908,37.56762454785379],[126.90161470737908,37.56746250853885],[126.90164109715863,37.5674417630923],[126.90174821869707,37.56735837712197],[126.90211853061598,37.567070102993576],[126.90226500255777,37.56695608904596],[126.90227063390557,37.56695170596782],[126.90232933560024,37.5669079132173],[126.90253994048955,37.56675083149448],[126.9026682313911,37.56665513690542],[126.9027006014814,37.56663099049042],[126.9029075112299,37.56647665302478],[126.90292285209388,37.56646522328676],[126.90295644567064,37.566440158814494],[126.90297250701704,37.56636295753414],[126.90321563086268,37.56656557621066],[126.90335277939077,37.56667987254836],[126.90427291776818,37.567446690109634],[126.9042833991838,37.567455420306274],[126.90443463929981,37.56758145784017],[126.90460933040752,37.567727038838584],[126.90473350284184,37.567830520055],[126.90479251371063,37.56787969027849],[126.90483968627062,37.567919002980496],[126.9049905890474,37.56804476021089],[126.90509159446694,37.56812893195114],[126.90513630241301,37.56816618826778],[126.90515849810288,37.56818468564722],[126.90526031801066,37.568269533647026],[126.90525571045951,37.568331607957106],[126.90521790002292,37.56836136378299],[126.9048909750377,37.56861863504767],[126.90485322096532,37.56864834575187],[126.90451055492645,37.568918009662255],[126.90423680104101,37.56913343584286],[126.90421612326033,37.56914971316706],[126.90421628046383,37.5691498169102],[126.90418404173289,37.569176937097936],[126.90411691345187,37.56918057578722],[126.9040715854126,37.56921955115366],[126.90426234795171,37.56936909221664],[126.90425524715731,37.569415361096944],[126.90425298678484,37.56943008137424],[126.90412909272389,37.569485110679985],[126.9039869410784,37.569548251683266],[126.90390994277368,37.56958596646527],[126.90382553676874,37.56962731505772],[126.9038025416132,37.569640180152035],[126.90354305359342,37.56941733104045],[126.90333387849385,37.56958483108462],[126.90346077355998,37.5696933884324],[126.90356295244656,37.569780805987236],[126.90345725733143,37.569845679457195],[126.90334765128053,37.56992340667351],[126.90332707516133,37.569938670312986],[126.90305525584907,37.57014086882307],[126.90302770759105,37.570172740806285],[126.90293046495557,37.5702650108733]]]},"properties":{"OBJECTID":85666,"PRESENT_SN":"11440UQ181PS202405070002","LCLAS_CL":"UQ1200","MLSFC_CL":"UQ1206","SCLAS_CL":" ","ATRB_SE":"UQ1206","WTNNC_SN":"11440AGZ202312190001","NTFC_SN":"11440NTC202401030006","DGM_NM":"성산시영아파트 주택재건축정비사업","SIGNGU_SE":"11440","DRAWING_NO":" ","CREATE_DAT":1715040000000,"DGM_AR":182618.36014074,"DGM_LT":2196.7559211,"SHAPE.AREA":182618.36107155,"SHAPE.LEN":2196.75587035181}}]}