{"type":"FeatureCollection","features":[{"type":"Feature","id":86967,"geometry":{"type":"Polygon","coordinates":[[[126.92997008869065,37.466915923974504],[126.92990181999285,37.46692069398382],[126.9298097716336,37.46693340538961],[126.9296919772392,37.46695348930878],[126.9296168411456,37.46692899038136],[126.92958798896512,37.46692206212634],[126.92949685565723,37.46689995005458],[126.92941177927025,37.46687993193662],[126.92931696900774,37.466861250306444],[126.92929002477307,37.46685688199457],[126.92927995836719,37.46685132565947],[126.92924997562685,37.46683407022796],[126.92916470984233,37.46681015227234],[126.92915952276935,37.466808697579694],[126.92916993473526,37.46679581960184],[126.92917554025901,37.466774766577785],[126.92921100324692,37.46664159290778],[126.92925063608769,37.4664520459721],[126.92923229146578,37.466368331507766],[126.9292288019496,37.46635310241042],[126.92913210064812,37.46629168486689],[126.9291555289132,37.466261155187595],[126.92932140327406,37.4659762691456],[126.9293389452825,37.46595420526783],[126.92928599641704,37.465891819851414],[126.92927605475568,37.46588010432938],[126.92928836757338,37.465865173212265],[126.92922482321282,37.4657893509286],[126.9291846545271,37.46574925871063],[126.92919922606788,37.46573641931376],[126.92919840407932,37.465735462845714],[126.92910124267817,37.46562219311969],[126.92900914308785,37.4655138810376],[126.92891009869295,37.46539866292577],[126.92901092495761,37.465342547235615],[126.92903763769465,37.46532853499083],[126.92915078964866,37.46526731804707],[126.92927113460286,37.46520186166326],[126.92939357018598,37.46513674881346],[126.92949925739205,37.465079482385214],[126.92963042391794,37.46500918482595],[126.92960371109582,37.46498811211233],[126.92960426921138,37.46488926330915],[126.9296043699262,37.46488914533892],[126.92964462373818,37.46484123731667],[126.92964042231768,37.46473129425728],[126.9296509442154,37.46465040851845],[126.92964716863209,37.46457975849927],[126.92962545515628,37.46454370513261],[126.92962351567596,37.46449154483067],[126.92963756751921,37.464206502731216],[126.92965285164107,37.464157353244524],[126.92977965568339,37.4637295794767],[126.92982681817499,37.46351154707093],[126.92982696667916,37.46351109665893],[126.9298852107323,37.46333449010601],[126.92976446121284,37.46330653978767],[126.92967076545233,37.46328539936714],[126.9295715330986,37.46286105610773],[126.92960566096565,37.462677027833465],[126.92961689222182,37.46261645203884],[126.92961766368792,37.46261229887834],[126.9296405908177,37.46248866800246],[126.92975707538604,37.46249534314912],[126.92989081904292,37.46250301073685],[126.92993458039015,37.462507956734015],[126.93002788321303,37.46251347329525],[126.9300326969431,37.462491239420295],[126.93005653848361,37.46238112407903],[126.93000972761554,37.46230256422679],[126.92999860944776,37.46222816156945],[126.92999293637008,37.46219019882236],[126.93000139571015,37.46216759864289],[126.93003223568212,37.462085237569205],[126.93003168439003,37.46201130081541],[126.93005511235798,37.4619436585631],[126.93013398488652,37.46186120125357],[126.93012635617794,37.461717576539286],[126.93012547893396,37.46170106059792],[126.9300733834923,37.461664853789],[126.93003402778962,37.461579982402114],[126.93002672594643,37.461536107177],[126.93001215716801,37.46144852162938],[126.92999124767387,37.4614247485876],[126.92996131795749,37.46139071845199],[126.92994078265289,37.46132541022124],[126.92993576433626,37.46131330669146],[126.92993291037165,37.46130732229298],[126.92993170658129,37.461301410974286],[126.92992582262457,37.46127253021579],[126.92973071249493,37.46112767450085],[126.92969519767985,37.461128462025926],[126.92954466097692,37.46113179606817],[126.929597253345,37.46109695920841],[126.92949161954843,37.46104553762138],[126.92942678361706,37.461000447863896],[126.92936252252143,37.4609453572709],[126.9291874896008,37.460775771321885],[126.92906981027842,37.46067469662986],[126.92892196684356,37.460558736718845],[126.92889564785756,37.4605413311607],[126.92886954945112,37.46052960206131],[126.92880291459718,37.46047550080595],[126.92874872350363,37.46041059511927],[126.9285262490247,37.46009600730559],[126.92851868653732,37.46008528067914],[126.92850717348661,37.460068965382725],[126.92836699100101,37.46009680984768],[126.92831540773354,37.45998012122857],[126.92840293911706,37.45995928381427],[126.92849276545316,37.45993790534819],[126.92836592062979,37.459698772333375],[126.92820109850369,37.45957627771821],[126.92818353545155,37.45956320225293],[126.9281554843903,37.45928300839676],[126.92827382094131,37.459274567295545],[126.92862535479996,37.45949967541984],[126.92869995030858,37.45954914151423],[126.92878496018108,37.459640744953],[126.92884250724984,37.45969441716581],[126.92897567399511,37.45983773169873],[126.92908775756703,37.45997335659964],[126.92916163719956,37.46006276349841],[126.92921786872594,37.46013337360749],[126.9292599559416,37.460185189094965],[126.92932877897853,37.46030292038102],[126.929379208711,37.460389195337505],[126.92941724717943,37.46045545139981],[126.92955506959412,37.460496341897354],[126.9300449846417,37.459758464062766],[126.92993117990507,37.45938630724633],[126.92990544692456,37.45930215582849],[126.92990005988605,37.45928453792019],[126.9298964754146,37.45922685341956],[126.93000984911293,37.459302219040694],[126.93011748508822,37.459385428837884],[126.93016751089422,37.459730624967776],[126.93011638111675,37.45992842769901],[126.93009098962662,37.459994645212944],[126.92997883437599,37.46028712459021],[126.93000881001385,37.46061909986859],[126.9299865024293,37.46065007191789],[126.92999323738181,37.46071109202549],[126.93004005638528,37.460791922441615],[126.93003727396326,37.46079391197896],[126.93006612913968,37.46084278189548],[126.9301860400148,37.46094042411276],[126.93034927193223,37.46125662194023],[126.93036392767043,37.46128501240666],[126.93038072707856,37.46131753977211],[126.93042652214774,37.46140624419006],[126.93045025453051,37.46152875002244],[126.93046214478392,37.461590286766764],[126.930523616283,37.46190745925097],[126.93052967457139,37.4619315737681],[126.93064324034393,37.462263526892],[126.93064367608277,37.46226891515937],[126.93069896613204,37.462430165010915],[126.93069927115587,37.46246629546745],[126.93077017933552,37.46244018268039],[126.93077272230943,37.462439246257105],[126.93080016471882,37.46242913539194],[126.93083244722243,37.46241654965332],[126.93091846912913,37.462339610249074],[126.93109222063633,37.46218419154958],[126.93127113565437,37.462042254685194],[126.93130585092877,37.46201454239836],[126.9313855856625,37.46195151042136],[126.93145569260737,37.46189779807854],[126.93146383995716,37.46188804503018],[126.93146091293212,37.46186329270362],[126.93144692870327,37.46175669558875],[126.9314358819477,37.46166367834937],[126.93143415480155,37.46164918016346],[126.93144263199794,37.46162508332067],[126.93147484636152,37.46152752363246],[126.93151078082533,37.46141625284901],[126.93161601280086,37.46143996650316],[126.93170913111614,37.461460285132176],[126.93174657031203,37.4614687316321],[126.9317969673026,37.4615088831027],[126.93179130507941,37.461593439032484],[126.93178757646614,37.46167714014739],[126.93178311372014,37.46176021913473],[126.931774132281,37.46182836581082],[126.93175308808839,37.46197199151563],[126.93173513803964,37.4620821827671],[126.93173090659181,37.4621230498278],[126.93171725924995,37.462225098534745],[126.93170367844544,37.46234064432291],[126.93169703678592,37.462372148521624],[126.93168487934282,37.462549314831534],[126.93168434082723,37.46255712622079],[126.93168366668127,37.462564928519875],[126.93166965240981,37.46268459163089],[126.93165530541614,37.46282165293381],[126.931644467622,37.46292879395495],[126.93164271295649,37.46293164910105],[126.931629212205,37.46303378797075],[126.93161711107649,37.463162309068785],[126.93161186485447,37.46320032834411],[126.9315552690615,37.463224648998576],[126.93149867322349,37.46324897863583],[126.93133879436563,37.463302223256356],[126.93115943993689,37.46339131603427],[126.93108866157098,37.46344813625125],[126.931081048675,37.46345424953272],[126.9310593656104,37.463469724869725],[126.93105582528378,37.46347225458078],[126.93098571574052,37.46357499931632],[126.93087284579256,37.46362911829229],[126.93077746270272,37.46369452819992],[126.93075458421873,37.46371894973593],[126.93074790782808,37.463726784474225],[126.93072697335656,37.46375136934955],[126.93067506567506,37.46377791786811],[126.93066965833805,37.463782482717626],[126.93063859439808,37.46380872836191],[126.93063371873363,37.46381285203661],[126.93061816412572,37.46382599736651],[126.93053373337818,37.46392749885943],[126.93052271145208,37.464000374460554],[126.93055492258762,37.46400426812345],[126.93056622176906,37.46400877992788],[126.93055269957765,37.46408400565036],[126.93056598444053,37.46414032638148],[126.93053488400264,37.464157156482386],[126.93052155919955,37.46426265605423],[126.93041166376132,37.464522439549235],[126.930619301392,37.464536980357735],[126.93094829236412,37.46459511181941],[126.93118283194418,37.464604441875096],[126.93124867733272,37.464541590963584],[126.9313238654347,37.46450846968672],[126.93138529181304,37.46446889801737],[126.93139357180536,37.464438458004444],[126.9313938985113,37.46440331904097],[126.93140776600248,37.46436904406466],[126.93149171615711,37.46433368437744],[126.93148025881287,37.46446227789453],[126.93147499094111,37.46447486179885],[126.93147015358439,37.464486391783375],[126.93144274933941,37.46455179743952],[126.93143469594253,37.46461801645877],[126.93141518326816,37.4647783835966],[126.93141756831436,37.46481471349164],[126.93142567657515,37.464895619447],[126.93142215164248,37.46491792621442],[126.93140615901835,37.46507322277809],[126.93139181079687,37.465186380358205],[126.93139073332927,37.46520236352831],[126.93137331877804,37.46530662637565],[126.93136737592502,37.46533986088197],[126.93136879802698,37.46536636926056],[126.93136320525858,37.46541204683773],[126.93135875473867,37.46543290243558],[126.93135719152315,37.46544854293487],[126.93134413244263,37.46557308094592],[126.93133832919705,37.46558994429214],[126.93132044337581,37.465641939612],[126.9310784155398,37.465779288791026],[126.93098822985867,37.46563984971081],[126.93086021510962,37.46582051461247],[126.93073698628932,37.466079749765846],[126.93071718595016,37.46609965008889],[126.93059720810628,37.466147241250845],[126.93064656752637,37.466187545729106],[126.9307086864129,37.46624254419324],[126.93072463310875,37.46624566220962],[126.93076006760866,37.46628467887243],[126.93103764423046,37.466283817592696],[126.9310720960751,37.46662340751473],[126.93102421996787,37.46661600064773],[126.93095468268392,37.46661182354227],[126.93091811183213,37.46661374696807],[126.93088153194219,37.46661566316913],[126.9308486209077,37.4666203728622],[126.93081570083287,37.466625075332686],[126.93079781059808,37.46663190324651],[126.93077991131702,37.46663873115221],[126.93073520847858,37.46665862557824],[126.93065776849953,37.46669054588129],[126.9305803194184,37.46672245891988],[126.93047790918808,37.46675546423927],[126.93045034417942,37.46676201598319],[126.93043224143554,37.46676877073241],[126.93027598712803,37.46682705357103],[126.93018221095336,37.466861982975715],[126.93013035099965,37.466884611902806],[126.93004188806509,37.46691895875271],[126.93001568210578,37.466910824857614],[126.92997008869065,37.466915923974504]]]},"properties":{"OBJECTID":86967,"PRESENT_SN":"11000UQ181PS201912150508","LCLAS_CL":"UQ1200","MLSFC_CL":"UQ1220","SCLAS_CL":"UQ1221","ATRB_SE":"UQ1221","WTNNC_SN":"11000AGZ200901087672","NTFC_SN":"11000NTC200901082656","DGM_NM":"신림재정비촉진지구2구역주택재개발","SIGNGU_SE":"11000","DRAWING_NO":" ","CREATE_DAT":1576368000000,"DGM_AR":95789.27125007,"DGM_LT":2988.7823259,"SHAPE.AREA":95789.271250035,"SHAPE.LEN":2988.7823258932704}}]}