{"type":"FeatureCollection","features":[{"type":"Feature","id":85164,"geometry":{"type":"Polygon","coordinates":[[[126.99574463118047,37.532628829523084],[126.99562744046183,37.53280362553011],[126.9955955881686,37.53285278215421],[126.99558954660834,37.532852475513266],[126.99558454312378,37.5328589083571],[126.9955742527944,37.53287822514476],[126.99550311314464,37.53301168123434],[126.99549007781572,37.53310398286698],[126.99548856736509,37.53310459726757],[126.99548854245259,37.53310487026737],[126.99548850398496,37.53310487657236],[126.99548527561005,37.53313953853487],[126.99546211833923,37.53314000316355],[126.99530035310536,37.5331338680019],[126.99514981139204,37.53312614747547],[126.99498628078115,37.5331253907206],[126.99491701742653,37.53312361191248],[126.99485270971506,37.53311997729654],[126.9948142879014,37.53311902006878],[126.99472264598053,37.53311441976423],[126.99462526787131,37.53311056687868],[126.99454958970279,37.53310742698012],[126.99448718266899,37.53310468426098],[126.99431255726813,37.533097009884926],[126.99432552306793,37.533060516827476],[126.99436638764934,37.53295333710028],[126.99441993793934,37.53281423591285],[126.99443125057451,37.532814831248],[126.99443730601322,37.5327998931354],[126.99448520884575,37.532678153725286],[126.99453468538493,37.53254304363899],[126.99455318404573,37.532536296288015],[126.99455688495816,37.532522241003576],[126.99458311920048,37.53242607047227],[126.99459994788349,37.532370678361715],[126.99463502992273,37.532268417616216],[126.9946415259227,37.53224757800804],[126.99465300102476,37.53221514289864],[126.99472927319209,37.53202081194997],[126.99474198126288,37.53199005275008],[126.994769412071,37.531918974916046],[126.994776450542,37.531903892680916],[126.9947896449963,37.53187386330805],[126.99484120967561,37.53178146030335],[126.9948497416064,37.53176544111426],[126.99489667644967,37.531700238827604],[126.99498881341992,37.53158687189505],[126.99502008754305,37.53154964455154],[126.9951314251313,37.53141533045072],[126.99513142838506,37.53137716434796],[126.99514132037095,37.531331412410225],[126.99520324228808,37.5313006828335],[126.9952378631765,37.53128529570273],[126.99525768615254,37.531266592120595],[126.9952793646857,37.53124622179431],[126.99529585897065,37.53123009757553],[126.9953720195282,37.53117767362532],[126.99560246922644,37.531019044678835],[126.99569669239376,37.53095418590142],[126.99573077625124,37.53093072479148],[126.99592979047893,37.53079373192772],[126.99607377690191,37.53069461849647],[126.99645524113015,37.530442484165896],[126.99645287571194,37.53043912245558],[126.99648383265654,37.530423586136074],[126.99650571588913,37.530412603948804],[126.99673541845945,37.530257295605324],[126.99676837585757,37.53023588931508],[126.99678990620447,37.53022189774029],[126.99678998881663,37.530221515722076],[126.99685694104008,37.53017761654363],[126.99703055469647,37.53021365402152],[126.99730806067056,37.530032834716216],[126.99740743332632,37.52990453664873],[126.99748768472892,37.529800916074585],[126.99749916653002,37.52982454053306],[126.9975743267171,37.52972078457614],[126.99756318376375,37.529707485529336],[126.99757746237277,37.52968549273823],[126.99760006805614,37.52965471552835],[126.99762074126535,37.5296265709553],[126.99776740265065,37.52967672323822],[126.9977960728227,37.52963353048303],[126.99777095760972,37.52962538470141],[126.99784014274044,37.52954290085564],[126.99786095877683,37.529552911547654],[126.9978809263539,37.52956220141449],[126.99792346648027,37.529520531734],[126.99790675696046,37.52951509822921],[126.99791735801628,37.52950530474561],[126.99795525932258,37.529470104050354],[126.9979887502793,37.52939503421601],[126.99797941686529,37.52939368244543],[126.99799256490141,37.52935172353659],[126.99802733336182,37.52929398885743],[126.99804907909427,37.52925971567639],[126.99809998811119,37.52927660179281],[126.99812036227269,37.529300226450005],[126.9982200824313,37.52919113689054],[126.99825921626072,37.52916334230323],[126.99826769015002,37.52915760320315],[126.99843489914709,37.52918537632901],[126.99841711167488,37.529257968971606],[126.99836451625032,37.529256994505495],[126.99835821258067,37.52930844110923],[126.99849226278558,37.52933342017943],[126.99848760106543,37.52934928656866],[126.99850032844581,37.52935131413153],[126.99848522246998,37.529418527915205],[126.9985374780981,37.5294323775266],[126.99863000960391,37.5294342989427],[126.99864813353041,37.52943429938438],[126.99865357375054,37.52947309632806],[126.99863509621105,37.52954822978689],[126.99866352653285,37.52955021266456],[126.99881190040558,37.52956264987672],[126.99881594645178,37.529677085243556],[126.99881662218478,37.529762184160404],[126.99889800894788,37.52980687530486],[126.99890301727189,37.52980986401351],[126.99900445430328,37.52987038869692],[126.99902641051636,37.52986016828418],[126.99903148464419,37.529857806885374],[126.99910919039337,37.52982810181649],[126.99918816989742,37.52980060686017],[126.99926832247185,37.529775358051786],[126.99934954856421,37.529752386921864],[126.99948832102974,37.52969128936739],[126.9995012523289,37.52968613590203],[126.99948886467368,37.52966901680015],[126.99960927375189,37.529625167419],[126.99967559884277,37.52959962979105],[126.99974192388845,37.529574092125756],[126.99979323595319,37.52955495126387],[126.99984454799171,37.529535810379606],[126.99986607743553,37.529527593615306],[126.99988760687464,37.529519376847034],[126.99989246014619,37.52952606229105],[126.99989511869921,37.52952969333429],[126.99985284041331,37.529546955795276],[126.9998977192787,37.529598412198844],[126.99994995140023,37.529672798985125],[126.99999402811194,37.52967741265217],[127.00003917838875,37.52974327590144],[127.00009076579887,37.52982242887475],[127.00009736127166,37.529834168908344],[127.00009828300259,37.52985047871595],[127.0001116384511,37.52984999954676],[127.00028066103513,37.52980405073467],[127.00032327767582,37.52985534477162],[127.00033365208219,37.52985277704268],[127.00037814769087,37.52984604705377],[127.00043316501427,37.529819603392646],[127.00049591993194,37.529845210206524],[127.0005462532423,37.52983693049466],[127.00056217098371,37.52985063474586],[127.00057451373624,37.52986175311312],[127.00061334084266,37.529895180300336],[127.00067599380523,37.529943897517626],[127.0007200252203,37.52997174755245],[127.00073706297727,37.52999227231302],[127.00076733703989,37.530050900198255],[127.00079982908693,37.5300565045837],[127.0008782993338,37.530002562514966],[127.00094561354553,37.530069110287485],[127.00100403598023,37.53006994848044],[127.00106237879527,37.53014111824619],[127.00099173750924,37.530183410617084],[127.00103192258285,37.53021643222356],[127.00104710510576,37.530232506020006],[127.00112524667759,37.53029168359841],[127.0011570260105,37.53031776747892],[127.00120089967503,37.53028899886296],[127.00126628019804,37.530245868432125],[127.00132500805533,37.53031745252413],[127.00133440045178,37.530328213111595],[127.00127173289005,37.530362907577505],[127.00121028938601,37.53039769481556],[127.00118043311183,37.53041075914841],[127.00113726106639,37.53038758544938],[127.0010422957006,37.530421147135264],[127.00101482645624,37.530444987325005],[127.0009326791064,37.53048086453102],[127.00083875430856,37.5305212555929],[127.00088657581857,37.530587235653336],[127.00078823858132,37.53062958180775],[127.00074410464033,37.530630068063815],[127.00072409138345,37.53060057839565],[127.00069284349281,37.53060377671053],[127.00071211001786,37.53063604144054],[127.00070276497567,37.53064488913802],[127.00062630808036,37.530669638892384],[127.00060147482094,37.53068019835262],[127.0005285362734,37.5307112009694],[127.0004897759526,37.530729553887085],[127.00048146002571,37.53076560258573],[127.00040610014838,37.53080362384867],[127.00037460314,37.53081482290381],[127.00031292144745,37.53083823912549],[127.00029358651491,37.53084553697825],[127.00028312144619,37.53084903272615],[127.00027039399092,37.53083331925676],[127.00022328407348,37.53085674459443],[127.0001966178561,37.53086999792119],[127.00018988646472,37.530861050975155],[127.00013865827894,37.530889927246385],[127.00007160217072,37.53093150731804],[127.00009749739569,37.53100878588756],[127.00005914375205,37.5310451765675],[127.0000071004029,37.53109442424463],[126.9999669491978,37.531063961117795],[126.99992028041284,37.53108065591443],[126.99991949899763,37.53111720021969],[126.99990991632764,37.531120885155],[126.99987992389138,37.53112865131106],[126.99983976067442,37.5311308581826],[126.99982091228009,37.5311303713766],[126.99974770220106,37.53112938821885],[126.99968176704552,37.53111627775009],[126.99968138060015,37.53118906904706],[126.99962498194184,37.5312078628909],[126.9995233182299,37.53120333822846],[126.99945730349299,37.5312033370954],[126.99944225891309,37.53111377803133],[126.99941827377154,37.53112739162644],[126.999373766127,37.531129751431216],[126.99935915886316,37.531179972569134],[126.99927608342702,37.53117486238599],[126.99927267631318,37.53123251692501],[126.99927196211463,37.531280648008526],[126.99916164324029,37.53128210546975],[126.99918325065873,37.531331570466506],[126.99905997710871,37.531349119327835],[126.99904744158201,37.53135082194488],[126.99898142618929,37.531366353681335],[126.99889138039536,37.53138968745647],[126.99887120806977,37.53139430009515],[126.99877574294165,37.53141889505195],[126.99874762866047,37.531417678054154],[126.99875917851364,37.53145419560834],[126.99867693837349,37.53149255798024],[126.99866529896835,37.53143180367946],[126.99858614850605,37.53144248752951],[126.99856552355384,37.53144834347632],[126.99847784217383,37.531469325400764],[126.99849258111564,37.53153630566697],[126.99841462976624,37.53154691735307],[126.9984350029189,37.5316124742031],[126.99841590554448,37.531611212311674],[126.99832187787418,37.531611173765235],[126.9983293421716,37.53167474809624],[126.9982700808759,37.53168381048022],[126.9982639601431,37.531684891504426],[126.9982349742485,37.53169213469322],[126.99812411025843,37.531725252095214],[126.99808940005504,37.53172305266776],[126.99804371566466,37.53171958250647],[126.99802787653906,37.531719690158795],[126.99802854268309,37.53174892742994],[126.99805933461556,37.5318324414576],[126.99795589358423,37.53183463680857],[126.99787870020565,37.53183822942103],[126.99787515579291,37.53190470463879],[126.99786893262954,37.53191776885759],[126.99786602185618,37.53198250517563],[126.99785660624315,37.53203605094801],[126.99784757793321,37.53203550106158],[126.99784126321863,37.53206946833267],[126.99783287750337,37.532115328657106],[126.99776379411915,37.532151771681676],[126.99783127992065,37.53216305424984],[126.99777602900123,37.53228322706634],[126.99773662355749,37.53227684677534],[126.99771595298147,37.53228413515164],[126.99769279385345,37.5322821071679],[126.99768818525848,37.532358430202606],[126.99765228658397,37.53236100587544],[126.99758145164573,37.53235190349874],[126.99760473023171,37.532449878335754],[126.99763797691891,37.532536311764346],[126.9976901567435,37.53252325806728],[126.99770442350173,37.53252162773003],[126.99781215358671,37.53251588281882],[126.99781028608832,37.53253053291878],[126.99786696812453,37.53253057072411],[126.99787171858118,37.53255791603137],[126.99789419813548,37.53257724303914],[126.9979338859251,37.532597633738625],[126.99795173906926,37.53259798566655],[126.99799439280382,37.53258213846659],[126.99799982263328,37.532598933151924],[126.99800548999146,37.53261707933465],[126.99802106704018,37.53266087710263],[126.99806099385228,37.53265193141007],[126.99809521851014,37.53264278732026],[126.9980997207025,37.53265810434423],[126.99806573359515,37.53266796022729],[126.99801124565951,37.532682293432586],[126.99799086899266,37.53269307772092],[126.99806797997279,37.532778025686916],[126.99803536152011,37.532793449742215],[126.9980535538085,37.53280066723685],[126.99802240806314,37.53287186464436],[126.99797786318891,37.53292094224671],[126.99793143171641,37.532957285129726],[126.99790600999732,37.53299406291752],[126.99786342393278,37.5330786622113],[126.99785630306162,37.53310029304686],[126.99785249263249,37.533098637803306],[126.99779076551455,37.53307182229995],[126.99765477125011,37.53310373112626],[126.99737453401718,37.53317732380077],[126.99731556457067,37.533204342517216],[126.99727220939465,37.533211062379436],[126.99713500505796,37.53322609495193],[126.99707478053476,37.5332381119571],[126.9970305766762,37.533246498536876],[126.9969749006675,37.533252515046115],[126.99684871690373,37.53325185239995],[126.99681282938148,37.53324972463083],[126.99675139550968,37.53324118074784],[126.99662599383853,37.53321887602778],[126.99649164318986,37.53319318305789],[126.9963695792057,37.53317181524079],[126.996343410562,37.53316669645326],[126.99625102819373,37.53315123312065],[126.99627763540842,37.53306496956626],[126.99630765580612,37.53299703597079],[126.99632018068245,37.532990639467464],[126.99634303463228,37.53299101888829],[126.99638577798122,37.53299648978493],[126.99649918703899,37.53301109976585],[126.99660885130763,37.533024907597856],[126.99663566490835,37.533028512683984],[126.9966636101874,37.53302763987193],[126.9967163685695,37.53299837775356],[126.99672883687533,37.53299145862826],[126.99684107288726,37.53294944077992],[126.99685068984941,37.532946305702254],[126.9968552157791,37.532939998925166],[126.9969373382639,37.53283172972509],[126.9969610119668,37.53274657772445],[126.99695969137682,37.532695203011066],[126.99695309689173,37.53267119127334],[126.99694512213581,37.53264704433268],[126.9969174081871,37.532567981055244],[126.9968901810045,37.532485430943424],[126.99689345182242,37.532467005749],[126.99689753738724,37.53244603077393],[126.99690825493725,37.53239057502579],[126.99690173118901,37.532320945971286],[126.99690809324804,37.53226029131745],[126.99691265517023,37.53221986390347],[126.99691579355219,37.532146973626425],[126.99695098453275,37.532059957008784],[126.99694230853592,37.532033467454326],[126.99691020496843,37.53195661143172],[126.99690118909425,37.531938122685915],[126.9968824673142,37.53189969456485],[126.99682213423192,37.531855047935984],[126.99673200237174,37.531789109587166],[126.9967041376741,37.53177562057657],[126.99661826661223,37.53178077073068],[126.99661555086345,37.531787933519304],[126.99649952925225,37.53178714478223],[126.99645466151848,37.53178699960937],[126.99645425196375,37.53178699869083],[126.99635427453667,37.53174948148247],[126.99634669796961,37.53176308345556],[126.99634403892814,37.53176786761658],[126.9962996735334,37.53183268316394],[126.99626383942605,37.53188543476596],[126.99623760028186,37.5319239420732],[126.99622328714153,37.53194268210453],[126.99620744642755,37.53196449445442],[126.99619567901703,37.531980937062436],[126.9961843190549,37.53199512720298],[126.99616884030097,37.53201772342852],[126.99614357420926,37.53205387916413],[126.99612336585892,37.53208259291624],[126.99609255529492,37.53212850615026],[126.9960831073425,37.53214224587164],[126.99601260411613,37.53224332510205],[126.99594279087118,37.53234396283423],[126.99589239398401,37.532416355295],[126.99581666263497,37.532525867456144],[126.99575026604137,37.53262115333168],[126.99574463118047,37.532628829523084]]]},"properties":{"OBJECTID":85164,"PRESENT_SN":"11000UQ181PS202107200008","LCLAS_CL":"UQ1200","MLSFC_CL":"UQ1220","SCLAS_CL":"UQ1221","ATRB_SE":"UQ1221","WTNNC_SN":"11000AGZ202107080003","NTFC_SN":"11000NTC202107080002","DGM_NM":"한남2 재정비촉진구역","SIGNGU_SE":"11000","DRAWING_NO":" ","CREATE_DAT":1626739200000,"DGM_AR":115082.09123751,"DGM_LT":2430.51917543,"SHAPE.AREA":115082.08588483,"SHAPE.LEN":2430.51914008035}}]}