{"type":"FeatureCollection","features":[{"type":"Feature","id":83895,"geometry":{"type":"Polygon","coordinates":[[[126.88616920208446,37.5345397088286],[126.88621075755586,37.53473886884538],[126.88605902088902,37.535262017264834],[126.8876576218478,37.53577010742118],[126.88756156000107,37.53592129145426],[126.88752333614687,37.53590918126308],[126.88601056490454,37.535429013952566],[126.88595084756511,37.535634922484434],[126.88553579598823,37.53639468316523],[126.88536670818434,37.53642776361913],[126.88502471166764,37.5370588423866],[126.88310660316712,37.5363948854547],[126.88306002372713,37.53630077511198],[126.88384819430641,37.53485195576978],[126.8838867934461,37.534768472180595],[126.88392132112786,37.53468390333213],[126.88395177736395,37.53459824922793],[126.88397804860226,37.534511780055986],[126.88400013471508,37.53442458591822],[126.884018035575,37.5343367569161],[126.88403163777343,37.53424847313734],[126.88404105446541,37.53415973469596],[126.88404617196046,37.534070901877044],[126.88404699041517,37.53398188458204],[126.88404350942086,37.53389295310853],[126.88403572885163,37.533804197555305],[126.88402364843996,37.53371579811992],[126.88400738134014,37.53362775491363],[126.8837222607877,37.53226679099697],[126.88367622041689,37.532046902705524],[126.88369446875126,37.53202574756882],[126.88438328798082,37.531926963068],[126.88457767320078,37.5319166140722],[126.8849043807211,37.53186422899204],[126.88495745816967,37.53185373976456],[126.88499318534865,37.53186918200495],[126.8850417780296,37.53190526967071],[126.8850800642556,37.531948465003246],[126.88510714200612,37.53199678493799],[126.88512991849203,37.532046452117484],[126.88515077084078,37.532096657992426],[126.88518247233341,37.53215462309268],[126.88520380541759,37.53218671946559],[126.88522842187366,37.532217287378806],[126.88525485008235,37.53224686597763],[126.88528399598103,37.53227491555646],[126.8853163136574,37.53230044546748],[126.88535112358926,37.53232390553637],[126.88538785995,37.53234538530396],[126.88542674999049,37.5323642542965],[126.88546586674407,37.53238285320101],[126.88550600384664,37.53240010160484],[126.88551753688142,37.532404617899196],[126.88554693488244,37.53241608938402],[126.88556107050076,37.53242033793165],[126.88570103064647,37.533073064650125],[126.88589673528783,37.533235885666066],[126.88589909381422,37.53324715038928],[126.88616920208446,37.5345397088286]]]},"properties":{"OBJECTID":83895,"PRESENT_SN":"11000UQ181PS202409110001","LCLAS_CL":"UQ1200","MLSFC_CL":"UQ1240","SCLAS_CL":" ","ATRB_SE":"UQ1240","WTNNC_SN":"11000AGZ202408260001","NTFC_SN":"11000NTC202408260009","DGM_NM":"목동6단지 아파트 재건축사업","SIGNGU_SE":"11000","DRAWING_NO":" ","CREATE_DAT":1726012800000,"DGM_AR":102424.77050016,"DGM_LT":1742.10219221,"SHAPE.AREA":102424.7705,"SHAPE.LEN":1742.10219221146}},{"type":"Feature","id":85637,"geometry":{"type":"Polygon","coordinates":[[[126.88616920208446,37.5345397088286],[126.88621075755586,37.53473886884538],[126.88605902088902,37.535262017264834],[126.8876576218478,37.53577010742118],[126.88756156000107,37.53592129145426],[126.88752333614687,37.53590918126308],[126.88601056490454,37.535429013952566],[126.88595084756511,37.535634922484434],[126.88553579598823,37.53639468316523],[126.88536670818434,37.53642776361913],[126.88502471166764,37.5370588423866],[126.88310660316712,37.5363948854547],[126.88306002372713,37.53630077511198],[126.88384819430641,37.53485195576978],[126.8838867934461,37.534768472180595],[126.88392132112786,37.53468390333213],[126.88395177736395,37.53459824922793],[126.88397804860226,37.534511780055986],[126.88400013471508,37.53442458591822],[126.884018035575,37.5343367569161],[126.88403163777343,37.53424847313734],[126.88404105446541,37.53415973469596],[126.88404617196046,37.534070901877044],[126.88404699041517,37.53398188458204],[126.88404350942086,37.53389295310853],[126.88403572885163,37.533804197555305],[126.88402364843996,37.53371579811992],[126.88400738134014,37.53362775491363],[126.8837222607877,37.53226679099697],[126.88367622041689,37.532046902705524],[126.88369446875126,37.53202574756882],[126.88438328798082,37.531926963068],[126.88457767320078,37.5319166140722],[126.8849043807211,37.53186422899204],[126.88495745816967,37.53185373976456],[126.88499318534865,37.53186918200495],[126.8850417780296,37.53190526967071],[126.8850800642556,37.531948465003246],[126.88510714200612,37.53199678493799],[126.88512991849203,37.532046452117484],[126.88515077084078,37.532096657992426],[126.88518247233341,37.53215462309268],[126.88520380541759,37.53218671946559],[126.88522842187366,37.532217287378806],[126.88525485008235,37.53224686597763],[126.88528399598103,37.53227491555646],[126.8853163136574,37.53230044546748],[126.88535112358926,37.53232390553637],[126.88538785995,37.53234538530396],[126.88542674999049,37.5323642542965],[126.88546586674407,37.53238285320101],[126.88550600384664,37.53240010160484],[126.88551753688142,37.532404617899196],[126.88554693488244,37.53241608938402],[126.88556107050076,37.53242033793165],[126.88570103064647,37.533073064650125],[126.88589673528783,37.533235885666066],[126.88589909381422,37.53324715038928],[126.88616920208446,37.5345397088286]]]},"properties":{"OBJECTID":85637,"PRESENT_SN":"11000UQ181PS202409100003","LCLAS_CL":"UQ1200","MLSFC_CL":"UQ1240","SCLAS_CL":" ","ATRB_SE":"UQ1240","WTNNC_SN":"11000AGZ202408260001","NTFC_SN":"11000NTC202408260009","DGM_NM":"목동6단지 아파트 재건축사업","SIGNGU_SE":"11000","DRAWING_NO":" ","CREATE_DAT":1725926400000,"DGM_AR":102424.77050016,"DGM_LT":1742.10219221,"SHAPE.AREA":102424.7705,"SHAPE.LEN":1742.10219221146}}]}