{"type":"FeatureCollection","features":[{"type":"Feature","id":85573,"geometry":{"type":"Polygon","coordinates":[[[126.89934134821273,37.45692333993066],[126.89930092183492,37.45701223326468],[126.89921195007697,37.457044945656946],[126.899038274372,37.45700580690933],[126.89892034591396,37.45697222325408],[126.89870363721248,37.45692034428307],[126.8987064729847,37.456904651243185],[126.89868216465828,37.456910657818796],[126.89813256334011,37.456771623599906],[126.89762564364442,37.45664096405119],[126.89753694126951,37.45642172738687],[126.8975088061094,37.456350964724976],[126.89737175620711,37.45610522104913],[126.89735693574417,37.45607493421793],[126.897437737832,37.4560814205563],[126.89733528374495,37.45575489613667],[126.8972809134092,37.455580584791505],[126.8972675903374,37.45553828886809],[126.89717708336664,37.45554585853688],[126.89712387323125,37.45539913691696],[126.89711287940301,37.45536433759341],[126.89741010498459,37.45530427747361],[126.89747364204563,37.45529050479382],[126.89772027270823,37.455244633424336],[126.89813199610617,37.45517193357215],[126.89847118229446,37.455098887951394],[126.89847264265421,37.45510538547245],[126.89849467901963,37.45521450560535],[126.89854451286939,37.455237191294096],[126.89857020161595,37.455254397643856],[126.89861517095646,37.45527222264739],[126.89873112694526,37.45531632683872],[126.89886720723673,37.45533096930701],[126.89892758539658,37.455337672950606],[126.89879568004645,37.455369344046474],[126.89888950465408,37.45559692035471],[126.89889610598289,37.45561283783796],[126.89897353833692,37.4556120130488],[126.8990852919289,37.45559716227786],[126.89910205497833,37.45570351343488],[126.8991242239069,37.45578251475468],[126.8992783768603,37.45578173908727],[126.89927686778616,37.45583588008227],[126.89927472886149,37.45591267089998],[126.89926643942457,37.45602420816325],[126.89928961299991,37.45610432666237],[126.89932633290103,37.456694968133796],[126.89932788384569,37.456718035203075],[126.89934134821273,37.45692333993066]]]},"properties":{"OBJECTID":85573,"PRESENT_SN":"11000UQ181PS201912150304","LCLAS_CL":"UQ1200","MLSFC_CL":"UQ1240","SCLAS_CL":" ","ATRB_SE":"UQ1240","WTNNC_SN":"11000AGZ201703300340","NTFC_SN":"11000NTC201702168009","DGM_NM":"무지개아파트 일대 주택재건축 정비","SIGNGU_SE":"11000","DRAWING_NO":" ","CREATE_DAT":1576368000000,"DGM_AR":28175.87408536,"DGM_LT":731.23399248,"SHAPE.AREA":28175.87408533,"SHAPE.LEN":731.233992482905}}]}