{"type":"FeatureCollection","features":[{"type":"Feature","id":86984,"geometry":{"type":"Polygon","coordinates":[[[127.01681182587008,37.503204352081724],[127.01619339047326,37.50357807450075],[127.01599480480203,37.503687552266584],[127.01571564601204,37.50339333995453],[127.01652159318846,37.50292938840706],[127.01681182587008,37.503204352081724]]]},"properties":{"OBJECTID":86984,"PRESENT_SN":"11000UQ181PS201912151297","LCLAS_CL":"UQ1200","MLSFC_CL":"UQ1240","SCLAS_CL":" ","ATRB_SE":"UQ1240","WTNNC_SN":"11000AGZ201711300458","NTFC_SN":"11000NTC201702238023","DGM_NM":"반포현대아파트 주택재건축정비사업","SIGNGU_SE":"11000","DRAWING_NO":" ","CREATE_DAT":1576368000000,"DGM_AR":3621.48052972,"DGM_LT":258.71682695,"SHAPE.AREA":3621.4805297,"SHAPE.LEN":258.71682695435504}}]}