{"type":"FeatureCollection","features":[{"type":"Feature","id":84142,"geometry":{"type":"Polygon","coordinates":[[[127.01966117333878,37.55669985475384],[127.01963176897301,37.556739692037546],[127.01961896194538,37.55675752459414],[127.01960943469706,37.55677063455812],[127.01960072429324,37.556782619960664],[127.0195795801451,37.55681641933245],[127.0195522513084,37.55682806430051],[127.0194943809274,37.5569046122262],[127.01943600169467,37.55693620079889],[127.01935895525162,37.556948294740934],[127.01929356268937,37.556947376583345],[127.0191849915675,37.556936238621205],[127.01910792459451,37.55690931052555],[127.0190305570873,37.55685530767419],[127.01898152249458,37.55682371721646],[127.01892467352782,37.556769008486334],[127.01888461790877,37.556755274286324],[127.01882347595547,37.5567330648487],[127.01880969013621,37.556727958254804],[127.01875081166433,37.55670553221036],[127.0187314118863,37.55669815593156],[127.01829863865522,37.55677267604272],[127.01802677827011,37.556702941695995],[127.01793026655096,37.556563409811],[127.01793898456052,37.556270352564916],[127.01764077510485,37.55607502296115],[127.01743899141478,37.55567036159713],[127.01752998298282,37.55472128218288],[127.01735013335467,37.55446447012057],[127.01738489587245,37.55402043935745],[127.0173825410385,37.55396283935403],[127.01732415157426,37.553885749430066],[127.0174573511907,37.55387842449272],[127.01745570460955,37.553745762876275],[127.01757219754278,37.553621022980565],[127.01761528263157,37.55357488640065],[127.01761593886408,37.553574183538586],[127.01770991445144,37.55347270924562],[127.01770994047517,37.55347268491529],[127.01773959199828,37.553446557526065],[127.01781623376253,37.553503932861794],[127.01784402189108,37.55347505227659],[127.01785348071165,37.553465221161716],[127.01792876539568,37.553536785410735],[127.01795017816302,37.55354174689073],[127.01804803075612,37.553569808098004],[127.0181234968897,37.55359075454919],[127.01815394146104,37.55359948987202],[127.01823932134532,37.553620560990616],[127.01835187504929,37.553649304615845],[127.0184174721733,37.55366682852142],[127.0184909804013,37.55368658571011],[127.0187349347126,37.55371071495811],[127.01873502289398,37.5537004796932],[127.01884688159296,37.553707716304345],[127.01898658050975,37.55371675968518],[127.018989281119,37.55374746504166],[127.01897657116952,37.55384032300081],[127.0189669225792,37.553909502475385],[127.01896501470698,37.553929675933794],[127.01895773503696,37.55401466743894],[127.01895185444702,37.55408155783793],[127.0189388226433,37.55415347681774],[127.0190122646844,37.55422635608524],[127.0190816215122,37.55429968640908],[127.01910418212452,37.55432391068324],[127.0191527900516,37.55437659335256],[127.01916615184537,37.55445697771876],[127.01917972227236,37.55455811185933],[127.01919026964497,37.554653236843386],[127.0192088398172,37.5547438016122],[127.01926841764957,37.55485788507677],[127.01931729132009,37.55493153367808],[127.01935393731242,37.554983263011856],[127.01936741117093,37.55501019157595],[127.01941799498286,37.55504090768789],[127.01949481640874,37.55508966662192],[127.01959648165955,37.55514868398384],[127.01962914909285,37.555173474230244],[127.01963833666673,37.55516523776962],[127.0197945151348,37.55521607460065],[127.01982751728174,37.55522084473646],[127.01983734263467,37.555229078263544],[127.01988962782865,37.55527388539594],[127.01988506425839,37.5553549842382],[127.01988517058614,37.55541932393459],[127.01988537434255,37.5554656257908],[127.01988568528357,37.55553364149422],[127.01988578090084,37.55555433722457],[127.0198859826679,37.555592530168155],[127.01988634969666,37.555658509623534],[127.01988670540881,37.55572448907993],[127.01988772057878,37.55580291110733],[127.01988860874147,37.55587107087543],[127.01986561373208,37.55601673752863],[127.0198531559793,37.55607365501063],[127.0198412698024,37.55610774131228],[127.01982054848483,37.55620331254794],[127.01979472830456,37.556320688528054],[127.01978552612835,37.55636234272395],[127.01978169240986,37.55637411925742],[127.01977882056458,37.55638547217666],[127.01976262554169,37.55643253339199],[127.01974666799926,37.55647891882549],[127.01971245683082,37.55657749241473],[127.01968701045058,37.556650818903144],[127.01967943306933,37.55667263303775],[127.01966117333878,37.55669985475384]]]},"properties":{"OBJECTID":84142,"PRESENT_SN":"11000UQ181PS201912151356","LCLAS_CL":"UQ1200","MLSFC_CL":"UQ1220","SCLAS_CL":"UQ1221","ATRB_SE":"UQ1221","WTNNC_SN":"11000AGZ201612058598","NTFC_SN":"11000NTC201606167801","DGM_NM":"금호제13주택재개발정비구역","SIGNGU_SE":"11000","DRAWING_NO":" ","CREATE_DAT":1576368000000,"DGM_AR":60049.0072219,"DGM_LT":1067.72513511,"SHAPE.AREA":60049.00722195,"SHAPE.LEN":1067.72513511192}}]}