{"type":"FeatureCollection","features":[{"type":"Feature","id":86766,"geometry":{"type":"Polygon","coordinates":[[[126.95326218136522,37.56138686550904],[126.95329681438588,37.561391137733416],[126.95342266342588,37.56140465885233],[126.95348804359772,37.56141204654791],[126.95355512196015,37.56141872311567],[126.95358457570288,37.56143025872868],[126.95407928875073,37.561470957994125],[126.95453529491058,37.561510576623704],[126.95457981145296,37.56151425234527],[126.95481797401114,37.56153391626911],[126.95489723003992,37.56154204748283],[126.95502827272483,37.561558686363476],[126.95515528631817,37.5615751343089],[126.95534918490337,37.56160042897432],[126.9554661364945,37.56161734116478],[126.95556954193138,37.56163156302078],[126.95564621635326,37.56164172896259],[126.9557896852376,37.56166083152549],[126.955770728338,37.56171464026647],[126.95575278064828,37.56176531395275],[126.95571540251024,37.56186666074062],[126.95568633323496,37.56194726997019],[126.95567623084078,37.56197641304727],[126.95566434895298,37.56200967295266],[126.95565445084442,37.562037879078204],[126.95564279671066,37.56206884154725],[126.95563624338025,37.56208740838682],[126.95563211708566,37.562097930336336],[126.95561794558914,37.56213654122191],[126.9554904119747,37.56209897438764],[126.95545945060098,37.562090276778825],[126.95535692505531,37.56206146815733],[126.95522055200307,37.56202414985195],[126.95520393962906,37.562019629381304],[126.95508290019426,37.56198672276731],[126.95497616362034,37.561959416810446],[126.95491480564598,37.56194423797086],[126.95479259926066,37.56191361010087],[126.95471247816128,37.56189458551553],[126.95462679717109,37.56187443243139],[126.95453239981366,37.56184928433681],[126.95443176188668,37.561825575260784],[126.95442401682658,37.56182379452027],[126.9544183743851,37.56182249754817],[126.95432892826425,37.56180191027088],[126.95419984233591,37.56176899052458],[126.95414396139192,37.56175584971438],[126.95409954457949,37.56174463258928],[126.95398657316765,37.56171609788755],[126.95396776434968,37.561712927842315],[126.95395910667531,37.56171176207933],[126.9538723753334,37.56169051692624],[126.95372834280641,37.56165791228478],[126.95368508966696,37.56164662699941],[126.95363378085437,37.561634414917556],[126.95356939959616,37.56162215425802],[126.95354101875924,37.56161412392548],[126.95344129430434,37.56159653209231],[126.95334684512503,37.56157744668514],[126.95325164287227,37.56155907988393],[126.95324496032673,37.561557790539425],[126.95316363775672,37.561542665694205],[126.95306920831327,37.561528274226646],[126.95305910220091,37.561526720377934],[126.9529518178646,37.56151022693803],[126.95286015947113,37.561497140174396],[126.95274609081336,37.561481115869846],[126.95268578204491,37.56147241441678],[126.95263705299247,37.561465291755525],[126.95266784782469,37.56135545769632],[126.95257924359048,37.56134712289412],[126.95257492825154,37.56134671656125],[126.95257005804233,37.561345010771745],[126.9524784225667,37.56131290924418],[126.95247839088303,37.56131289841916],[126.95242979081442,37.56129567833939],[126.95240400275671,37.56125212280526],[126.95239972972276,37.56126141923674],[126.95230648042228,37.56124658256092],[126.9523006980703,37.56124474753864],[126.95222081789564,37.56121941263448],[126.952158648039,37.56120142093564],[126.95213572285941,37.56119336551574],[126.95213709730362,37.561185860850074],[126.95207017247411,37.561170011470246],[126.9520457558241,37.56116330959506],[126.9520492020495,37.56115495886855],[126.95192221031128,37.56103934471142],[126.95187573674949,37.5610074752104],[126.95186805491184,37.561002741786695],[126.95179020025441,37.56094799194375],[126.95177656376397,37.56093849067369],[126.95166496731686,37.56086072337036],[126.9516232685177,37.56083136954514],[126.95156432911692,37.56078991713572],[126.95148715203366,37.560738086583164],[126.95145600942197,37.560714233205644],[126.95136548317953,37.56065350414758],[126.95134532359104,37.560639872624215],[126.95121122186261,37.560547401087845],[126.95116523372211,37.56051829754884],[126.95100507313855,37.560416867836416],[126.9509282228135,37.56036834368628],[126.9508832983991,37.56033980811571],[126.95088126021653,37.56032782588484],[126.95087424608909,37.560286573780594],[126.95094196107003,37.560220271966],[126.95094561908533,37.56021684977313],[126.95099197337434,37.56017262202849],[126.951009428943,37.560150996741065],[126.95104728388219,37.56010601751692],[126.9510786430333,37.56005991827867],[126.95110399650144,37.56000761766037],[126.95110998657658,37.55998652805514],[126.95112185057026,37.55994875463237],[126.95112524522249,37.55993302480557],[126.95113210380693,37.55986590401861],[126.95113368958216,37.559779977330486],[126.95113407133276,37.559700474182314],[126.95115757719277,37.55961508932774],[126.95141367913044,37.5596506062667],[126.95159088973816,37.55969161328427],[126.95207225276793,37.559911098660606],[126.95213852439392,37.55990318867732],[126.95224263581063,37.5598187148553],[126.95235937543632,37.559723992938146],[126.95239316671719,37.559695508704486],[126.95268708658818,37.55947861829209],[126.95270540720772,37.55946584082603],[126.95285597717984,37.55936209636849],[126.95286704192387,37.559354473150634],[126.95281921635997,37.55931416118288],[126.95292206644142,37.55923677251544],[126.95291018071097,37.55888967850476],[126.95303477635235,37.558941075326615],[126.95305742902529,37.558953069589585],[126.95310065376162,37.55897596434888],[126.95312900566095,37.55899037018107],[126.95312904639151,37.558990390920535],[126.95325850085517,37.559056170191425],[126.95334355915622,37.55899195535784],[126.95345141441597,37.559051508774736],[126.95349511862489,37.55907706961266],[126.95355981010404,37.55911397340939],[126.95362400409054,37.55915021023637],[126.95365108897197,37.559165745269844],[126.95378132618738,37.55923518500369],[126.95385141986259,37.5592757641581],[126.95397494533518,37.559388972841376],[126.95398216965374,37.55940122019784],[126.95397919694966,37.559466360544064],[126.95396835487149,37.5597114865915],[126.95387455879508,37.5600602326139],[126.95385596602722,37.56012721367421],[126.95376336752814,37.560474111236466],[126.95373707050476,37.56057103804326],[126.95373226063069,37.56065920691435],[126.95376590131504,37.56068919643963],[126.95420645643765,37.560759840165694],[126.95477929650058,37.56085074387614],[126.95490404118482,37.560870043727455],[126.95494714979733,37.560876713643445],[126.95528260521496,37.56093091294576],[126.95526029213003,37.56100883797861],[126.95525163895643,37.56109201391916],[126.95524446196899,37.56114904372783],[126.95524281275343,37.561162125445684],[126.95522639115445,37.561160551287266],[126.95520639374887,37.56124925484819],[126.9551971094127,37.56129326633321],[126.95516265875429,37.561288664975656],[126.95515817083489,37.56131652180115],[126.9551469132187,37.56136863240014],[126.9550658559129,37.561365303818796],[126.95498300716702,37.561365271195406],[126.95487380659611,37.56135221782206],[126.95475519098349,37.56133659279988],[126.95469204914193,37.56133336025393],[126.95469721345368,37.56131008974975],[126.95468365455444,37.56130793100801],[126.95460946144077,37.56129611661621],[126.95448246609375,37.56128759679567],[126.95439459859442,37.56127738959146],[126.95434083180149,37.56126848436664],[126.95432236255631,37.56126542263208],[126.95423675329668,37.56125127438503],[126.9541288278186,37.56123941464385],[126.95400967815284,37.56122762687242],[126.95381552850147,37.56119004942107],[126.95372573698049,37.56118007519885],[126.95361905968996,37.561168814654714],[126.95356132081191,37.56115928578082],[126.9535110406066,37.56114971486205],[126.95342513538911,37.56113335397734],[126.95335891005426,37.561120614025675],[126.95333281918487,37.56110715071018],[126.95332360992766,37.56114361809615],[126.95326218136522,37.56138686550904]]]},"properties":{"OBJECTID":86766,"PRESENT_SN":"11000UQ181PS201912151403","LCLAS_CL":"UQ1200","MLSFC_CL":"UQ1220","SCLAS_CL":"UQ1221","ATRB_SE":"UQ1221","WTNNC_SN":"11000AGZ201308298290","NTFC_SN":"11000NTC201304256819","DGM_NM":"북아현1-2구역주택재개발사업","SIGNGU_SE":"11000","DRAWING_NO":" ","CREATE_DAT":1576368000000,"DGM_AR":60329.16202335,"DGM_LT":1749.82152192,"SHAPE.AREA":60329.16202348,"SHAPE.LEN":1749.82152192081}},{"type":"Feature","id":85472,"geometry":{"type":"Polygon","coordinates":[[[126.95326218136522,37.56138686550904],[126.95329681438588,37.561391137733416],[126.95342266342588,37.56140465885233],[126.95348804359772,37.56141204654791],[126.95355512196015,37.56141872311567],[126.95358457570288,37.56143025872868],[126.95407928875073,37.561470957994125],[126.95453529491058,37.561510576623704],[126.95457981145296,37.56151425234527],[126.95481797401114,37.56153391626911],[126.95489723003992,37.56154204748283],[126.95502827272483,37.561558686363476],[126.95515528631817,37.5615751343089],[126.95534918490337,37.56160042897432],[126.9554661364945,37.56161734116478],[126.95556954193138,37.56163156302078],[126.95564621635326,37.56164172896259],[126.9557896852376,37.56166083152549],[126.955770728338,37.56171464026647],[126.95575278064828,37.56176531395275],[126.95571540251024,37.56186666074062],[126.95568633323496,37.56194726997019],[126.95567623084078,37.56197641304727],[126.95566434895298,37.56200967295266],[126.95565445084442,37.562037879078204],[126.95564279671066,37.56206884154725],[126.95563624338025,37.56208740838682],[126.95563211708566,37.562097930336336],[126.95561794558914,37.56213654122191],[126.9554904119747,37.56209897438764],[126.95545945060098,37.562090276778825],[126.95535692505531,37.56206146815733],[126.95522055200307,37.56202414985195],[126.95520393962906,37.562019629381304],[126.95508290019426,37.56198672276731],[126.95497616362034,37.561959416810446],[126.95491480564598,37.56194423797086],[126.95479259926066,37.56191361010087],[126.95471247816128,37.56189458551553],[126.95462679717109,37.56187443243139],[126.95453239981366,37.56184928433681],[126.95443176188668,37.561825575260784],[126.95442401682658,37.56182379452027],[126.9544183743851,37.56182249754817],[126.95432892826425,37.56180191027088],[126.95419984233591,37.56176899052458],[126.95414396139192,37.56175584971438],[126.95409954457949,37.56174463258928],[126.95398657316765,37.56171609788755],[126.95396776434968,37.561712927842315],[126.95395910667531,37.56171176207933],[126.9538723753334,37.56169051692624],[126.95372834280641,37.56165791228478],[126.95368508966696,37.56164662699941],[126.95363378085437,37.561634414917556],[126.95356939959616,37.56162215425802],[126.95354101875924,37.56161412392548],[126.95344129430434,37.56159653209231],[126.95334684512503,37.56157744668514],[126.95325164287227,37.56155907988393],[126.95324496032673,37.561557790539425],[126.95316363775672,37.561542665694205],[126.95306920831327,37.561528274226646],[126.95305910220091,37.561526720377934],[126.9529518178646,37.56151022693803],[126.95286015947113,37.561497140174396],[126.95274609081336,37.561481115869846],[126.95268578204491,37.56147241441678],[126.95263705299247,37.561465291755525],[126.95266784782469,37.56135545769632],[126.95257924359048,37.56134712289412],[126.95257492825154,37.56134671656125],[126.95257005804233,37.561345010771745],[126.9524784225667,37.56131290924418],[126.95247839088303,37.56131289841916],[126.95242979081442,37.56129567833939],[126.95240400275671,37.56125212280526],[126.95239972972276,37.56126141923674],[126.95230648042228,37.56124658256092],[126.9523006980703,37.56124474753864],[126.95222081789564,37.56121941263448],[126.952158648039,37.56120142093564],[126.95213572285941,37.56119336551574],[126.95213709730362,37.561185860850074],[126.95207017247411,37.561170011470246],[126.9520457558241,37.56116330959506],[126.9520492020495,37.56115495886855],[126.95192221031128,37.56103934471142],[126.95187573674949,37.5610074752104],[126.95186805491184,37.561002741786695],[126.95179020025441,37.56094799194375],[126.95177656376397,37.56093849067369],[126.95166496731686,37.56086072337036],[126.9516232685177,37.56083136954514],[126.95156432911692,37.56078991713572],[126.95148715203366,37.560738086583164],[126.95145600942197,37.560714233205644],[126.95136548317953,37.56065350414758],[126.95134532359104,37.560639872624215],[126.95121122186261,37.560547401087845],[126.95116523372211,37.56051829754884],[126.95100507313855,37.560416867836416],[126.9509282228135,37.56036834368628],[126.9508832983991,37.56033980811571],[126.95088126021653,37.56032782588484],[126.95087424608909,37.560286573780594],[126.95094196107003,37.560220271966],[126.95094561908533,37.56021684977313],[126.95099197337434,37.56017262202849],[126.951009428943,37.560150996741065],[126.95104728388219,37.56010601751692],[126.9510786430333,37.56005991827867],[126.95110399650144,37.56000761766037],[126.95110998657658,37.55998652805514],[126.95112185057026,37.55994875463237],[126.95112524522249,37.55993302480557],[126.95113210380693,37.55986590401861],[126.95113368958216,37.559779977330486],[126.95113407133276,37.559700474182314],[126.95115757719277,37.55961508932774],[126.95141367913044,37.5596506062667],[126.95159088973816,37.55969161328427],[126.95207225276793,37.559911098660606],[126.95213852439392,37.55990318867732],[126.95224263581063,37.5598187148553],[126.95235937543632,37.559723992938146],[126.95239316671719,37.559695508704486],[126.95268708658818,37.55947861829209],[126.95270540720772,37.55946584082603],[126.95285597717984,37.55936209636849],[126.95286704192387,37.559354473150634],[126.95281921635997,37.55931416118288],[126.95292206644142,37.55923677251544],[126.95291018071097,37.55888967850476],[126.95303477635235,37.558941075326615],[126.95305742902529,37.558953069589585],[126.95310065376162,37.55897596434888],[126.95312900566095,37.55899037018107],[126.95312904639151,37.558990390920535],[126.95325850085517,37.559056170191425],[126.95334355915622,37.55899195535784],[126.95345141441597,37.559051508774736],[126.95349511862489,37.55907706961266],[126.95355981010404,37.55911397340939],[126.95362400409054,37.55915021023637],[126.95365108897197,37.559165745269844],[126.95378132618738,37.55923518500369],[126.95385141986259,37.5592757641581],[126.95397494533518,37.559388972841376],[126.95398216965374,37.55940122019784],[126.95397919694966,37.559466360544064],[126.95396835487149,37.5597114865915],[126.95387455879508,37.5600602326139],[126.95385596602722,37.56012721367421],[126.95376336752814,37.560474111236466],[126.95373707050476,37.56057103804326],[126.95373226063069,37.56065920691435],[126.95376590131504,37.56068919643963],[126.95420645643765,37.560759840165694],[126.95477929650058,37.56085074387614],[126.95490404118482,37.560870043727455],[126.95494714979733,37.560876713643445],[126.95528260521496,37.56093091294576],[126.95526029213003,37.56100883797861],[126.95525163895643,37.56109201391916],[126.95524446196899,37.56114904372783],[126.95524281275343,37.561162125445684],[126.95522639115445,37.561160551287266],[126.95520639374887,37.56124925484819],[126.9551971094127,37.56129326633321],[126.95516265875429,37.561288664975656],[126.95515817083489,37.56131652180115],[126.9551469132187,37.56136863240014],[126.9550658559129,37.561365303818796],[126.95498300716702,37.561365271195406],[126.95487380659611,37.56135221782206],[126.95475519098349,37.56133659279988],[126.95469204914193,37.56133336025393],[126.95469721345368,37.56131008974975],[126.95468365455444,37.56130793100801],[126.95460946144077,37.56129611661621],[126.95448246609375,37.56128759679567],[126.95439459859442,37.56127738959146],[126.95434083180149,37.56126848436664],[126.95432236255631,37.56126542263208],[126.95423675329668,37.56125127438503],[126.9541288278186,37.56123941464385],[126.95400967815284,37.56122762687242],[126.95381552850147,37.56119004942107],[126.95372573698049,37.56118007519885],[126.95361905968996,37.561168814654714],[126.95356132081191,37.56115928578082],[126.9535110406066,37.56114971486205],[126.95342513538911,37.56113335397734],[126.95335891005426,37.561120614025675],[126.95333281918487,37.56110715071018],[126.95332360992766,37.56114361809615],[126.95326218136522,37.56138686550904]]]},"properties":{"OBJECTID":85472,"PRESENT_SN":"11000UQ181PS201912151403","LCLAS_CL":"UQ1200","MLSFC_CL":"UQ1220","SCLAS_CL":"UQ1221","ATRB_SE":"UQ1221","WTNNC_SN":"11000AGZ201308298290","NTFC_SN":"11000NTC201304256819","DGM_NM":"북아현1-2구역주택재개발사업","SIGNGU_SE":"11000","DRAWING_NO":" ","CREATE_DAT":1576368000000,"DGM_AR":60329.16202335,"DGM_LT":1749.82152192,"SHAPE.AREA":60329.16202348,"SHAPE.LEN":1749.82152192081}}]}