{"type":"FeatureCollection","features":[{"type":"Feature","id":84547,"geometry":{"type":"Polygon","coordinates":[[[127.02143255921752,37.64908499834032],[127.02137097750003,37.64910242457985],[127.02134274370299,37.649118034227826],[127.02130254567295,37.64914036715519],[127.0212554103034,37.64915336711995],[127.02122731033596,37.64916101209166],[127.02121231429307,37.64914382397698],[127.02135889056935,37.64909082745008],[127.02156156287892,37.64899988473711],[127.02171070236805,37.648898787839954],[127.02183326844582,37.64879441577838],[127.0219428283037,37.64865794406891],[127.02203732125096,37.64853669235858],[127.02216324657104,37.64837290000137],[127.0222741496628,37.64826288940313],[127.0223853868099,37.64815732045099],[127.02256108489917,37.64805934775546],[127.02263493013479,37.648016781467845],[127.02272830041126,37.64797896877893],[127.02285311256128,37.64793316768787],[127.02312335914219,37.647841119856274],[127.02346786115396,37.647757661935884],[127.02391613790704,37.647688139474724],[127.02427645110626,37.64762350298441],[127.02429094388486,37.64762401374464],[127.02435975494804,37.647612909429405],[127.02453150389687,37.647581891491654],[127.02451828095934,37.647620531526535],[127.0245044064937,37.64764088367501],[127.02449947963906,37.64764810505663],[127.02441860868501,37.647758670538295],[127.02441589023978,37.64776209477471],[127.02436729814728,37.64782382105127],[127.02435801187877,37.64784130178367],[127.0243581257981,37.64784328390886],[127.0243716557994,37.64799284330469],[127.02432010857513,37.64802573890037],[127.02420715760867,37.648097568458276],[127.02414360082052,37.648136232531066],[127.02402647929041,37.64820704461147],[127.02399449742374,37.648190679974654],[127.02393058001599,37.648161140121005],[127.02384150802955,37.64813439801956],[127.02373002972136,37.64820694762159],[127.02368471356209,37.64823740913031],[127.02369560275895,37.64827488768358],[127.02369979855928,37.64828569860622],[127.02367251470896,37.648368593518015],[127.02366856712342,37.64843049130508],[127.02366812384837,37.648464097789976],[127.02351722115256,37.64856845903015],[127.02344981510076,37.64862126876526],[127.02342002149365,37.64864812338054],[127.02334670714036,37.64864678550202],[127.02311458286228,37.64864272877436],[127.02297354484564,37.64865500777542],[127.02287836896754,37.64868167590936],[127.0227984528076,37.64869579062137],[127.02271180927768,37.64872222282795],[127.02251018473093,37.64878397571661],[127.0222810499163,37.6488554456237],[127.02216989817207,37.64888904449954],[127.02202034851408,37.64897966369958],[127.02195312655086,37.64908923402091],[127.02183717811292,37.64907022543454],[127.0216851888614,37.64915135735178],[127.02162491691706,37.64910938216447],[127.02159508696276,37.64908855668272],[127.02159051358664,37.64906325805969],[127.02156570841466,37.649060780989174],[127.02156167431696,37.64906037983926],[127.02152796882946,37.649080972857305],[127.02148705932252,37.6490696725409],[127.02143255921752,37.64908499834032]]]},"properties":{"OBJECTID":84547,"PRESENT_SN":"11000UQ181PS201912150492","LCLAS_CL":"UQ1200","MLSFC_CL":"UQ1220","SCLAS_CL":"UQ1221","ATRB_SE":"UQ1221","WTNNC_SN":"11000AGZ200812307663","NTFC_SN":"11000NTC200810022247","DGM_NM":"쌍문1구역주택재개발사업","SIGNGU_SE":"11000","DRAWING_NO":" ","CREATE_DAT":1576368000000,"DGM_AR":16481.98770515,"DGM_LT":759.01693115,"SHAPE.AREA":16481.98770508,"SHAPE.LEN":759.0169311482811}}]}