{"type":"FeatureCollection","features":[{"type":"Feature","id":85509,"geometry":{"type":"Polygon","coordinates":[[[127.05734826160973,37.52193852774524],[127.05729153822897,37.522042423982775],[127.05724070822788,37.52200012281938],[127.05736441009242,37.52177355507889],[127.05776610780926,37.52103778644018],[127.05803677043164,37.52054201873091],[127.058135580626,37.52057665072569],[127.06096438885312,37.52156807855401],[127.06125510227926,37.5216699614946],[127.06138158251483,37.521714286795344],[127.06116250941791,37.52207262704133],[127.06111663476823,37.522143376522955],[127.06106657315216,37.522212417106964],[127.06101266371232,37.522279476516694],[127.06095490637186,37.522344465548464],[127.06089330218536,37.52240729409665],[127.06082818803974,37.52246769168759],[127.06075956619526,37.522525658314414],[127.06068766049037,37.522581012758934],[127.06061269936379,37.522633666603376],[127.06053456841963,37.52268343789816],[127.06045372015315,37.52273032731225],[127.06002934213531,37.522964333927995],[127.05960496033454,37.52319833901238],[127.05943320543068,37.523293041353156],[127.05907066359138,37.52349294033683],[127.05892701260878,37.52337444380138],[127.05894879886203,37.523357830574085],[127.05924224990454,37.523134165960506],[127.0585181682459,37.52253174825322],[127.05819968529774,37.52277453952033],[127.05793801444857,37.5229740108804],[127.05713020815678,37.522301435277],[127.05707167349635,37.522309732156806],[127.05713856341993,37.522187204066576],[127.05715058369276,37.52224041028404],[127.0578802377657,37.522847608123676],[127.05797074653971,37.52284918939383],[127.05821684430526,37.52266158883732],[127.05821690542977,37.5226616392637],[127.0582170467522,37.52266153197743],[127.05821684430526,37.52266158883732],[127.05734826160973,37.52193852774524]]]},"properties":{"OBJECTID":85509,"PRESENT_SN":"11000UQ181PS202301180001","LCLAS_CL":"UQ1200","MLSFC_CL":"UQ1240","SCLAS_CL":" ","ATRB_SE":"UQ1240","WTNNC_SN":"11000AGZ202301100001","NTFC_SN":"11000NTC202301100002","DGM_NM":"청담삼익아파트 재건축사업","SIGNGU_SE":"11000","DRAWING_NO":" ","CREATE_DAT":1674000000000,"DGM_AR":61823.25143716,"DGM_LT":1401.07871015,"SHAPE.AREA":61823.243107345,"SHAPE.LEN":1401.0784263724402}}]}