{"type":"FeatureCollection","features":[{"type":"Feature","id":84215,"geometry":{"type":"Polygon","coordinates":[[[127.15369529105017,37.50190323333745],[127.15366491650641,37.50192642810047],[127.15363830243325,37.501964213274725],[127.15363828325158,37.501964234923356],[127.15358173740462,37.50201104787644],[127.15344124382705,37.501879955074585],[127.15341892270942,37.5018591707307],[127.15329340064245,37.5019783529527],[127.15309520124374,37.50180735389016],[127.15305852963706,37.501775713748195],[127.15269173032925,37.501459249629384],[127.15230719932046,37.501133237487934],[127.15222171570713,37.50106075947969],[127.15218557836968,37.50103012029012],[127.15216095764762,37.50099021946381],[127.15215607889432,37.500982314923824],[127.15219029151622,37.50095560175838],[127.15229191269691,37.500876094198006],[127.15230094066395,37.500866532098534],[127.15233568716965,37.500829799112964],[127.15239370328167,37.50076847519969],[127.15239810434434,37.50076378439008],[127.15240781915672,37.50075274376855],[127.15249570360835,37.50065283696276],[127.15252244444763,37.50062234905724],[127.15258145490614,37.50055514927261],[127.15261547354774,37.500516525038165],[127.15262331530216,37.50050761314917],[127.15266337003469,37.500461971416335],[127.15271425273365,37.5004358224171],[127.15279459342007,37.50039200314938],[127.15291905198742,37.50034912740334],[127.15304493296391,37.5003050784043],[127.15300047141255,37.500223613129855],[127.15299932497653,37.50022151527465],[127.15298807295086,37.5002048792598],[127.15296868816701,37.50017621633746],[127.15295878594819,37.50016157880473],[127.15288375371948,37.50005062696495],[127.15285186935088,37.5000034825486],[127.15292405627413,37.49998229769392],[127.15292116054094,37.49998196803576],[127.15297882652008,37.49996621675409],[127.15300087702661,37.499959746346526],[127.15318453690159,37.49990584726774],[127.15321668016696,37.49989640858901],[127.15336306532286,37.49985344114547],[127.15352582170638,37.49973607507158],[127.1536199656544,37.499668189840094],[127.15365497176751,37.49964295286065],[127.15368162190633,37.499623907479965],[127.15383330480766,37.49973423744196],[127.15400507976932,37.499859191502146],[127.15421743170911,37.50001368975119],[127.1543319374559,37.500096993024094],[127.15453248355458,37.50024449800791],[127.15501624653106,37.50060030340714],[127.15500627455634,37.500611479726864],[127.15498984413922,37.50062989043881],[127.15488931177858,37.500742555627546],[127.15488773560672,37.50074436057046],[127.15485432480442,37.500777199360705],[127.15480002087668,37.50082177822338],[127.15479872197861,37.500823131405426],[127.15479742534225,37.5008244845845],[127.15474190403111,37.5008826709678],[127.15473942139802,37.50088528708138],[127.15467206201139,37.50096132854104],[127.15467200444415,37.50096138177453],[127.15466043308726,37.50097080409318],[127.15462870747702,37.500996613752115],[127.15462453014472,37.50100004295764],[127.15458491686334,37.50104100319388],[127.1545453069186,37.501081957105285],[127.154481998173,37.50114752271213],[127.1544624725341,37.501167747461416],[127.15445929114986,37.50117099967709],[127.15445920198515,37.501171086288316],[127.15433604234268,37.50127999609766],[127.15433301924132,37.501282676872556],[127.15433299328565,37.501282703936056],[127.15429667992618,37.501332666178946],[127.1542564908201,37.50137092946044],[127.15425401822435,37.50137515833665],[127.15423350733822,37.501410323764894],[127.15423103155084,37.50141465265546],[127.15423093220375,37.50141473747767],[127.15416216752301,37.501475918499516],[127.15401507624688,37.50160675313344],[127.15391573567307,37.50169508900097],[127.15387288121124,37.501743106185344],[127.15387274920423,37.50174325862421],[127.15386428390597,37.501753628311626],[127.1538390154423,37.501784566016326],[127.15383529616966,37.50178916770196],[127.15383514264958,37.50178930755453],[127.15379454450105,37.50182742163811],[127.15369529105017,37.50190323333745]]]},"properties":{"OBJECTID":84215,"PRESENT_SN":"11000UQ181PS201912150185","LCLAS_CL":"UQ1200","MLSFC_CL":"UQ1220","SCLAS_CL":"UQ1221","ATRB_SE":"UQ1221","WTNNC_SN":"11000AGZ197312013062","NTFC_SN":"11000NTC197312011134","DGM_NM":"마천1구역주택재개발사업","SIGNGU_SE":"11000","DRAWING_NO":" ","CREATE_DAT":1576368000000,"DGM_AR":35625.15435594,"DGM_LT":787.25257388,"SHAPE.AREA":35625.15435589,"SHAPE.LEN":787.252573874779}}]}