{"type":"FeatureCollection","features":[{"type":"Feature","id":85254,"geometry":{"type":"Polygon","coordinates":[[[126.96096290044048,37.50590103148924],[126.96083335542923,37.50557312105241],[126.96081850199491,37.50555925858953],[126.96073700234598,37.50547956425501],[126.96070398076196,37.505453775302975],[126.9605537953948,37.505481735345356],[126.96051109776539,37.50532274846996],[126.9605043370567,37.50531822311375],[126.96045516666568,37.50526950529605],[126.96033677009406,37.50503515958101],[126.96029421185136,37.50489136348913],[126.95995131063601,37.50490080472897],[126.95980024943754,37.50491889577873],[126.95978149585274,37.50492293643762],[126.95970757973082,37.50495722030239],[126.95935196380246,37.50513168748513],[126.95932875683182,37.505171144709635],[126.95928893789036,37.505287485349534],[126.95934967110139,37.50542772033065],[126.95939565916376,37.50546287385079],[126.95943848178872,37.50557643466104],[126.95945475150776,37.50568606485995],[126.95948870246016,37.50576828218123],[126.95952654922769,37.505861433583576],[126.95953421761605,37.505880960930995],[126.95957450916791,37.505970965098804],[126.95958553124049,37.50600004420949],[126.95963855411466,37.50607628923024],[126.95964994705616,37.50608940278574],[126.9597095049383,37.50616956582551],[126.95971377894672,37.50617153151307],[126.95976621095701,37.50625317324165],[126.95974041567563,37.50630975578931],[126.95973630884666,37.50631220324872],[126.95973045505548,37.50630377684959],[126.95972797223783,37.506294191157615],[126.95969029430796,37.50624219746271],[126.95968696046799,37.50623761921381],[126.95964887191795,37.50624661930229],[126.95947129119175,37.506068644317686],[126.95942660257663,37.506044936668026],[126.95939870300911,37.506013790944806],[126.95937267463754,37.50596559449959],[126.95934107196565,37.50589886253401],[126.9593011073004,37.50581137128522],[126.95924346222769,37.505723871894226],[126.95922207905433,37.50568753871185],[126.95916539663953,37.505588001393654],[126.95915943037696,37.505536640576224],[126.95909659985702,37.505431733773754],[126.9590473648595,37.50531486657267],[126.9590171932227,37.5052704356261],[126.95894128423302,37.505108498972795],[126.95890866039025,37.50511257684029],[126.95890500554005,37.50509590796188],[126.9588640415688,37.50510268490117],[126.95885251870216,37.505081887510684],[126.95883382656481,37.50502948052229],[126.95886997059104,37.50502026645613],[126.95882569994812,37.50485582555271],[126.95881079991855,37.50485914575069],[126.95878541817258,37.50474534053183],[126.95877207286487,37.504745335703916],[126.9587656322078,37.50473515209644],[126.9586963073562,37.50473008140024],[126.9586522603364,37.50461461965599],[126.95861415630729,37.504529351593185],[126.95856596615097,37.504430902754514],[126.95858079490203,37.50440775249613],[126.95857080793544,37.50427461469605],[126.958571535837,37.504267469145304],[126.95857670535436,37.50425967649048],[126.95855384785135,37.50424756957851],[126.95854355199532,37.50423516810085],[126.9584720479462,37.50420506675457],[126.95849979557113,37.50415620672779],[126.95851874560319,37.504124930974314],[126.95861507647551,37.504051768914344],[126.95861282424866,37.50401510558419],[126.95857054151239,37.50391045821529],[126.95853208974931,37.50389003572308],[126.95855527374454,37.50385123906971],[126.95853959622288,37.50373742829732],[126.95853907889732,37.503643563927305],[126.95853841624101,37.50356648149424],[126.95853671315346,37.503558398921335],[126.95853306658452,37.50354728828757],[126.95852972312348,37.50354009710587],[126.95847123337325,37.50349637019063],[126.95855548496549,37.50349640626516],[126.95917600657816,37.503496596053274],[126.95919499841726,37.503468598934944],[126.95921849490111,37.503396266207865],[126.95923102729502,37.50336736036616],[126.95923765092351,37.50336383442799],[126.95923970340225,37.503346089102536],[126.95924266998803,37.50333982822683],[126.95930010937263,37.50332137830424],[126.95931048081482,37.503318037504805],[126.95933152005045,37.50331126951321],[126.95936237108278,37.50335314991077],[126.95940355842568,37.503416054272286],[126.95950498597489,37.50354844701373],[126.95962223399475,37.50370425320778],[126.95968075437722,37.50377565101662],[126.95968456496874,37.50377688673341],[126.95982417969694,37.503879118282775],[126.95992526050162,37.50394587282103],[126.96069829845077,37.50394614425082],[126.96092570799264,37.50394622350703],[126.96090740036327,37.50408588723375],[126.96088785281773,37.5042825053168],[126.9608867169866,37.50431655544375],[126.96088306508821,37.504352132797734],[126.96088480169554,37.504373991607046],[126.96088057559878,37.50450077859334],[126.96091572349621,37.50496637506916],[126.96098981300622,37.505321709031485],[126.96110950040529,37.50568377096497],[126.96116789981487,37.505821537272595],[126.96117280700435,37.50584065812177],[126.96096290044048,37.50590103148924]]]},"properties":{"OBJECTID":85254,"PRESENT_SN":"11000UQ181PS201912150281","LCLAS_CL":"UQ1200","MLSFC_CL":"UQ1220","SCLAS_CL":"UQ1221","ATRB_SE":"UQ1221","WTNNC_SN":"11000AGZ201306258259","NTFC_SN":"11000NTC201305236837","DGM_NM":"흑석8 주택재개발사업","SIGNGU_SE":"11000","DRAWING_NO":" ","CREATE_DAT":1576368000000,"DGM_AR":34698.43876426,"DGM_LT":1243.48271201,"SHAPE.AREA":34698.43876434,"SHAPE.LEN":1243.48271200843}}]}