{"type":"FeatureCollection","features":[{"type":"Feature","id":86657,"geometry":{"type":"Polygon","coordinates":[[[127.08486690461011,37.67359622263276],[127.08492719755893,37.67367834864571],[127.08497879524334,37.673749182592644],[127.08508398344605,37.67388865964298],[127.08500500316188,37.67397467908832],[127.08499089895393,37.673990039827],[127.08497620336695,37.67400569109526],[127.08495979971734,37.67402452400026],[127.0849249601754,37.674120087685424],[127.0849211525952,37.674131163320496],[127.08491938007053,37.674136501930384],[127.08490319120693,37.67418524333333],[127.08490229115671,37.67419230668708],[127.08490693292251,37.67423382288642],[127.08490733138952,37.67423739766056],[127.08492610692421,37.67440535254421],[127.08493183594774,37.674429810775926],[127.08502333145142,37.67457893704169],[127.08502744438209,37.67458745822306],[127.08503731427295,37.67464531974499],[127.08504304341113,37.674669831127545],[127.08514015421652,37.67477182439408],[127.08518720224342,37.67481788474129],[127.08521703505393,37.67501811353102],[127.0850718760272,37.67509048337438],[127.08483477727155,37.675205164571516],[127.0842337357438,37.67572203347426],[127.0841796308237,37.67569078156238],[127.08417709047933,37.67568970217674],[127.08395977590496,37.67556482644176],[127.08392385311961,37.67554367781097],[127.08375168286369,37.6754445649581],[127.08364509448175,37.675381733383134],[127.0836319367644,37.67537391310043],[127.08350119038961,37.67529858371394],[127.0834634291896,37.67527531082762],[127.08346080715407,37.67527207816113],[127.08327330207682,37.67516329882159],[127.08319918983325,37.6751206441105],[127.08310105639647,37.675066176211345],[127.08293801995606,37.674973146412405],[127.08292351108564,37.67496313762162],[127.08291976791742,37.674960851736834],[127.08291333646866,37.67495691892888],[127.08283480854831,37.67490818547547],[127.08267388590983,37.674809108331594],[127.08265072300885,37.67479429427195],[127.08246235681818,37.67467322497184],[127.08242350754115,37.674649465971754],[127.08235864981292,37.67461040826726],[127.08224846538475,37.67454284778317],[127.08222251199314,37.67452602638155],[127.08205347953216,37.67442071920797],[127.08202984119274,37.67440627474833],[127.08196086502709,37.67436337248493],[127.0818329943451,37.67428161534506],[127.08183344843287,37.67417706627359],[127.08183455481881,37.67408877929668],[127.08183506838888,37.6740394246139],[127.08183631918298,37.673895816967054],[127.08183759098036,37.673761183882725],[127.08183839914696,37.673732757671246],[127.08185750385995,37.67365321677805],[127.08187878782807,37.6735553837664],[127.08189759128501,37.6734698588144],[127.08196403388219,37.67334014654874],[127.08197872726043,37.6733114856211],[127.08204417184837,37.67322351421434],[127.08203470429011,37.6731790045559],[127.08205226287613,37.673043125102346],[127.08205552458206,37.67304053798696],[127.08207561347378,37.6730329552043],[127.08208364766851,37.67303076035549],[127.08212036884889,37.67297423531918],[127.0820881872023,37.67289954961131],[127.08206050786518,37.67283741856689],[127.08205976826513,37.67283480715414],[127.08196412319099,37.67262481080249],[127.08189376104298,37.6726415699953],[127.0818418951296,37.6726539234133],[127.08171388127582,37.67268907544235],[127.08165340795163,37.67270924425406],[127.08153039896591,37.67275026792193],[127.0815126778372,37.67275665882243],[127.08149146550913,37.6727630439785],[127.08139430367028,37.67279669714547],[127.08136895660215,37.67280548166467],[127.08133731857345,37.67281425962375],[127.08121343874552,37.672857437773715],[127.08119732453898,37.67286139491677],[127.08119407445217,37.672853665871635],[127.08108275144241,37.67285224629936],[127.08097727203106,37.67282460259956],[127.08094195004348,37.6728120938673],[127.08091383882955,37.67283307931033],[127.08078160663172,37.67259022924873],[127.08077372383329,37.672575964049585],[127.08077277099613,37.672574242932264],[127.08073108007267,37.672498859577836],[127.08072093747931,37.672479621625854],[127.08071232747395,37.672366600464436],[127.08070978029457,37.67232693237517],[127.08069420858314,37.67230797736628],[127.08069091729209,37.67230406935664],[127.08068931681422,37.672301953146516],[127.08064562418667,37.672252014552896],[127.0806050409669,37.6722054434935],[127.08058767715436,37.67218532741769],[127.0805886779248,37.6721777495717],[127.0806006520093,37.67210710533355],[127.08060344589995,37.67209092200175],[127.08060421114862,37.67208571387001],[127.08062501538548,37.671940580343815],[127.08064453271277,37.671800484107855],[127.08064878490654,37.67176997433895],[127.08066493442087,37.671660702612215],[127.08068990239286,37.67148740188006],[127.08068996659465,37.67148701892378],[127.08069405835639,37.671462370083376],[127.08069782853107,37.67143696013708],[127.08070309901328,37.67143675838536],[127.0808513737685,37.671344516332375],[127.0808714997966,37.671318897165186],[127.08092584476199,37.671249936220434],[127.0809753818587,37.67125369595649],[127.08100275730142,37.67125547044838],[127.08106540896227,37.67128064642833],[127.08109904287886,37.67129457980212],[127.08116668104539,37.67130832803636],[127.08116364214084,37.67131783534498],[127.08120156900792,37.67132898178676],[127.08123709287806,37.67134010281112],[127.0813713753983,37.67138143868783],[127.08141582947866,37.67138041751723],[127.08140981822602,37.67141917240255],[127.08147117235487,37.67147079257848],[127.08147186711999,37.671474962707805],[127.08147401303374,37.67148785506615],[127.08147579500154,37.67148797729148],[127.08147608746239,37.67148799781559],[127.0814775797803,37.671493889162086],[127.08149139076615,37.67154833726061],[127.08149181537036,37.671550028097506],[127.08149697423468,37.67156939009562],[127.08151846995986,37.671649935944956],[127.08152111254307,37.67165983673767],[127.0816826615795,37.67166932511877],[127.08168595456617,37.671669518391816],[127.08169678027664,37.6716703669576],[127.08170940241102,37.67163420236522],[127.0817175928586,37.671608807401654],[127.08172510980341,37.67157900714148],[127.0817257549713,37.67158025995508],[127.08172664321687,37.6715819883167],[127.08172955445075,37.67157292165623],[127.08173154497395,37.67156671710936],[127.08173214484297,37.67156484808516],[127.08174825054562,37.67155433089576],[127.08175260120368,37.671551490775286],[127.08178627489276,37.67152950126407],[127.08178653654407,37.6715293308023],[127.08182100531985,37.67150783717574],[127.0818270867763,37.67150286867892],[127.08188316444912,37.671464728374275],[127.08195522714466,37.671418837792714],[127.08195895374303,37.67141646569467],[127.0819863321524,37.6713999141819],[127.08199576617018,37.67139155573386],[127.0820170654581,37.67137268385286],[127.08204163849443,37.671350908602804],[127.08204640574743,37.67134655365276],[127.08208591395778,37.671310505806794],[127.08214061397567,37.67126694246688],[127.08214917536243,37.67125980091528],[127.0821800274872,37.67125868063666],[127.08223327514854,37.67125672784619],[127.08223434171084,37.6712566883746],[127.08231189206609,37.67125449998061],[127.08239078986146,37.671219686408094],[127.08239627331854,37.67121730408197],[127.0824485813576,37.67119453667744],[127.08245543573301,37.67119161282465],[127.08248087058162,37.671180783703655],[127.08250247536293,37.671170966295556],[127.08255386723637,37.67117090397316],[127.0822657505309,37.67093243400094],[127.08222800228009,37.67090825070971],[127.08207076373611,37.67081119733796],[127.08197957279505,37.670755930866136],[127.08191360923718,37.67072863133204],[127.08180666440802,37.67068495295546],[127.08179310235185,37.67067962842937],[127.08167176598262,37.670628571749894],[127.0816393414601,37.67061127708954],[127.08162440452962,37.670603843400656],[127.08154999890253,37.67056681168614],[127.0815484628409,37.670571894212145],[127.08153414911473,37.670615988497595],[127.08134910243724,37.67051365530051],[127.08127928563559,37.67047586169028],[127.08125236999945,37.67046923071054],[127.08104411766092,37.67042018901201],[127.08096475953764,37.670401500458766],[127.08097196621962,37.670356933512444],[127.08098040216444,37.67034907135119],[127.08098102042297,37.67034849521338],[127.08100131650457,37.670329578238636],[127.08102155070578,37.67031216502493],[127.08102931008925,37.67030548539185],[127.08096886795161,37.67027883931505],[127.08089829359997,37.6702477366087],[127.08086025366858,37.670230971679395],[127.08075661432181,37.67010742793073],[127.08068326774934,37.669989864238936],[127.08067231140029,37.66997249183337],[127.08066488857635,37.66997375817528],[127.08063090594932,37.669983051976956],[127.08055469042444,37.6700029154501],[127.08045931260722,37.670027107356724],[127.08048320422833,37.67008964587994],[127.08050967409237,37.67015712900959],[127.08050497153909,37.670158375500364],[127.08053192583361,37.67024440932103],[127.0805086283228,37.67025163991062],[127.08049456777731,37.67025600282351],[127.08041293936418,37.67028096032193],[127.08030009142868,37.670302307699366],[127.08028277425312,37.67030437348042],[127.08026831850817,37.67030053597973],[127.08023667080654,37.67034220004563],[127.08023283283,37.670346437176796],[127.08019284324418,37.67039928786363],[127.08016216795866,37.67043878892669],[127.08013479772886,37.67047389103389],[127.08012968020407,37.67047934532702],[127.08011530806077,37.67050106833724],[127.07996778905941,37.67070755226478],[127.0799600927863,37.6707183240019],[127.07993759319784,37.670750485653095],[127.079935988059,37.67075250579908],[127.07993249932333,37.670756903962086],[127.07981530016619,37.670715582133475],[127.07975253111309,37.670696496137374],[127.07953362228827,37.670630185399595],[127.07951969894769,37.6706260591441],[127.07928037191822,37.6705551214274],[127.07913144168651,37.670486313145155],[127.07899820580994,37.670391420226665],[127.0786319368837,37.670128179866346],[127.07853116595608,37.67005651027515],[127.07849943968421,37.670033916575925],[127.07840923932724,37.66996851074877],[127.07830562081236,37.66989389663896],[127.07829028304022,37.66990289832689],[127.07827407697006,37.66991293849809],[127.07823315908838,37.66993828964844],[127.07815846174003,37.669983441783415],[127.07814056275147,37.66996751430772],[127.07814079920352,37.669965982501],[127.0781318498101,37.669959768000055],[127.07812805000047,37.669957125212804],[127.07807132729629,37.669919798710175],[127.07797040356921,37.6698530660652],[127.07791722000634,37.669818268926555],[127.07788370225224,37.66977266538434],[127.07781023342281,37.66967486731256],[127.07771536088235,37.66960614839316],[127.07763428255492,37.66954843038063],[127.07762393828172,37.66954140946932],[127.07761749371588,37.66953499870275],[127.07753272093449,37.66942215249489],[127.07753155418668,37.66942284699555],[127.0775115189142,37.66939358370313],[127.07752173166107,37.66938280509607],[127.07758279388885,37.669319274204284],[127.0776113714902,37.66927809934827],[127.07767360796718,37.669143724179115],[127.07766735620964,37.6691374033876],[127.0774711778107,37.66889152830997],[127.0773926352587,37.668796373079196],[127.07702064703808,37.66834526950529],[127.07696786626147,37.66828138827271],[127.07691032067841,37.668201878184625],[127.07688882205018,37.66817083539324],[127.07693144293972,37.66815217603841],[127.07694967106968,37.66814346999738],[127.07696332308393,37.668137686031855],[127.07700217083001,37.6681202363679],[127.07706718912358,37.66809121946321],[127.07711616580308,37.66806992422945],[127.07721218176547,37.66802817555146],[127.0773150900251,37.66800984675692],[127.07739004154111,37.66799647318741],[127.0774147121676,37.66799238492065],[127.07770399141398,37.66816366256847],[127.07795292561667,37.66830562997892],[127.07805005492449,37.66835486822975],[127.07807281473647,37.66836630482445],[127.07826276667834,37.66845371990467],[127.0783185611979,37.66848223541674],[127.07837157739739,37.668509356204744],[127.0784248073062,37.66853484606896],[127.07850861012136,37.66857519101771],[127.07862707789295,37.66863061355395],[127.07876174809012,37.668614659320426],[127.07884098774606,37.66860455255291],[127.0788789186854,37.668599446198414],[127.07897675836642,37.668600544249735],[127.07904122878347,37.668600880307736],[127.07906572255533,37.66860100836421],[127.07909638753486,37.66860622285272],[127.07921244996612,37.668626211128945],[127.07923528499802,37.668622574177085],[127.07928678092445,37.668615287409786],[127.07932723381468,37.668583105020865],[127.07936454945427,37.668553231178244],[127.07937204671916,37.66854738792773],[127.07938769738773,37.6685345026986],[127.07949305690728,37.66838889899008],[127.07949355630295,37.668388468896026],[127.07949843588345,37.66838426443495],[127.07958268775194,37.66833351097841],[127.07961900278084,37.6683116293439],[127.07959929626375,37.668272098698395],[127.07959470725199,37.66826261449343],[127.07953638091531,37.66816536605171],[127.07947345420564,37.66805843516296],[127.07935050585756,37.667847400416385],[127.0793141664216,37.66778494012471],[127.07926686756423,37.66770364229832],[127.07920174648697,37.66762201201792],[127.07919425585517,37.66761347843138],[127.07916099683028,37.66757558378769],[127.07921813319032,37.66753250759836],[127.07928154989196,37.667479758902026],[127.07940681516652,37.66750084912126],[127.07946862909093,37.66754135206747],[127.0794779096794,37.66755013041933],[127.07949358909258,37.66756494105873],[127.07953156943415,37.667575096940126],[127.0796018647652,37.66759707020625],[127.07966524398246,37.667616885677525],[127.07972575472404,37.667635802043606],[127.07975771646841,37.667645790657204],[127.07983814809401,37.66767093749287],[127.07986240310647,37.667670651095094],[127.07999073603783,37.667698315757185],[127.08007155364247,37.6677024064431],[127.0801255045084,37.667702190310266],[127.08015629400843,37.6677118345243],[127.0801573643168,37.66771216987364],[127.0801446711798,37.667756325999925],[127.0800928594311,37.66793646497394],[127.08005008185414,37.66808524405573],[127.07998681874001,37.668283860536064],[127.07997096440864,37.66829693518489],[127.079941564308,37.66836272573885],[127.08006401807505,37.668403188037544],[127.08023865716866,37.66848821354205],[127.0803089869649,37.66848816658846],[127.08034803388635,37.66848814050185],[127.0803713427458,37.66855749981669],[127.08043544021159,37.668612416283935],[127.08042639533323,37.668655218534084],[127.08042145556779,37.668678557029054],[127.08042656310765,37.66868522080999],[127.08044685933449,37.66868172046775],[127.0806059540412,37.66865428741264],[127.08072663206552,37.66863350209314],[127.08079464870615,37.66862178880766],[127.08087122122876,37.668608601142466],[127.080875890145,37.66860779613603],[127.0810886968897,37.66856847849392],[127.08115574926903,37.66855608992106],[127.08119987667655,37.668547933349416],[127.08142878293145,37.66850272987606],[127.08157485275969,37.66847443039267],[127.08158502890667,37.66847245035612],[127.08168482994652,37.6684530657219],[127.0816888528045,37.668452279141775],[127.08193514643848,37.66840804492748],[127.08194665992427,37.66840597385078],[127.08196798739121,37.668402436504714],[127.0820981845807,37.66838080538465],[127.08223827482979,37.668357545600905],[127.08228606324079,37.66834961136073],[127.08246770895711,37.66831943941389],[127.0824698621017,37.66831908655702],[127.08256462432865,37.66832552651229],[127.08259353996928,37.6683270833447],[127.08262067295577,37.66835698599538],[127.08326349477079,37.66906411211235],[127.08324730197432,37.66906790741701],[127.08328419001141,37.669093739765906],[127.08326498560902,37.66913161194162],[127.0833620171017,37.66986177384094],[127.0833592878613,37.66986395608771],[127.08335041030236,37.66987193585242],[127.0833886757329,37.669964664410564],[127.08344971674195,37.67011279594938],[127.08345254994335,37.67013300279196],[127.08334070522335,37.670158604971135],[127.08319015554979,37.67019721685989],[127.08301916570424,37.67024286125495],[127.0830035871879,37.67026965792541],[127.08303535848115,37.67028025843848],[127.0831125178432,37.6702635371043],[127.08312263744078,37.67027183706931],[127.08313912021731,37.67028418700638],[127.08313672035835,37.67040086458554],[127.08313492748265,37.6704300933685],[127.08307218799806,37.67051109813363],[127.08306358061459,37.67055891868487],[127.08306252229175,37.67057580363756],[127.08312357431375,37.67063060360229],[127.08320391573264,37.670714257331184],[127.08323079282545,37.67071650916662],[127.08327975117679,37.670719871908474],[127.08328217719095,37.670720221606125],[127.08328372600647,37.670726869708055],[127.08330205084869,37.670827063141424],[127.08330907699091,37.67086710648717],[127.08331216491013,37.67088187128146],[127.08331391121784,37.67089288896129],[127.08331737174898,37.67091667222928],[127.08331973492062,37.67093205018693],[127.08345551231892,37.67103367571948],[127.08345838693732,37.671039971518624],[127.08346841178727,37.67106505663133],[127.08348721179887,37.67111260589304],[127.08339071880327,37.6711229259683],[127.08338065494833,37.67112423035278],[127.0833605265152,37.67112618140995],[127.08326138446672,37.67113953048394],[127.08322991135601,37.67114280479919],[127.08315005828422,37.671153608684655],[127.08312983950408,37.67115587510527],[127.08301103377978,37.671160930607584],[127.08299860076653,37.67116207442116],[127.08286798985887,37.67118272475245],[127.0828562830427,37.671184579818274],[127.08284129112425,37.67118825711161],[127.08279209625832,37.671207337569],[127.08271998006738,37.671234677682236],[127.08271212807871,37.671237457180496],[127.08281015744944,37.67128453844191],[127.08283513918104,37.67127397984863],[127.08287277427081,37.671256448008954],[127.08289468156501,37.6712641902688],[127.08295007286513,37.671283207605924],[127.0829831248346,37.67129327567335],[127.08301867172071,37.671304486242434],[127.08305022826379,37.67131524006307],[127.08316016563327,37.671295477783495],[127.0832199894137,37.67133561071407],[127.08322729292124,37.67133915548579],[127.08323337215162,37.67134259298846],[127.08324339413065,37.67133408086805],[127.08325949682093,37.671320023554344],[127.08331370297806,37.67127118932564],[127.0833750133326,37.6712921844975],[127.08337567310615,37.6712943283535],[127.08340224950202,37.67129093126252],[127.0835077704558,37.67133688863643],[127.08351659269265,37.67134029718878],[127.0835305650803,37.67133717011159],[127.0835465429442,37.671333329870144],[127.08372911896238,37.67128752347866],[127.08374609443666,37.67128383568017],[127.08383693635355,37.67126762689996],[127.08384522050747,37.671266188572815],[127.08390160592229,37.6712511930687],[127.0839675566325,37.67140310135631],[127.0839648671716,37.67140644043701],[127.08391874115827,37.6714637889125],[127.0839203279981,37.671463755369025],[127.0839101653996,37.67147830415847],[127.08391060124264,37.671482934850985],[127.08391985895267,37.67151111079364],[127.08393626299116,37.67155439104567],[127.08396772704441,37.671635015074855],[127.0839766240533,37.67166497518926],[127.08401029571536,37.67177380709947],[127.0840210157736,37.671812289131104],[127.08389649504662,37.671785464118926],[127.08386798052804,37.671778870893284],[127.08380747595703,37.67167714831475],[127.0837711259559,37.671616358047245],[127.08376820961834,37.671613386872664],[127.0836837050219,37.671661864007234],[127.08368103290834,37.671705635094774],[127.08367982522877,37.671730872165334],[127.08376208130348,37.67176067306037],[127.08376520733164,37.671768770620204],[127.08374566993858,37.671803165336875],[127.08374302437801,37.671803167181],[127.08372400730528,37.67182220896639],[127.08371260113155,37.67183362862746],[127.08371049516244,37.67183573296377],[127.08367108807023,37.67189724275168],[127.08367150875964,37.67193955210847],[127.08367128733252,37.6719854658005],[127.08367157563548,37.672041352898134],[127.08347883596862,37.67197893248147],[127.08347076235594,37.67197606398987],[127.08346415211544,37.6719742576282],[127.08343560083466,37.671965186650546],[127.08346133372851,37.671926354899746],[127.08319913398319,37.671791255786275],[127.08314413427073,37.671819701508355],[127.08309059509915,37.671846668600416],[127.08310622171456,37.67188424634972],[127.08316485458097,37.67202675758669],[127.08319428100184,37.67210004030392],[127.083195871189,37.67210304844959],[127.08320287323203,37.672121045023076],[127.08321028265445,37.672138419643225],[127.08317174399889,37.67219027023946],[127.08314581450762,37.67219988624063],[127.08312230970424,37.67220860319051],[127.08312747010191,37.67222169074448],[127.08319558653476,37.672412163147236],[127.08323149004535,37.67246898961626],[127.0833321812447,37.672615823308185],[127.08336529507362,37.67263002668445],[127.08342158909392,37.67265461117572],[127.08342627718837,37.6725988557737],[127.08343098031551,37.67252893888255],[127.08343237776182,37.6725081687054],[127.0834315340216,37.67250366443125],[127.08338898951732,37.67233468062512],[127.08350338255384,37.67229395832624],[127.08344919866482,37.67221926034135],[127.0834597174806,37.67221924402518],[127.08367896071618,37.67223191235621],[127.08368841735252,37.672296577542646],[127.08368863660067,37.67230010019061],[127.08390267168872,37.67232814231631],[127.08391019946532,37.67232937139029],[127.08390390601207,37.672470621170106],[127.08389589473556,37.67255497576432],[127.08382014552366,37.67257785926996],[127.08379174434222,37.672807680995405],[127.08400827826559,37.67286972386496],[127.08399153744494,37.67292188382703],[127.08399982411301,37.67292255376196],[127.0842617649146,37.67297267157645],[127.08431751087538,37.67298297561778],[127.08438596890143,37.67297778299559],[127.08443099905763,37.672974134851614],[127.08440299438818,37.673018747237144],[127.08434480795329,37.67311145847536],[127.08458688750521,37.67319543902422],[127.08464196709465,37.673278842834335],[127.08462997067801,37.67327537353587],[127.08486690461011,37.67359622263276]]]},"properties":{"OBJECTID":86657,"PRESENT_SN":"11000UQ181PS201912150229","LCLAS_CL":"UQ1200","MLSFC_CL":"UQ1220","SCLAS_CL":"UQ1221","ATRB_SE":"UQ1221","WTNNC_SN":"11000AGZ200209234042","NTFC_SN":"11000NTC200209233145","DGM_NM":"상계6구역주택재개발사업","SIGNGU_SE":"11000","DRAWING_NO":" ","CREATE_DAT":1576368000000,"DGM_AR":227749.24157457,"DGM_LT":4081.0901673,"SHAPE.AREA":227749.241574505,"SHAPE.LEN":4081.0901673014805}},{"type":"Feature","id":85158,"geometry":{"type":"Polygon","coordinates":[[[127.08486690461011,37.67359622263276],[127.08492719755893,37.67367834864571],[127.08497879524334,37.673749182592644],[127.08508398344605,37.67388865964298],[127.08500500316188,37.67397467908832],[127.08499089895393,37.673990039827],[127.08497620336695,37.67400569109526],[127.08495979971734,37.67402452400026],[127.0849249601754,37.674120087685424],[127.0849211525952,37.674131163320496],[127.08491938007053,37.674136501930384],[127.08490319120693,37.67418524333333],[127.08490229115671,37.67419230668708],[127.08490693292251,37.67423382288642],[127.08490733138952,37.67423739766056],[127.08492610692421,37.67440535254421],[127.08493183594774,37.674429810775926],[127.08502333145142,37.67457893704169],[127.08502744438209,37.67458745822306],[127.08503731427295,37.67464531974499],[127.08504304341113,37.674669831127545],[127.08514015421652,37.67477182439408],[127.08518720224342,37.67481788474129],[127.08521703505393,37.67501811353102],[127.0850718760272,37.67509048337438],[127.08483477727155,37.675205164571516],[127.0842337357438,37.67572203347426],[127.0841796308237,37.67569078156238],[127.08417709047933,37.67568970217674],[127.08395977590496,37.67556482644176],[127.08392385311961,37.67554367781097],[127.08375168286369,37.6754445649581],[127.08364509448175,37.675381733383134],[127.0836319367644,37.67537391310043],[127.08350119038961,37.67529858371394],[127.0834634291896,37.67527531082762],[127.08346080715407,37.67527207816113],[127.08327330207682,37.67516329882159],[127.08319918983325,37.6751206441105],[127.08310105639647,37.675066176211345],[127.08293801995606,37.674973146412405],[127.08292351108564,37.67496313762162],[127.08291976791742,37.674960851736834],[127.08291333646866,37.67495691892888],[127.08283480854831,37.67490818547547],[127.08267388590983,37.674809108331594],[127.08265072300885,37.67479429427195],[127.08246235681818,37.67467322497184],[127.08242350754115,37.674649465971754],[127.08235864981292,37.67461040826726],[127.08224846538475,37.67454284778317],[127.08222251199314,37.67452602638155],[127.08205347953216,37.67442071920797],[127.08202984119274,37.67440627474833],[127.08196086502709,37.67436337248493],[127.0818329943451,37.67428161534506],[127.08183344843287,37.67417706627359],[127.08183455481881,37.67408877929668],[127.08183506838888,37.6740394246139],[127.08183631918298,37.673895816967054],[127.08183759098036,37.673761183882725],[127.08183839914696,37.673732757671246],[127.08185750385995,37.67365321677805],[127.08187878782807,37.6735553837664],[127.08189759128501,37.6734698588144],[127.08196403388219,37.67334014654874],[127.08197872726043,37.6733114856211],[127.08204417184837,37.67322351421434],[127.08203470429011,37.6731790045559],[127.08205226287613,37.673043125102346],[127.08205552458206,37.67304053798696],[127.08207561347378,37.6730329552043],[127.08208364766851,37.67303076035549],[127.08212036884889,37.67297423531918],[127.0820881872023,37.67289954961131],[127.08206050786518,37.67283741856689],[127.08205976826513,37.67283480715414],[127.08196412319099,37.67262481080249],[127.08189376104298,37.6726415699953],[127.0818418951296,37.6726539234133],[127.08171388127582,37.67268907544235],[127.08165340795163,37.67270924425406],[127.08153039896591,37.67275026792193],[127.0815126778372,37.67275665882243],[127.08149146550913,37.6727630439785],[127.08139430367028,37.67279669714547],[127.08136895660215,37.67280548166467],[127.08133731857345,37.67281425962375],[127.08121343874552,37.672857437773715],[127.08119732453898,37.67286139491677],[127.08119407445217,37.672853665871635],[127.08108275144241,37.67285224629936],[127.08097727203106,37.67282460259956],[127.08094195004348,37.6728120938673],[127.08091383882955,37.67283307931033],[127.08078160663172,37.67259022924873],[127.08077372383329,37.672575964049585],[127.08077277099613,37.672574242932264],[127.08073108007267,37.672498859577836],[127.08072093747931,37.672479621625854],[127.08071232747395,37.672366600464436],[127.08070978029457,37.67232693237517],[127.08069420858314,37.67230797736628],[127.08069091729209,37.67230406935664],[127.08068931681422,37.672301953146516],[127.08064562418667,37.672252014552896],[127.0806050409669,37.6722054434935],[127.08058767715436,37.67218532741769],[127.0805886779248,37.6721777495717],[127.0806006520093,37.67210710533355],[127.08060344589995,37.67209092200175],[127.08060421114862,37.67208571387001],[127.08062501538548,37.671940580343815],[127.08064453271277,37.671800484107855],[127.08064878490654,37.67176997433895],[127.08066493442087,37.671660702612215],[127.08068990239286,37.67148740188006],[127.08068996659465,37.67148701892378],[127.08069405835639,37.671462370083376],[127.08069782853107,37.67143696013708],[127.08070309901328,37.67143675838536],[127.0808513737685,37.671344516332375],[127.0808714997966,37.671318897165186],[127.08092584476199,37.671249936220434],[127.0809753818587,37.67125369595649],[127.08100275730142,37.67125547044838],[127.08106540896227,37.67128064642833],[127.08109904287886,37.67129457980212],[127.08116668104539,37.67130832803636],[127.08116364214084,37.67131783534498],[127.08120156900792,37.67132898178676],[127.08123709287806,37.67134010281112],[127.0813713753983,37.67138143868783],[127.08141582947866,37.67138041751723],[127.08140981822602,37.67141917240255],[127.08147117235487,37.67147079257848],[127.08147186711999,37.671474962707805],[127.08147401303374,37.67148785506615],[127.08147579500154,37.67148797729148],[127.08147608746239,37.67148799781559],[127.0814775797803,37.671493889162086],[127.08149139076615,37.67154833726061],[127.08149181537036,37.671550028097506],[127.08149697423468,37.67156939009562],[127.08151846995986,37.671649935944956],[127.08152111254307,37.67165983673767],[127.0816826615795,37.67166932511877],[127.08168595456617,37.671669518391816],[127.08169678027664,37.6716703669576],[127.08170940241102,37.67163420236522],[127.0817175928586,37.671608807401654],[127.08172510980341,37.67157900714148],[127.0817257549713,37.67158025995508],[127.08172664321687,37.6715819883167],[127.08172955445075,37.67157292165623],[127.08173154497395,37.67156671710936],[127.08173214484297,37.67156484808516],[127.08174825054562,37.67155433089576],[127.08175260120368,37.671551490775286],[127.08178627489276,37.67152950126407],[127.08178653654407,37.6715293308023],[127.08182100531985,37.67150783717574],[127.0818270867763,37.67150286867892],[127.08188316444912,37.671464728374275],[127.08195522714466,37.671418837792714],[127.08195895374303,37.67141646569467],[127.0819863321524,37.6713999141819],[127.08199576617018,37.67139155573386],[127.0820170654581,37.67137268385286],[127.08204163849443,37.671350908602804],[127.08204640574743,37.67134655365276],[127.08208591395778,37.671310505806794],[127.08214061397567,37.67126694246688],[127.08214917536243,37.67125980091528],[127.0821800274872,37.67125868063666],[127.08223327514854,37.67125672784619],[127.08223434171084,37.6712566883746],[127.08231189206609,37.67125449998061],[127.08239078986146,37.671219686408094],[127.08239627331854,37.67121730408197],[127.0824485813576,37.67119453667744],[127.08245543573301,37.67119161282465],[127.08248087058162,37.671180783703655],[127.08250247536293,37.671170966295556],[127.08255386723637,37.67117090397316],[127.0822657505309,37.67093243400094],[127.08222800228009,37.67090825070971],[127.08207076373611,37.67081119733796],[127.08197957279505,37.670755930866136],[127.08191360923718,37.67072863133204],[127.08180666440802,37.67068495295546],[127.08179310235185,37.67067962842937],[127.08167176598262,37.670628571749894],[127.0816393414601,37.67061127708954],[127.08162440452962,37.670603843400656],[127.08154999890253,37.67056681168614],[127.0815484628409,37.670571894212145],[127.08153414911473,37.670615988497595],[127.08134910243724,37.67051365530051],[127.08127928563559,37.67047586169028],[127.08125236999945,37.67046923071054],[127.08104411766092,37.67042018901201],[127.08096475953764,37.670401500458766],[127.08097196621962,37.670356933512444],[127.08098040216444,37.67034907135119],[127.08098102042297,37.67034849521338],[127.08100131650457,37.670329578238636],[127.08102155070578,37.67031216502493],[127.08102931008925,37.67030548539185],[127.08096886795161,37.67027883931505],[127.08089829359997,37.6702477366087],[127.08086025366858,37.670230971679395],[127.08075661432181,37.67010742793073],[127.08068326774934,37.669989864238936],[127.08067231140029,37.66997249183337],[127.08066488857635,37.66997375817528],[127.08063090594932,37.669983051976956],[127.08055469042444,37.6700029154501],[127.08045931260722,37.670027107356724],[127.08048320422833,37.67008964587994],[127.08050967409237,37.67015712900959],[127.08050497153909,37.670158375500364],[127.08053192583361,37.67024440932103],[127.0805086283228,37.67025163991062],[127.08049456777731,37.67025600282351],[127.08041293936418,37.67028096032193],[127.08030009142868,37.670302307699366],[127.08028277425312,37.67030437348042],[127.08026831850817,37.67030053597973],[127.08023667080654,37.67034220004563],[127.08023283283,37.670346437176796],[127.08019284324418,37.67039928786363],[127.08016216795866,37.67043878892669],[127.08013479772886,37.67047389103389],[127.08012968020407,37.67047934532702],[127.08011530806077,37.67050106833724],[127.07996778905941,37.67070755226478],[127.0799600927863,37.6707183240019],[127.07993759319784,37.670750485653095],[127.079935988059,37.67075250579908],[127.07993249932333,37.670756903962086],[127.07981530016619,37.670715582133475],[127.07975253111309,37.670696496137374],[127.07953362228827,37.670630185399595],[127.07951969894769,37.6706260591441],[127.07928037191822,37.6705551214274],[127.07913144168651,37.670486313145155],[127.07899820580994,37.670391420226665],[127.0786319368837,37.670128179866346],[127.07853116595608,37.67005651027515],[127.07849943968421,37.670033916575925],[127.07840923932724,37.66996851074877],[127.07830562081236,37.66989389663896],[127.07829028304022,37.66990289832689],[127.07827407697006,37.66991293849809],[127.07823315908838,37.66993828964844],[127.07815846174003,37.669983441783415],[127.07814056275147,37.66996751430772],[127.07814079920352,37.669965982501],[127.0781318498101,37.669959768000055],[127.07812805000047,37.669957125212804],[127.07807132729629,37.669919798710175],[127.07797040356921,37.6698530660652],[127.07791722000634,37.669818268926555],[127.07788370225224,37.66977266538434],[127.07781023342281,37.66967486731256],[127.07771536088235,37.66960614839316],[127.07763428255492,37.66954843038063],[127.07762393828172,37.66954140946932],[127.07761749371588,37.66953499870275],[127.07753272093449,37.66942215249489],[127.07753155418668,37.66942284699555],[127.0775115189142,37.66939358370313],[127.07752173166107,37.66938280509607],[127.07758279388885,37.669319274204284],[127.0776113714902,37.66927809934827],[127.07767360796718,37.669143724179115],[127.07766735620964,37.6691374033876],[127.0774711778107,37.66889152830997],[127.0773926352587,37.668796373079196],[127.07702064703808,37.66834526950529],[127.07696786626147,37.66828138827271],[127.07691032067841,37.668201878184625],[127.07688882205018,37.66817083539324],[127.07693144293972,37.66815217603841],[127.07694967106968,37.66814346999738],[127.07696332308393,37.668137686031855],[127.07700217083001,37.6681202363679],[127.07706718912358,37.66809121946321],[127.07711616580308,37.66806992422945],[127.07721218176547,37.66802817555146],[127.0773150900251,37.66800984675692],[127.07739004154111,37.66799647318741],[127.0774147121676,37.66799238492065],[127.07770399141398,37.66816366256847],[127.07795292561667,37.66830562997892],[127.07805005492449,37.66835486822975],[127.07807281473647,37.66836630482445],[127.07826276667834,37.66845371990467],[127.0783185611979,37.66848223541674],[127.07837157739739,37.668509356204744],[127.0784248073062,37.66853484606896],[127.07850861012136,37.66857519101771],[127.07862707789295,37.66863061355395],[127.07876174809012,37.668614659320426],[127.07884098774606,37.66860455255291],[127.0788789186854,37.668599446198414],[127.07897675836642,37.668600544249735],[127.07904122878347,37.668600880307736],[127.07906572255533,37.66860100836421],[127.07909638753486,37.66860622285272],[127.07921244996612,37.668626211128945],[127.07923528499802,37.668622574177085],[127.07928678092445,37.668615287409786],[127.07932723381468,37.668583105020865],[127.07936454945427,37.668553231178244],[127.07937204671916,37.66854738792773],[127.07938769738773,37.6685345026986],[127.07949305690728,37.66838889899008],[127.07949355630295,37.668388468896026],[127.07949843588345,37.66838426443495],[127.07958268775194,37.66833351097841],[127.07961900278084,37.6683116293439],[127.07959929626375,37.668272098698395],[127.07959470725199,37.66826261449343],[127.07953638091531,37.66816536605171],[127.07947345420564,37.66805843516296],[127.07935050585756,37.667847400416385],[127.0793141664216,37.66778494012471],[127.07926686756423,37.66770364229832],[127.07920174648697,37.66762201201792],[127.07919425585517,37.66761347843138],[127.07916099683028,37.66757558378769],[127.07921813319032,37.66753250759836],[127.07928154989196,37.667479758902026],[127.07940681516652,37.66750084912126],[127.07946862909093,37.66754135206747],[127.0794779096794,37.66755013041933],[127.07949358909258,37.66756494105873],[127.07953156943415,37.667575096940126],[127.0796018647652,37.66759707020625],[127.07966524398246,37.667616885677525],[127.07972575472404,37.667635802043606],[127.07975771646841,37.667645790657204],[127.07983814809401,37.66767093749287],[127.07986240310647,37.667670651095094],[127.07999073603783,37.667698315757185],[127.08007155364247,37.6677024064431],[127.0801255045084,37.667702190310266],[127.08015629400843,37.6677118345243],[127.0801573643168,37.66771216987364],[127.0801446711798,37.667756325999925],[127.0800928594311,37.66793646497394],[127.08005008185414,37.66808524405573],[127.07998681874001,37.668283860536064],[127.07997096440864,37.66829693518489],[127.079941564308,37.66836272573885],[127.08006401807505,37.668403188037544],[127.08023865716866,37.66848821354205],[127.0803089869649,37.66848816658846],[127.08034803388635,37.66848814050185],[127.0803713427458,37.66855749981669],[127.08043544021159,37.668612416283935],[127.08042639533323,37.668655218534084],[127.08042145556779,37.668678557029054],[127.08042656310765,37.66868522080999],[127.08044685933449,37.66868172046775],[127.0806059540412,37.66865428741264],[127.08072663206552,37.66863350209314],[127.08079464870615,37.66862178880766],[127.08087122122876,37.668608601142466],[127.080875890145,37.66860779613603],[127.0810886968897,37.66856847849392],[127.08115574926903,37.66855608992106],[127.08119987667655,37.668547933349416],[127.08142878293145,37.66850272987606],[127.08157485275969,37.66847443039267],[127.08158502890667,37.66847245035612],[127.08168482994652,37.6684530657219],[127.0816888528045,37.668452279141775],[127.08193514643848,37.66840804492748],[127.08194665992427,37.66840597385078],[127.08196798739121,37.668402436504714],[127.0820981845807,37.66838080538465],[127.08223827482979,37.668357545600905],[127.08228606324079,37.66834961136073],[127.08246770895711,37.66831943941389],[127.0824698621017,37.66831908655702],[127.08256462432865,37.66832552651229],[127.08259353996928,37.6683270833447],[127.08262067295577,37.66835698599538],[127.08326349477079,37.66906411211235],[127.08324730197432,37.66906790741701],[127.08328419001141,37.669093739765906],[127.08326498560902,37.66913161194162],[127.0833620171017,37.66986177384094],[127.0833592878613,37.66986395608771],[127.08335041030236,37.66987193585242],[127.0833886757329,37.669964664410564],[127.08344971674195,37.67011279594938],[127.08345254994335,37.67013300279196],[127.08334070522335,37.670158604971135],[127.08319015554979,37.67019721685989],[127.08301916570424,37.67024286125495],[127.0830035871879,37.67026965792541],[127.08303535848115,37.67028025843848],[127.0831125178432,37.6702635371043],[127.08312263744078,37.67027183706931],[127.08313912021731,37.67028418700638],[127.08313672035835,37.67040086458554],[127.08313492748265,37.6704300933685],[127.08307218799806,37.67051109813363],[127.08306358061459,37.67055891868487],[127.08306252229175,37.67057580363756],[127.08312357431375,37.67063060360229],[127.08320391573264,37.670714257331184],[127.08323079282545,37.67071650916662],[127.08327975117679,37.670719871908474],[127.08328217719095,37.670720221606125],[127.08328372600647,37.670726869708055],[127.08330205084869,37.670827063141424],[127.08330907699091,37.67086710648717],[127.08331216491013,37.67088187128146],[127.08331391121784,37.67089288896129],[127.08331737174898,37.67091667222928],[127.08331973492062,37.67093205018693],[127.08345551231892,37.67103367571948],[127.08345838693732,37.671039971518624],[127.08346841178727,37.67106505663133],[127.08348721179887,37.67111260589304],[127.08339071880327,37.6711229259683],[127.08338065494833,37.67112423035278],[127.0833605265152,37.67112618140995],[127.08326138446672,37.67113953048394],[127.08322991135601,37.67114280479919],[127.08315005828422,37.671153608684655],[127.08312983950408,37.67115587510527],[127.08301103377978,37.671160930607584],[127.08299860076653,37.67116207442116],[127.08286798985887,37.67118272475245],[127.0828562830427,37.671184579818274],[127.08284129112425,37.67118825711161],[127.08279209625832,37.671207337569],[127.08271998006738,37.671234677682236],[127.08271212807871,37.671237457180496],[127.08281015744944,37.67128453844191],[127.08283513918104,37.67127397984863],[127.08287277427081,37.671256448008954],[127.08289468156501,37.6712641902688],[127.08295007286513,37.671283207605924],[127.0829831248346,37.67129327567335],[127.08301867172071,37.671304486242434],[127.08305022826379,37.67131524006307],[127.08316016563327,37.671295477783495],[127.0832199894137,37.67133561071407],[127.08322729292124,37.67133915548579],[127.08323337215162,37.67134259298846],[127.08324339413065,37.67133408086805],[127.08325949682093,37.671320023554344],[127.08331370297806,37.67127118932564],[127.0833750133326,37.6712921844975],[127.08337567310615,37.6712943283535],[127.08340224950202,37.67129093126252],[127.0835077704558,37.67133688863643],[127.08351659269265,37.67134029718878],[127.0835305650803,37.67133717011159],[127.0835465429442,37.671333329870144],[127.08372911896238,37.67128752347866],[127.08374609443666,37.67128383568017],[127.08383693635355,37.67126762689996],[127.08384522050747,37.671266188572815],[127.08390160592229,37.6712511930687],[127.0839675566325,37.67140310135631],[127.0839648671716,37.67140644043701],[127.08391874115827,37.6714637889125],[127.0839203279981,37.671463755369025],[127.0839101653996,37.67147830415847],[127.08391060124264,37.671482934850985],[127.08391985895267,37.67151111079364],[127.08393626299116,37.67155439104567],[127.08396772704441,37.671635015074855],[127.0839766240533,37.67166497518926],[127.08401029571536,37.67177380709947],[127.0840210157736,37.671812289131104],[127.08389649504662,37.671785464118926],[127.08386798052804,37.671778870893284],[127.08380747595703,37.67167714831475],[127.0837711259559,37.671616358047245],[127.08376820961834,37.671613386872664],[127.0836837050219,37.671661864007234],[127.08368103290834,37.671705635094774],[127.08367982522877,37.671730872165334],[127.08376208130348,37.67176067306037],[127.08376520733164,37.671768770620204],[127.08374566993858,37.671803165336875],[127.08374302437801,37.671803167181],[127.08372400730528,37.67182220896639],[127.08371260113155,37.67183362862746],[127.08371049516244,37.67183573296377],[127.08367108807023,37.67189724275168],[127.08367150875964,37.67193955210847],[127.08367128733252,37.6719854658005],[127.08367157563548,37.672041352898134],[127.08347883596862,37.67197893248147],[127.08347076235594,37.67197606398987],[127.08346415211544,37.6719742576282],[127.08343560083466,37.671965186650546],[127.08346133372851,37.671926354899746],[127.08319913398319,37.671791255786275],[127.08314413427073,37.671819701508355],[127.08309059509915,37.671846668600416],[127.08310622171456,37.67188424634972],[127.08316485458097,37.67202675758669],[127.08319428100184,37.67210004030392],[127.083195871189,37.67210304844959],[127.08320287323203,37.672121045023076],[127.08321028265445,37.672138419643225],[127.08317174399889,37.67219027023946],[127.08314581450762,37.67219988624063],[127.08312230970424,37.67220860319051],[127.08312747010191,37.67222169074448],[127.08319558653476,37.672412163147236],[127.08323149004535,37.67246898961626],[127.0833321812447,37.672615823308185],[127.08336529507362,37.67263002668445],[127.08342158909392,37.67265461117572],[127.08342627718837,37.6725988557737],[127.08343098031551,37.67252893888255],[127.08343237776182,37.6725081687054],[127.0834315340216,37.67250366443125],[127.08338898951732,37.67233468062512],[127.08350338255384,37.67229395832624],[127.08344919866482,37.67221926034135],[127.0834597174806,37.67221924402518],[127.08367896071618,37.67223191235621],[127.08368841735252,37.672296577542646],[127.08368863660067,37.67230010019061],[127.08390267168872,37.67232814231631],[127.08391019946532,37.67232937139029],[127.08390390601207,37.672470621170106],[127.08389589473556,37.67255497576432],[127.08382014552366,37.67257785926996],[127.08379174434222,37.672807680995405],[127.08400827826559,37.67286972386496],[127.08399153744494,37.67292188382703],[127.08399982411301,37.67292255376196],[127.0842617649146,37.67297267157645],[127.08431751087538,37.67298297561778],[127.08438596890143,37.67297778299559],[127.08443099905763,37.672974134851614],[127.08440299438818,37.673018747237144],[127.08434480795329,37.67311145847536],[127.08458688750521,37.67319543902422],[127.08464196709465,37.673278842834335],[127.08462997067801,37.67327537353587],[127.08486690461011,37.67359622263276]]]},"properties":{"OBJECTID":85158,"PRESENT_SN":"11000UQ181PS201912150229","LCLAS_CL":"UQ1200","MLSFC_CL":"UQ1220","SCLAS_CL":"UQ1221","ATRB_SE":"UQ1221","WTNNC_SN":"11000AGZ200209234042","NTFC_SN":"11000NTC200209233145","DGM_NM":"상계6구역주택재개발사업","SIGNGU_SE":"11000","DRAWING_NO":" ","CREATE_DAT":1576368000000,"DGM_AR":227749.24157457,"DGM_LT":4081.0901673,"SHAPE.AREA":227749.241574505,"SHAPE.LEN":4081.0901673014805}}]}