{"type":"FeatureCollection","features":[{"type":"Feature","id":84659,"geometry":{"type":"Polygon","coordinates":[[[127.14475138391225,37.533903481219696],[127.14488069338653,37.533909260966624],[127.14486707622582,37.53387633719668],[127.1448663487878,37.53387459015347],[127.14488950090262,37.533852893171996],[127.14498038980588,37.533825329549906],[127.14501546533205,37.53381468225174],[127.14501201382882,37.53380838850522],[127.14500280131396,37.53379503797374],[127.14518247549863,37.533746364152734],[127.14526781606531,37.53372247409916],[127.1452581279788,37.53369714997095],[127.14527479002057,37.533660008784146],[127.1452824056455,37.533643024808114],[127.14532748958217,37.53360656980719],[127.14534574841059,37.53359970903674],[127.14539404669958,37.53358157629121],[127.1454127417621,37.53357800360301],[127.14541493522931,37.53358314559997],[127.14543156130114,37.53358033226367],[127.14559567282936,37.53355247169166],[127.14569018574537,37.53351532554682],[127.14575644560028,37.533494702004845],[127.14579819125171,37.53349329952467],[127.14589455971654,37.533479756963395],[127.1459624029294,37.53340020643371],[127.14603017944805,37.533344802556165],[127.14622267184319,37.533308527147845],[127.14629490942656,37.533278435553285],[127.14634800546021,37.53323746537458],[127.14649393258324,37.53320276929541],[127.14655158609334,37.53327185872782],[127.14662643466927,37.53324055639354],[127.146660813064,37.533226566778836],[127.14662239240852,37.53318050117059],[127.14661241654728,37.53315867335766],[127.14668445990993,37.5331452771623],[127.14672280008821,37.53313814822599],[127.14682926991274,37.53313560261587],[127.14687009899204,37.53313423692435],[127.14694271342546,37.533158609493],[127.14706089049511,37.53311395486754],[127.14711030503987,37.533129156782806],[127.1471400317116,37.5331550867503],[127.14720152523314,37.53319135696805],[127.14739206010218,37.53322517030875],[127.14742026404159,37.53323018103015],[127.14747975906414,37.533274238150135],[127.14749538348882,37.53328582362805],[127.14751677497993,37.533301663671345],[127.14764016882815,37.53344320121284],[127.14772446217445,37.533602113125525],[127.14775035170834,37.5336501400321],[127.14784647428534,37.53382932756308],[127.14785346608208,37.53404346687268],[127.14785539141089,37.53410237139603],[127.14785943505534,37.53422629794268],[127.1479283273189,37.534319492338874],[127.14803570173186,37.53444307449343],[127.14803918300103,37.534447088602114],[127.1479660572505,37.53450342827749],[127.14789419666181,37.534558793266974],[127.14792341368172,37.534630331913014],[127.14790810483635,37.53465882225913],[127.1476954835654,37.534736471878894],[127.14769545097835,37.53482412048795],[127.14769550250934,37.53484472612675],[127.14772095329492,37.53489961913641],[127.14765426276485,37.534873834176636],[127.14760523678372,37.53488447248384],[127.1475649002163,37.53494742066973],[127.14739749639988,37.534988154215306],[127.14739655776707,37.53498838062285],[127.14728999693885,37.53499201705921],[127.14720191256251,37.535024975940246],[127.14711284211558,37.53505708002809],[127.14706255856969,37.5350553039814],[127.14699673693598,37.53507489157017],[127.14697526947486,37.53507839584359],[127.1468549928463,37.53509803238906],[127.14670157613108,37.53512307046228],[127.14667388113494,37.53512414064625],[127.14652728424691,37.535101138192786],[127.14652548591461,37.535048864806974],[127.1465532755893,37.535009060867026],[127.1465393553527,37.53497202013254],[127.14653285020268,37.53495473807087],[127.14651058242022,37.534895489102595],[127.1464612357017,37.534863258096856],[127.14643435417501,37.53485199263637],[127.14634311430997,37.53482714705872],[127.1461946661787,37.53480600250568],[127.14615010623805,37.534780000374845],[127.14613241525,37.534770498545626],[127.14612249940203,37.53472119034609],[127.14600116541254,37.534702787405145],[127.145946941923,37.53468190564752],[127.14579734702122,37.53464670651007],[127.14573615251955,37.534666107546265],[127.1457075000884,37.534675188498056],[127.14563280504893,37.534622589613754],[127.1456335548453,37.534653582848755],[127.14562800915675,37.53465853606586],[127.14549135161427,37.534726078973975],[127.14548094488077,37.53472724493059],[127.14525910332017,37.53479489137537],[127.1452217744238,37.534710441705066],[127.14514949204192,37.534812512999856],[127.14512854715525,37.53480533052869],[127.1450475059586,37.53461144531191],[127.14475138391225,37.533903481219696]]]},"properties":{"OBJECTID":84659,"PRESENT_SN":"11000UQ181PS201912150475","LCLAS_CL":"UQ1200","MLSFC_CL":"UQ1240","SCLAS_CL":" ","ATRB_SE":"UQ1240","WTNNC_SN":"11000AGZ200412274439","NTFC_SN":"11000NTC200412277420","DGM_NM":"길동진흥아파트주택재건축사업","SIGNGU_SE":"11000","DRAWING_NO":" ","CREATE_DAT":1576368000000,"DGM_AR":42344.71676293,"DGM_LT":913.52937559,"SHAPE.AREA":42344.71676295,"SHAPE.LEN":913.5293755836101}}]}