{"type":"FeatureCollection","features":[{"type":"Feature","id":83926,"geometry":{"type":"Polygon","coordinates":[[[126.94002825957142,37.51010243637495],[126.94002836462454,37.51012328279852],[126.9400280061717,37.51014661843557],[126.94002841932988,37.51019447961374],[126.94002991168033,37.51020902878976],[126.94003005987044,37.510218652416285],[126.94002873790464,37.51021976175654],[126.9400290099068,37.510274245188796],[126.94003091922136,37.5102741038251],[126.94003096114007,37.5102767762041],[126.94003031796446,37.510292851458324],[126.94003121141048,37.51029294562705],[126.94003190319134,37.5103375813797],[126.94003191234171,37.51034848885438],[126.94003071785487,37.51042583882627],[126.94003205368745,37.510493324197014],[126.94003616881999,37.51061282737131],[126.94003811638373,37.510738447184316],[126.9400384531301,37.51082708383577],[126.94004118643068,37.51093658431705],[126.94004210381138,37.5109957703814],[126.9400418538931,37.511052262757964],[126.94004361110632,37.511088663947504],[126.94004264442391,37.51112269409748],[126.94004528737312,37.51120998405188],[126.94004939089807,37.51130923099347],[126.94005110315793,37.51133977387628],[126.94005113167663,37.51134085779035],[126.94005257190794,37.51143003830796],[126.94005640092709,37.511546827511125],[126.94005704282152,37.511566809251875],[126.94006301763282,37.51179516369599],[126.94002180090335,37.51179605225333],[126.93998058417297,37.51179694079628],[126.93996063811461,37.51179798997633],[126.93995076256324,37.51179826323779],[126.93991706194967,37.51179891691146],[126.93987592446507,37.51179971535954],[126.93985034494055,37.511800314686795],[126.93982476541565,37.51180091400852],[126.93980527672399,37.51180145343704],[126.93978578803201,37.51180199286232],[126.93966603539259,37.51180612255954],[126.9395248456879,37.51180885695635],[126.93914921006437,37.51181960634127],[126.93909147238004,37.511880966160405],[126.93896871128631,37.51188197070593],[126.93895740167959,37.51188206292564],[126.93894609207288,37.51188215514427],[126.93767936389823,37.511892506484294],[126.93766805428854,37.511892598580566],[126.93765674467882,37.511892690675765],[126.9370460008188,37.51189767661043],[126.93703469007657,37.51189776864546],[126.93702338046535,37.51189786068001],[126.93701207085337,37.51189795361447],[126.9370007612421,37.51189804564685],[126.93698945049977,37.51189813767753],[126.93697814088767,37.51189823060874],[126.93696683014531,37.51189832263727],[126.93695552053394,37.511898414665325],[126.93694421092181,37.51189850759328],[126.93693290017931,37.511898599618554],[126.93692158943684,37.51189869164274],[126.93691027982537,37.51189878366647],[126.93689897021311,37.5118988765901],[126.93688766060161,37.51189896861166],[126.936876349859,37.51189906063152],[126.93686504024664,37.5118991535519],[126.936853729504,37.5118992455696],[126.9368424198924,37.51189933758679],[126.93683111028075,37.51189942960294],[126.93681979953723,37.51189952251837],[126.93680848879448,37.51189961453174],[126.93679717918278,37.51189970654463],[126.93678586957024,37.51189979945744],[126.93677455995847,37.51189989146817],[126.9367632492156,37.5118999834772],[126.93675193960378,37.51190007548576],[126.93674062886011,37.511900168393616],[126.93672931924822,37.51190026040001],[126.93671800963631,37.51190035240531],[126.93670669889254,37.51190044530993],[126.93669257403673,37.51190056009513],[126.93668407853755,37.51190062931452],[126.93667276892555,37.511900721315506],[126.93666145931272,37.51190081421639],[126.93665014856958,37.5119009062146],[126.9366388389575,37.511900998212326],[126.93662752821355,37.51190109110936],[126.93661621860143,37.51190118310493],[126.93660490898924,37.511901275099405],[126.93659359824521,37.51190136799319],[126.93658228750192,37.511901459984884],[126.93657097788969,37.51190155197611],[126.93655966827741,37.511901643966276],[126.93654835753328,37.511901736855705],[126.93653704792095,37.51190182884372],[126.93652573830862,37.51190192083061],[126.93651442756438,37.51190201371682],[126.93650311795201,37.511902105701544],[126.9364918072085,37.51190219768456],[126.93648049759604,37.51190228966714],[126.9364691879828,37.51190238254963],[126.93645787723922,37.511902474529414],[126.9364465676267,37.511902566508745],[126.93643525688228,37.51190265938736],[126.93642394726969,37.51190275136452],[126.9364126376571,37.511902843340586],[126.93640040056344,37.51190294291331],[126.93631732188553,37.511903771955865],[126.93631129492387,37.5116873654208],[126.93631104487685,37.51167835801778],[126.93631079369959,37.51166934971316],[126.93631054252162,37.511660342309526],[126.93631029247476,37.51165133490647],[126.9363097901246,37.511633313792146],[126.93630937575391,37.51161947335148],[126.93630866679774,37.51160101784252],[126.93630780401921,37.5115825604466],[126.93630678629982,37.51156408674713],[126.93630561360219,37.51154563999195],[126.93630428819472,37.51152721297433],[126.93630280784289,37.51150877415812],[126.93630065840885,37.51148455507785],[126.93630072523612,37.51148574623254],[126.93629938449976,37.51147194041893],[126.93629744039325,37.511453527475375],[126.9362953447031,37.51143514057694],[126.93629309517982,37.511416765306414],[126.93629068732436,37.511398372829454],[126.93628812788401,37.51138000819958],[126.93628541798527,37.511361676823384],[126.93628255087397,37.51134334175627],[126.9362795355572,37.51132505075603],[126.93627636303515,37.51130674795586],[126.93627303555363,37.51128845227795],[126.93626955761263,37.51127019165565],[126.93626592809223,37.51125195347441],[126.936260522816,37.51122591888714],[126.93625919325228,37.511220080593965],[126.93625642517476,37.511207529079385],[126.93625468660908,37.51119988676444],[126.93625311253766,37.51119297975381],[126.93625109114154,37.51118411553078],[126.93624907087776,37.51117525040734],[126.93624704948341,37.5111663852832],[126.93624502808952,37.51115752015903],[126.93624300782713,37.51114865503544],[126.93624098643421,37.51113978991119],[126.936238966172,37.511130925688484],[126.93623694478005,37.511122060564134],[126.93623492451957,37.51111319544035],[126.93623290312858,37.511104330315895],[126.93623088286829,37.51109546609302],[126.93622886147897,37.51108660006746],[126.93622684121965,37.51107773584449],[126.93622481983053,37.51106887071986],[126.93622279844188,37.51106000559515],[126.93622077818475,37.51105114047106],[126.93621875679706,37.51104227534626],[126.93621673654089,37.51103341022207],[126.93621471515416,37.511024545097186],[126.93621269489815,37.511015680873875],[126.93621067351236,37.511006815748885],[126.9362086532581,37.51099795062449],[126.93620663187329,37.510989085499425],[126.93620461161997,37.510980220374925],[126.93620259023608,37.51097135524976],[126.93620056885187,37.51096249102553],[126.9361985486,37.51095362590091],[126.93619652721756,37.510944760775594],[126.93619450696663,37.51093589565087],[126.93619248558512,37.51092703052548],[126.93619046533438,37.51091816630162],[126.93618844395462,37.51090930027513],[126.9361864237048,37.510900436051216],[126.93618440232522,37.51089157092564],[126.93618238207713,37.51088270580061],[126.93618036069849,37.510873840674904],[126.93617833932035,37.510864975549175],[126.93617631907371,37.510856110424015],[126.9361742976957,37.510847246199184],[126.93617227745001,37.51083838107391],[126.93617025607375,37.510829515948],[126.93599848493382,37.510075991807895],[126.93599646359856,37.510067126677875],[126.93597221439698,37.50996074691978],[126.93594584701312,37.50983864628304],[126.93592788941363,37.50971730624412],[126.9359176712382,37.50953424859132],[126.93592492954767,37.509377280900566],[126.93594376157543,37.50923846030719],[126.9359697322989,37.509118044734386],[126.93597975674285,37.50908032554379],[126.93593143378513,37.509080287012175],[126.93593428703836,37.509047038195675],[126.93599456480985,37.50900187762488],[126.93600029836435,37.508989771402426],[126.93601922588529,37.50893167658799],[126.9359970056095,37.508900877190904],[126.93598532526117,37.508845576512186],[126.93609709279724,37.50883248390108],[126.93608021830512,37.508689576392015],[126.93617838415952,37.5086710791948],[126.936148299704,37.50859254964963],[126.93616266933212,37.50857301496943],[126.93635933447511,37.50852930810957],[126.9363774684305,37.508498927471905],[126.93637395459977,37.508486944973356],[126.93645024172937,37.50845025155518],[126.93650567905249,37.508441667641776],[126.93667920551985,37.508414796161624],[126.93683703815867,37.50838896099159],[126.93694358982614,37.508337716496165],[126.93715246856215,37.508228449413856],[126.93729973584315,37.50821717699447],[126.93734127041171,37.508213997421024],[126.93739924168489,37.50819923182065],[126.93745494137184,37.508185045202204],[126.9376043344691,37.50815693932137],[126.93769890510683,37.508162117123575],[126.93775448056526,37.50816490418568],[126.93780395764306,37.508170327854906],[126.93794249781756,37.50818042158387],[126.93809690511482,37.508191685956355],[126.93817329011192,37.508195763407535],[126.93827204315107,37.50819041033457],[126.93845195447533,37.508188623432964],[126.93875793448603,37.50819284087249],[126.93893030533474,37.508199211371085],[126.93893434383985,37.50819961085048],[126.93896412207823,37.508201131287834],[126.93898713790723,37.50820141377202],[126.93899207130845,37.50820149386905],[126.93908634718501,37.50820497743056],[126.93908961524988,37.50825997423323],[126.93909688757037,37.508382329008064],[126.93911886165398,37.50903774585078],[126.94000140978612,37.50903842586505],[126.94000302477525,37.50906750819325],[126.94000703149945,37.509146680904415],[126.9400141387189,37.50933434429948],[126.94001551353678,37.50942320135599],[126.94001613646947,37.5094497180267],[126.94001886666098,37.50956842582233],[126.94001923064722,37.509579706496005],[126.94001929020173,37.50958156077911],[126.94002278983676,37.509749501256906],[126.94002465568937,37.50986989075797],[126.94002465850627,37.50988438149565],[126.94002447477655,37.5099291159054],[126.94002669338262,37.51000141216482],[126.94002825957142,37.51010243637495]]]},"properties":{"OBJECTID":83926,"PRESENT_SN":"11000UQ181PS202302070002","LCLAS_CL":"UQ1200","MLSFC_CL":"UQ1220","SCLAS_CL":"UQ1221","ATRB_SE":"UQ1221","WTNNC_SN":"11000AGZ202301300002","NTFC_SN":"11000NTC202301300004","DGM_NM":"노량진1재정비촉진구역","SIGNGU_SE":"11000","DRAWING_NO":" ","CREATE_DAT":1675728000000,"DGM_AR":132078.54413048,"DGM_LT":1479.56718289,"SHAPE.AREA":132078.54532223,"SHAPE.LEN":1479.56712916005}},{"type":"Feature","id":85663,"geometry":{"type":"Polygon","coordinates":[[[126.94002825957142,37.51010243637495],[126.94002836462454,37.51012328279852],[126.9400280061717,37.51014661843557],[126.94002841932988,37.51019447961374],[126.94002991168033,37.51020902878976],[126.94003005987044,37.510218652416285],[126.94002873790464,37.51021976175654],[126.9400290099068,37.510274245188796],[126.94003091922136,37.5102741038251],[126.94003096114007,37.5102767762041],[126.94003031796446,37.510292851458324],[126.94003121141048,37.51029294562705],[126.94003190319134,37.5103375813797],[126.94003191234171,37.51034848885438],[126.94003071785487,37.51042583882627],[126.94003205368745,37.510493324197014],[126.94003616881999,37.51061282737131],[126.94003811638373,37.510738447184316],[126.9400384531301,37.51082708383577],[126.94004118643068,37.51093658431705],[126.94004210381138,37.5109957703814],[126.9400418538931,37.511052262757964],[126.94004361110632,37.511088663947504],[126.94004264442391,37.51112269409748],[126.94004528737312,37.51120998405188],[126.94004939089807,37.51130923099347],[126.94005110315793,37.51133977387628],[126.94005113167663,37.51134085779035],[126.94005257190794,37.51143003830796],[126.94005640092709,37.511546827511125],[126.94005704282152,37.511566809251875],[126.94006301763282,37.51179516369599],[126.94002180090335,37.51179605225333],[126.93998058417297,37.51179694079628],[126.93996063811461,37.51179798997633],[126.93995076256324,37.51179826323779],[126.93991706194967,37.51179891691146],[126.93987592446507,37.51179971535954],[126.93985034494055,37.511800314686795],[126.93982476541565,37.51180091400852],[126.93980527672399,37.51180145343704],[126.93978578803201,37.51180199286232],[126.93966603539259,37.51180612255954],[126.9395248456879,37.51180885695635],[126.93914921006437,37.51181960634127],[126.93909147238004,37.511880966160405],[126.93896871128631,37.51188197070593],[126.93895740167959,37.51188206292564],[126.93894609207288,37.51188215514427],[126.93767936389823,37.511892506484294],[126.93766805428854,37.511892598580566],[126.93765674467882,37.511892690675765],[126.9370460008188,37.51189767661043],[126.93703469007657,37.51189776864546],[126.93702338046535,37.51189786068001],[126.93701207085337,37.51189795361447],[126.9370007612421,37.51189804564685],[126.93698945049977,37.51189813767753],[126.93697814088767,37.51189823060874],[126.93696683014531,37.51189832263727],[126.93695552053394,37.511898414665325],[126.93694421092181,37.51189850759328],[126.93693290017931,37.511898599618554],[126.93692158943684,37.51189869164274],[126.93691027982537,37.51189878366647],[126.93689897021311,37.5118988765901],[126.93688766060161,37.51189896861166],[126.936876349859,37.51189906063152],[126.93686504024664,37.5118991535519],[126.936853729504,37.5118992455696],[126.9368424198924,37.51189933758679],[126.93683111028075,37.51189942960294],[126.93681979953723,37.51189952251837],[126.93680848879448,37.51189961453174],[126.93679717918278,37.51189970654463],[126.93678586957024,37.51189979945744],[126.93677455995847,37.51189989146817],[126.9367632492156,37.5118999834772],[126.93675193960378,37.51190007548576],[126.93674062886011,37.511900168393616],[126.93672931924822,37.51190026040001],[126.93671800963631,37.51190035240531],[126.93670669889254,37.51190044530993],[126.93669257403673,37.51190056009513],[126.93668407853755,37.51190062931452],[126.93667276892555,37.511900721315506],[126.93666145931272,37.51190081421639],[126.93665014856958,37.5119009062146],[126.9366388389575,37.511900998212326],[126.93662752821355,37.51190109110936],[126.93661621860143,37.51190118310493],[126.93660490898924,37.511901275099405],[126.93659359824521,37.51190136799319],[126.93658228750192,37.511901459984884],[126.93657097788969,37.51190155197611],[126.93655966827741,37.511901643966276],[126.93654835753328,37.511901736855705],[126.93653704792095,37.51190182884372],[126.93652573830862,37.51190192083061],[126.93651442756438,37.51190201371682],[126.93650311795201,37.511902105701544],[126.9364918072085,37.51190219768456],[126.93648049759604,37.51190228966714],[126.9364691879828,37.51190238254963],[126.93645787723922,37.511902474529414],[126.9364465676267,37.511902566508745],[126.93643525688228,37.51190265938736],[126.93642394726969,37.51190275136452],[126.9364126376571,37.511902843340586],[126.93640040056344,37.51190294291331],[126.93631732188553,37.511903771955865],[126.93631129492387,37.5116873654208],[126.93631104487685,37.51167835801778],[126.93631079369959,37.51166934971316],[126.93631054252162,37.511660342309526],[126.93631029247476,37.51165133490647],[126.9363097901246,37.511633313792146],[126.93630937575391,37.51161947335148],[126.93630866679774,37.51160101784252],[126.93630780401921,37.5115825604466],[126.93630678629982,37.51156408674713],[126.93630561360219,37.51154563999195],[126.93630428819472,37.51152721297433],[126.93630280784289,37.51150877415812],[126.93630065840885,37.51148455507785],[126.93630072523612,37.51148574623254],[126.93629938449976,37.51147194041893],[126.93629744039325,37.511453527475375],[126.9362953447031,37.51143514057694],[126.93629309517982,37.511416765306414],[126.93629068732436,37.511398372829454],[126.93628812788401,37.51138000819958],[126.93628541798527,37.511361676823384],[126.93628255087397,37.51134334175627],[126.9362795355572,37.51132505075603],[126.93627636303515,37.51130674795586],[126.93627303555363,37.51128845227795],[126.93626955761263,37.51127019165565],[126.93626592809223,37.51125195347441],[126.936260522816,37.51122591888714],[126.93625919325228,37.511220080593965],[126.93625642517476,37.511207529079385],[126.93625468660908,37.51119988676444],[126.93625311253766,37.51119297975381],[126.93625109114154,37.51118411553078],[126.93624907087776,37.51117525040734],[126.93624704948341,37.5111663852832],[126.93624502808952,37.51115752015903],[126.93624300782713,37.51114865503544],[126.93624098643421,37.51113978991119],[126.936238966172,37.511130925688484],[126.93623694478005,37.511122060564134],[126.93623492451957,37.51111319544035],[126.93623290312858,37.511104330315895],[126.93623088286829,37.51109546609302],[126.93622886147897,37.51108660006746],[126.93622684121965,37.51107773584449],[126.93622481983053,37.51106887071986],[126.93622279844188,37.51106000559515],[126.93622077818475,37.51105114047106],[126.93621875679706,37.51104227534626],[126.93621673654089,37.51103341022207],[126.93621471515416,37.511024545097186],[126.93621269489815,37.511015680873875],[126.93621067351236,37.511006815748885],[126.9362086532581,37.51099795062449],[126.93620663187329,37.510989085499425],[126.93620461161997,37.510980220374925],[126.93620259023608,37.51097135524976],[126.93620056885187,37.51096249102553],[126.9361985486,37.51095362590091],[126.93619652721756,37.510944760775594],[126.93619450696663,37.51093589565087],[126.93619248558512,37.51092703052548],[126.93619046533438,37.51091816630162],[126.93618844395462,37.51090930027513],[126.9361864237048,37.510900436051216],[126.93618440232522,37.51089157092564],[126.93618238207713,37.51088270580061],[126.93618036069849,37.510873840674904],[126.93617833932035,37.510864975549175],[126.93617631907371,37.510856110424015],[126.9361742976957,37.510847246199184],[126.93617227745001,37.51083838107391],[126.93617025607375,37.510829515948],[126.93599848493382,37.510075991807895],[126.93599646359856,37.510067126677875],[126.93597221439698,37.50996074691978],[126.93594584701312,37.50983864628304],[126.93592788941363,37.50971730624412],[126.9359176712382,37.50953424859132],[126.93592492954767,37.509377280900566],[126.93594376157543,37.50923846030719],[126.9359697322989,37.509118044734386],[126.93597975674285,37.50908032554379],[126.93593143378513,37.509080287012175],[126.93593428703836,37.509047038195675],[126.93599456480985,37.50900187762488],[126.93600029836435,37.508989771402426],[126.93601922588529,37.50893167658799],[126.9359970056095,37.508900877190904],[126.93598532526117,37.508845576512186],[126.93609709279724,37.50883248390108],[126.93608021830512,37.508689576392015],[126.93617838415952,37.5086710791948],[126.936148299704,37.50859254964963],[126.93616266933212,37.50857301496943],[126.93635933447511,37.50852930810957],[126.9363774684305,37.508498927471905],[126.93637395459977,37.508486944973356],[126.93645024172937,37.50845025155518],[126.93650567905249,37.508441667641776],[126.93667920551985,37.508414796161624],[126.93683703815867,37.50838896099159],[126.93694358982614,37.508337716496165],[126.93715246856215,37.508228449413856],[126.93729973584315,37.50821717699447],[126.93734127041171,37.508213997421024],[126.93739924168489,37.50819923182065],[126.93745494137184,37.508185045202204],[126.9376043344691,37.50815693932137],[126.93769890510683,37.508162117123575],[126.93775448056526,37.50816490418568],[126.93780395764306,37.508170327854906],[126.93794249781756,37.50818042158387],[126.93809690511482,37.508191685956355],[126.93817329011192,37.508195763407535],[126.93827204315107,37.50819041033457],[126.93845195447533,37.508188623432964],[126.93875793448603,37.50819284087249],[126.93893030533474,37.508199211371085],[126.93893434383985,37.50819961085048],[126.93896412207823,37.508201131287834],[126.93898713790723,37.50820141377202],[126.93899207130845,37.50820149386905],[126.93908634718501,37.50820497743056],[126.93908961524988,37.50825997423323],[126.93909688757037,37.508382329008064],[126.93911886165398,37.50903774585078],[126.94000140978612,37.50903842586505],[126.94000302477525,37.50906750819325],[126.94000703149945,37.509146680904415],[126.9400141387189,37.50933434429948],[126.94001551353678,37.50942320135599],[126.94001613646947,37.5094497180267],[126.94001886666098,37.50956842582233],[126.94001923064722,37.509579706496005],[126.94001929020173,37.50958156077911],[126.94002278983676,37.509749501256906],[126.94002465568937,37.50986989075797],[126.94002465850627,37.50988438149565],[126.94002447477655,37.5099291159054],[126.94002669338262,37.51000141216482],[126.94002825957142,37.51010243637495]]]},"properties":{"OBJECTID":85663,"PRESENT_SN":"11000UQ181PS202302070002","LCLAS_CL":"UQ1200","MLSFC_CL":"UQ1220","SCLAS_CL":"UQ1221","ATRB_SE":"UQ1221","WTNNC_SN":"11000AGZ202301300002","NTFC_SN":"11000NTC202301300004","DGM_NM":"노량진1재정비촉진구역","SIGNGU_SE":"11000","DRAWING_NO":" ","CREATE_DAT":1675728000000,"DGM_AR":132078.54413048,"DGM_LT":1479.56718289,"SHAPE.AREA":132078.54532223,"SHAPE.LEN":1479.56712916005}}]}