{"type":"FeatureCollection","features":[{"type":"Feature","id":86433,"geometry":{"type":"Polygon","coordinates":[[[127.12776019402911,37.52753692009189],[127.12754089298029,37.527221923512535],[127.12751570718157,37.52723351914642],[127.12711480518514,37.526657454084074],[127.1271303444288,37.52661418984048],[127.12749232521254,37.52645424726134],[127.12792631357384,37.52626252955024],[127.1282725440477,37.52610957512363],[127.12865157821086,37.52594213242691],[127.12870601368272,37.52595450754112],[127.12910052705965,37.526520816399966],[127.12931114528209,37.52682313351607],[127.12776019402911,37.52753692009189]]]},"properties":{"OBJECTID":86433,"PRESENT_SN":"11000UQ181PS201912150243","LCLAS_CL":"UQ1200","MLSFC_CL":"UQ1240","SCLAS_CL":" ","ATRB_SE":"UQ1240","WTNNC_SN":"11000AGZ201701030325","NTFC_SN":"11000NTC201608247852","DGM_NM":"성내미주아파트 주택재건축정비사업","SIGNGU_SE":"11000","DRAWING_NO":" ","CREATE_DAT":1576368000000,"DGM_AR":18416.44404508,"DGM_LT":548.01044785,"SHAPE.AREA":18416.444045,"SHAPE.LEN":548.010447850766}}]}