{"type":"FeatureCollection","features":[{"type":"Feature","id":86318,"geometry":{"type":"Polygon","coordinates":[[[126.96970077387452,37.53283074946524],[126.96964843684523,37.53285829675067],[126.96960971335628,37.5328787136236],[126.96960969752996,37.532878682985555],[126.9695627962149,37.532819927320055],[126.96946266793312,37.5328723686519],[126.96943117045208,37.53282958632566],[126.96938912582871,37.53277199689492],[126.96931205586412,37.532667325487616],[126.96928949730282,37.53263834337683],[126.96922070296364,37.53252213243602],[126.96917314060876,37.53244175078014],[126.9691593709291,37.532417474237285],[126.96913916762904,37.53238417698185],[126.96909527863684,37.53231252692915],[126.96902821754276,37.532223825487286],[126.9690098794405,37.532199608035874],[126.96898194489145,37.53216272717386],[126.96886918757176,37.532017877525355],[126.9688642055451,37.53201147638914],[126.96884450133122,37.531986162925044],[126.9688001964132,37.53194322731548],[126.96878460142652,37.5319281403581],[126.96868212055955,37.53182827278673],[126.96857241370527,37.53172120416858],[126.96856940217033,37.53171826698957],[126.96847230823536,37.531623679658324],[126.96845623863793,37.531607619450625],[126.96841115109923,37.53156249405829],[126.96839762612657,37.531548623970785],[126.9683174734207,37.5314723954054],[126.96823832687379,37.531517912964816],[126.9681162165675,37.5314318110545],[126.96792393910627,37.53131147383644],[126.96765429397297,37.53117698926412],[126.9672641607628,37.53099728794863],[126.96681119269518,37.530749871610354],[126.96684044089632,37.53072432260608],[126.96684767315263,37.53071800155349],[126.96684771842831,37.53071795471511],[126.9669154955878,37.53063912590394],[126.96701899628178,37.53055243460711],[126.96708098424303,37.53050016801433],[126.96714937784877,37.53044286669603],[126.96723052874437,37.530374931005106],[126.96723178502006,37.53037387720677],[126.9672728889507,37.53033946935727],[126.96746481867011,37.53019660016269],[126.96756800473919,37.53030710795779],[126.96756802961734,37.53030713319277],[126.967719679154,37.53047097830371],[126.96780064429218,37.530558280735846],[126.96787758479113,37.53063940114611],[126.96796880862874,37.53073596679821],[126.9679878062171,37.53072345198056],[126.96803202111083,37.53069431736888],[126.96811605397927,37.53063946522328],[126.9681242722293,37.530634102127856],[126.9681808342759,37.53060306084304],[126.96824951250204,37.530565535787545],[126.96834779399987,37.5305115596506],[126.96846811269765,37.53048358778271],[126.96856907896934,37.53042108970948],[126.9685796330563,37.53043192890854],[126.96870056848552,37.53056065875777],[126.96875358671122,37.53052736372845],[126.96862924604497,37.53040086654881],[126.96870910224837,37.53035141877953],[126.96883153997521,37.53048066157934],[126.96896959719207,37.53061328097549],[126.96905609353041,37.53070162381645],[126.9690529834149,37.530704311527664],[126.96913736609419,37.5307938051971],[126.96918357207578,37.53084257063994],[126.96921925029032,37.53087957521456],[126.9692501447702,37.53091227172019],[126.96928851432024,37.530952421477636],[126.96935512094554,37.531022600033495],[126.96938483935524,37.53105431409943],[126.96943640508835,37.53111055013908],[126.96946726640351,37.53114187706688],[126.96951723927299,37.53119289588337],[126.96955581315805,37.531232099563844],[126.96959084708247,37.53126859929288],[126.96964833843671,37.53133190063185],[126.96966118928387,37.531345835266414],[126.96971253732413,37.5314014782701],[126.96978803682279,37.531480679721724],[126.96975595074063,37.53150089750894],[126.96974055681241,37.53151033938791],[126.96973479668867,37.53151384720913],[126.96973183741042,37.53151565020247],[126.96971551217536,37.53152553781949],[126.96969036320311,37.531541300239766],[126.96967573553925,37.5315499233133],[126.96954713696776,37.531621300445224],[126.96949535812357,37.53165235178484],[126.96942225706606,37.53157622499132],[126.96936279542183,37.531514301529135],[126.96930846876961,37.531458470155535],[126.96922962526419,37.53137718798911],[126.96916264498395,37.53130726154262],[126.969148179466,37.531291450541914],[126.9691453976422,37.531288396311126],[126.96914085399783,37.5312834062624],[126.96911591525235,37.53125770578001],[126.96905874469527,37.53129335051978],[126.96896874638031,37.531350210001506],[126.96891230419033,37.531292488476936],[126.96888430450737,37.5312631714121],[126.968830359397,37.53120794629061],[126.9687599478306,37.531252776457606],[126.96869475222402,37.53129393467979],[126.96863025893866,37.531332929774884],[126.96854319679063,37.53138829319858],[126.96859976237839,37.53144535090046],[126.96862476557469,37.531470874013145],[126.96864455557684,37.53149099871621],[126.96872816980823,37.53157939143765],[126.96879549827736,37.53163661781444],[126.96896215223455,37.531812294598105],[126.96905239737522,37.531915525577965],[126.96907544664094,37.53194189679229],[126.9692575884202,37.532174737349514],[126.96938540508923,37.53234651061275],[126.96946642713064,37.53246874341814],[126.96946686356416,37.532469393153065],[126.96949405870419,37.53250854870718],[126.96950582006556,37.5325254626467],[126.96957546938363,37.532630259864504],[126.96963777371693,37.53273299538547],[126.96970077387452,37.53283074946524]]]},"properties":{"OBJECTID":86318,"PRESENT_SN":"11000UQ181PS201912151281","LCLAS_CL":"UQ1200","MLSFC_CL":"UQ1220","SCLAS_CL":"UQ1221","ATRB_SE":"UQ1221","WTNNC_SN":"11000AGZ201808100124","NTFC_SN":"11000NTC201807260001","DGM_NM":"신용산역 북측2 재개발정비구역","SIGNGU_SE":"11000","DRAWING_NO":" ","CREATE_DAT":1576368000000,"DGM_AR":22276.85053094,"DGM_LT":1155.43878832,"SHAPE.AREA":22276.850530985,"SHAPE.LEN":1155.43878832495}},{"type":"Feature","id":86787,"geometry":{"type":"Polygon","coordinates":[[[126.96970077387452,37.53283074946524],[126.96964843684523,37.53285829675067],[126.96960971335628,37.5328787136236],[126.96960969752996,37.532878682985555],[126.9695627962149,37.532819927320055],[126.96946266793312,37.5328723686519],[126.96943117045208,37.53282958632566],[126.96938912582871,37.53277199689492],[126.96931205586412,37.532667325487616],[126.96928949730282,37.53263834337683],[126.96922070296364,37.53252213243602],[126.96917314060876,37.53244175078014],[126.9691593709291,37.532417474237285],[126.96913916762904,37.53238417698185],[126.96909527863684,37.53231252692915],[126.96902821754276,37.532223825487286],[126.9690098794405,37.532199608035874],[126.96898194489145,37.53216272717386],[126.96886918757176,37.532017877525355],[126.9688642055451,37.53201147638914],[126.96884450133122,37.531986162925044],[126.9688001964132,37.53194322731548],[126.96878460142652,37.5319281403581],[126.96868212055955,37.53182827278673],[126.96857241370527,37.53172120416858],[126.96856940217033,37.53171826698957],[126.96847230823536,37.531623679658324],[126.96845623863793,37.531607619450625],[126.96841115109923,37.53156249405829],[126.96839762612657,37.531548623970785],[126.9683174734207,37.5314723954054],[126.96823832687379,37.531517912964816],[126.9681162165675,37.5314318110545],[126.96792393910627,37.53131147383644],[126.96765429397297,37.53117698926412],[126.9672641607628,37.53099728794863],[126.96681119269518,37.530749871610354],[126.96684044089632,37.53072432260608],[126.96684767315263,37.53071800155349],[126.96684771842831,37.53071795471511],[126.9669154955878,37.53063912590394],[126.96701899628178,37.53055243460711],[126.96708098424303,37.53050016801433],[126.96714937784877,37.53044286669603],[126.96723052874437,37.530374931005106],[126.96723178502006,37.53037387720677],[126.9672728889507,37.53033946935727],[126.96746481867011,37.53019660016269],[126.96756800473919,37.53030710795779],[126.96756802961734,37.53030713319277],[126.967719679154,37.53047097830371],[126.96780064429218,37.530558280735846],[126.96787758479113,37.53063940114611],[126.96796880862874,37.53073596679821],[126.9679878062171,37.53072345198056],[126.96803202111083,37.53069431736888],[126.96811605397927,37.53063946522328],[126.9681242722293,37.530634102127856],[126.9681808342759,37.53060306084304],[126.96824951250204,37.530565535787545],[126.96834779399987,37.5305115596506],[126.96846811269765,37.53048358778271],[126.96856907896934,37.53042108970948],[126.9685796330563,37.53043192890854],[126.96870056848552,37.53056065875777],[126.96875358671122,37.53052736372845],[126.96862924604497,37.53040086654881],[126.96870910224837,37.53035141877953],[126.96883153997521,37.53048066157934],[126.96896959719207,37.53061328097549],[126.96905609353041,37.53070162381645],[126.9690529834149,37.530704311527664],[126.96913736609419,37.5307938051971],[126.96918357207578,37.53084257063994],[126.96921925029032,37.53087957521456],[126.9692501447702,37.53091227172019],[126.96928851432024,37.530952421477636],[126.96935512094554,37.531022600033495],[126.96938483935524,37.53105431409943],[126.96943640508835,37.53111055013908],[126.96946726640351,37.53114187706688],[126.96951723927299,37.53119289588337],[126.96955581315805,37.531232099563844],[126.96959084708247,37.53126859929288],[126.96964833843671,37.53133190063185],[126.96966118928387,37.531345835266414],[126.96971253732413,37.5314014782701],[126.96978803682279,37.531480679721724],[126.96975595074063,37.53150089750894],[126.96974055681241,37.53151033938791],[126.96973479668867,37.53151384720913],[126.96973183741042,37.53151565020247],[126.96971551217536,37.53152553781949],[126.96969036320311,37.531541300239766],[126.96967573553925,37.5315499233133],[126.96954713696776,37.531621300445224],[126.96949535812357,37.53165235178484],[126.96942225706606,37.53157622499132],[126.96936279542183,37.531514301529135],[126.96930846876961,37.531458470155535],[126.96922962526419,37.53137718798911],[126.96916264498395,37.53130726154262],[126.969148179466,37.531291450541914],[126.9691453976422,37.531288396311126],[126.96914085399783,37.5312834062624],[126.96911591525235,37.53125770578001],[126.96905874469527,37.53129335051978],[126.96896874638031,37.531350210001506],[126.96891230419033,37.531292488476936],[126.96888430450737,37.5312631714121],[126.968830359397,37.53120794629061],[126.9687599478306,37.531252776457606],[126.96869475222402,37.53129393467979],[126.96863025893866,37.531332929774884],[126.96854319679063,37.53138829319858],[126.96859976237839,37.53144535090046],[126.96862476557469,37.531470874013145],[126.96864455557684,37.53149099871621],[126.96872816980823,37.53157939143765],[126.96879549827736,37.53163661781444],[126.96896215223455,37.531812294598105],[126.96905239737522,37.531915525577965],[126.96907544664094,37.53194189679229],[126.9692575884202,37.532174737349514],[126.96938540508923,37.53234651061275],[126.96946642713064,37.53246874341814],[126.96946686356416,37.532469393153065],[126.96949405870419,37.53250854870718],[126.96950582006556,37.5325254626467],[126.96957546938363,37.532630259864504],[126.96963777371693,37.53273299538547],[126.96970077387452,37.53283074946524]]]},"properties":{"OBJECTID":86787,"PRESENT_SN":"11000UQ181PS201912151281","LCLAS_CL":"UQ1200","MLSFC_CL":"UQ1220","SCLAS_CL":"UQ1221","ATRB_SE":"UQ1221","WTNNC_SN":"11000AGZ201808100124","NTFC_SN":"11000NTC201807260001","DGM_NM":"신용산역 북측2 재개발정비구역","SIGNGU_SE":"11000","DRAWING_NO":" ","CREATE_DAT":1576368000000,"DGM_AR":22276.85053094,"DGM_LT":1155.43878832,"SHAPE.AREA":22276.850530985,"SHAPE.LEN":1155.43878832495}}]}