{"type":"FeatureCollection","features":[{"type":"Feature","id":84431,"geometry":{"type":"Polygon","coordinates":[[[127.12849802861267,37.54183097593394],[127.12853675687519,37.541962262846845],[127.12855312497848,37.54205936314242],[127.12854472405057,37.542123090315364],[127.12854971081809,37.54214118587539],[127.12855423264241,37.54218535663603],[127.12857504147254,37.542238772069176],[127.12858525617779,37.54226370052966],[127.12858140487448,37.54237462576308],[127.12856169516836,37.54245018791395],[127.1285466104335,37.54250800996556],[127.12853432422483,37.54254265009289],[127.12848987063947,37.54255178349673],[127.12844582640588,37.542562103950914],[127.12840224354802,37.542573596984084],[127.12837590108197,37.54258133416914],[127.12835917182677,37.54258624812747],[127.12831665648326,37.54260004652114],[127.12827474727249,37.54261497409241],[127.12825010954724,37.54262445283844],[127.12824365045564,37.54262693839791],[127.12821294618948,37.542639523958286],[127.1281826491711,37.54265272355018],[127.12817423807564,37.54263039428508],[127.1281030042544,37.54244128583468],[127.12811031815822,37.542375528125234],[127.12810564200646,37.54236709084551],[127.12806908412193,37.54230115941371],[127.12803015415966,37.54223093278048],[127.12801023408537,37.542195002746666],[127.12787079979717,37.54182482908167],[127.1278169493309,37.54183867636482],[127.12689498810158,37.542075633930196],[127.12654908560066,37.54134597023041],[127.12654389279122,37.541333587990735],[127.12652548905601,37.541289701237574],[127.1265150246439,37.5412638178071],[127.12649087768492,37.541195692335684],[127.12647199937692,37.541158942832226],[127.12646354885204,37.54114648204521],[127.12642975920004,37.54107695220414],[127.12642153559348,37.54106485157067],[127.1263884385183,37.54099669049201],[127.1263803820085,37.54098300393299],[127.12635429595511,37.54092579149288],[127.12634920482049,37.54091259734248],[127.1263071397415,37.54082687637511],[127.12642155430186,37.540791166237995],[127.12643402588056,37.54078583719424],[127.12645091132958,37.54078111615435],[127.1264806220314,37.540772813613614],[127.12649517768271,37.540768752756804],[127.12653709921453,37.54075483310881],[127.12656261340241,37.540747354892545],[127.12666778137881,37.54071723144717],[127.12683625997995,37.54066876862526],[127.12698664339949,37.540625694701205],[127.12699640395121,37.54062313452359],[127.12718005461237,37.5405876113541],[127.12718997465079,37.54058569970502],[127.12760975225366,37.540547032172476],[127.12770803644891,37.54054164738008],[127.127799651047,37.54053997271502],[127.12794651499085,37.540537283792844],[127.1279468911624,37.54052552544464],[127.1279914163088,37.5405259372754],[127.12811266039574,37.54053503352649],[127.12818369534021,37.540541417470905],[127.12825031836043,37.54054833769248],[127.12837305750469,37.54056494634493],[127.12842277829188,37.54057991246233],[127.12843803783349,37.540584004587025],[127.12850148452344,37.54060610979523],[127.12852081665513,37.540609720004326],[127.1286504916961,37.540612789811526],[127.12869667005891,37.540613891558415],[127.12868818318286,37.54063084295072],[127.12875812043588,37.540653045546385],[127.1288230254713,37.54067430207777],[127.12888767799694,37.54069343250466],[127.12899867191702,37.54072961370848],[127.12906677838605,37.54075037110403],[127.12910931283027,37.54076441667137],[127.12923522742949,37.5408114925433],[127.12944176589157,37.54089408817554],[127.1295203133868,37.54092631263542],[127.12956566725298,37.540948022423024],[127.12960255629581,37.54094918974875],[127.12969710681084,37.5410230676085],[127.1297240499543,37.54104405850278],[127.12974659257013,37.54105903554314],[127.1297587349467,37.541066410491815],[127.12988451971147,37.54114282210507],[127.129984388319,37.54120980136346],[127.12992888726305,37.541239821507055],[127.12988385649177,37.5412641774211],[127.12980498183134,37.541310750704916],[127.12936302193769,37.54144129355834],[127.12934387836619,37.54144621387446],[127.12926161730549,37.54146735726218],[127.12882577044499,37.54157938511823],[127.12848148988013,37.54166787455646],[127.12849152834221,37.54169035972724],[127.12849090514254,37.541693852641544],[127.12848911628804,37.5417039042275],[127.12848805821642,37.541709848307036],[127.12849018470935,37.54175077267236],[127.12849338040111,37.54181233040177],[127.12849802861267,37.54183097593394]]]},"properties":{"OBJECTID":84431,"PRESENT_SN":"11000UQ181PS201912151596","LCLAS_CL":"UQ1200","MLSFC_CL":"UQ1220","SCLAS_CL":"UQ1222","ATRB_SE":"UQ1222","WTNNC_SN":"11000AGZ201909050094","NTFC_SN":"11000NTC201907251077","DGM_NM":"천호1구역","SIGNGU_SE":"11000","DRAWING_NO":" ","CREATE_DAT":1576368000000,"DGM_AR":38213.36271261,"DGM_LT":964.19424478,"SHAPE.AREA":38213.36271269,"SHAPE.LEN":964.194244784559}}]}