{"type":"FeatureCollection","features":[{"type":"Feature","id":86569,"geometry":{"type":"Polygon","coordinates":[[[126.93053729732266,37.526527012921896],[126.93036326231719,37.52670336797325],[126.93007936247011,37.52699092016427],[126.92995665685365,37.526913729771636],[126.92988432033839,37.52698644122173],[126.92985261346739,37.52701847035874],[126.92969201769914,37.527180750016456],[126.92943130466249,37.52744528530723],[126.92889396912999,37.52710841672154],[126.92880934301405,37.52705547628616],[126.92879261377296,37.52701782244072],[126.92879825960502,37.52698216455843],[126.92880850981717,37.52695814134802],[126.92890560207418,37.52685997466634],[126.92899365944018,37.52676897427151],[126.92905755040461,37.52670327693031],[126.92914889002465,37.52661032327272],[126.92924553986138,37.526512489402236],[126.92931967884947,37.526436076352],[126.92943601032653,37.52631707197067],[126.9295244954137,37.526226990446496],[126.92964851557532,37.5260997103977],[126.92981315366683,37.52593127942937],[126.9298709400431,37.525871407366964],[126.92995573333525,37.525784242495426],[126.93010967097975,37.52562476050703],[126.9301531742422,37.525583043718896],[126.9301830118884,37.52556487967149],[126.93022510879236,37.52555062432353],[126.93027830132877,37.52556240538825],[126.93052782466657,37.5257191394783],[126.93068481009921,37.52581654114427],[126.93047501736194,37.526028689467005],[126.93081797869476,37.526241701155705],[126.93053729732266,37.526527012921896]]]},"properties":{"OBJECTID":86569,"PRESENT_SN":"11560UQ181PS202212140001","LCLAS_CL":"UQ1200","MLSFC_CL":"UQ1240","SCLAS_CL":" ","ATRB_SE":"UQ1240","WTNNC_SN":"11560AGZ202210050001","NTFC_SN":"11560NTC202210050005","DGM_NM":"여의도 공작아파트 재건축정비사업","SIGNGU_SE":"11560","DRAWING_NO":" ","CREATE_DAT":1670976000000,"DGM_AR":16928.01851303,"DGM_LT":595.61590007,"SHAPE.AREA":16928.018513,"SHAPE.LEN":595.615900073453}}]}