{"type":"FeatureCollection","features":[{"type":"Feature","id":85411,"geometry":{"type":"Polygon","coordinates":[[[126.90293548844862,37.55327502247144],[126.90276921968409,37.553387074841204],[126.9026440888442,37.55347242003957],[126.90262853608405,37.55348347117497],[126.90256880587788,37.55347444727597],[126.90251736170043,37.55340400979411],[126.90243193588466,37.55328858436861],[126.90241538526998,37.55326693770481],[126.90240948546841,37.553269725822766],[126.90231178960407,37.5531649937725],[126.90226493992506,37.55308818913535],[126.902225346787,37.55302327644387],[126.90213636313051,37.55283508383282],[126.90213628311477,37.55283483238919],[126.90209706196212,37.55271412884533],[126.90209708691778,37.55271408471782],[126.90211414397132,37.55268486104229],[126.90218346788778,37.55263590550808],[126.90230784459435,37.552546812031835],[126.90238815961382,37.552487233924325],[126.90247447799686,37.55242342614249],[126.90254062785743,37.55237816179417],[126.9025708541623,37.55235308553521],[126.90259896371852,37.552336945319375],[126.902697175633,37.55226458792724],[126.90277204623894,37.552213924803546],[126.90297077143696,37.55205687700747],[126.90316254693732,37.55190875189883],[126.90342780511303,37.55170559197269],[126.90368753828496,37.5517854946407],[126.90368779167714,37.55178557233582],[126.90372006848482,37.55177567015749],[126.90376386853953,37.55178956365771],[126.90389698691564,37.55183279518478],[126.90401333032263,37.55187023736261],[126.90408213052757,37.55189171069482],[126.90421044192303,37.55193320799983],[126.904334217815,37.551972890441824],[126.90441249635704,37.55199841682854],[126.90453770993186,37.55203791103122],[126.90459623779336,37.55205711414059],[126.90460806021359,37.552138528325585],[126.90448144518835,37.55222840625519],[126.90409075370516,37.55249172333919],[126.90385360479821,37.55265207489998],[126.9038190023015,37.552674769251155],[126.90371816997275,37.552743647578836],[126.90365103590017,37.552788938798216],[126.90358755970004,37.5528322328143],[126.9035833466558,37.55283466199393],[126.9035177059124,37.55288020665249],[126.90343070418558,37.552938960069206],[126.90334098273121,37.55300041413065],[126.90322457543783,37.55307947829146],[126.90302717008207,37.553212281940326],[126.90293548844862,37.55327502247144]]]},"properties":{"OBJECTID":85411,"PRESENT_SN":"11000UQ181PS201912150361","LCLAS_CL":"UQ1200","MLSFC_CL":"UQ1240","SCLAS_CL":" ","ATRB_SE":"UQ1240","WTNNC_SN":"11000AGZ201207160028","NTFC_SN":"11000NTC201205246495","DGM_NM":"망원1 주택재건축정비사업","SIGNGU_SE":"11000","DRAWING_NO":" ","CREATE_DAT":1576368000000,"DGM_AR":20654.31983901,"DGM_LT":613.76030727,"SHAPE.AREA":20654.31983905,"SHAPE.LEN":613.760307265062}},{"type":"Feature","id":85161,"geometry":{"type":"Polygon","coordinates":[[[126.90293548844862,37.55327502247144],[126.90276921968409,37.553387074841204],[126.9026440888442,37.55347242003957],[126.90262853608405,37.55348347117497],[126.90256880587788,37.55347444727597],[126.90251736170043,37.55340400979411],[126.90243193588466,37.55328858436861],[126.90241538526998,37.55326693770481],[126.90240948546841,37.553269725822766],[126.90231178960407,37.5531649937725],[126.90226493992506,37.55308818913535],[126.902225346787,37.55302327644387],[126.90213636313051,37.55283508383282],[126.90213628311477,37.55283483238919],[126.90209706196212,37.55271412884533],[126.90209708691778,37.55271408471782],[126.90211414397132,37.55268486104229],[126.90218346788778,37.55263590550808],[126.90230784459435,37.552546812031835],[126.90238815961382,37.552487233924325],[126.90247447799686,37.55242342614249],[126.90254062785743,37.55237816179417],[126.9025708541623,37.55235308553521],[126.90259896371852,37.552336945319375],[126.902697175633,37.55226458792724],[126.90277204623894,37.552213924803546],[126.90297077143696,37.55205687700747],[126.90316254693732,37.55190875189883],[126.90342780511303,37.55170559197269],[126.90368753828496,37.5517854946407],[126.90368779167714,37.55178557233582],[126.90372006848482,37.55177567015749],[126.90376386853953,37.55178956365771],[126.90389698691564,37.55183279518478],[126.90401333032263,37.55187023736261],[126.90408213052757,37.55189171069482],[126.90421044192303,37.55193320799983],[126.904334217815,37.551972890441824],[126.90441249635704,37.55199841682854],[126.90453770993186,37.55203791103122],[126.90459623779336,37.55205711414059],[126.90460806021359,37.552138528325585],[126.90448144518835,37.55222840625519],[126.90409075370516,37.55249172333919],[126.90385360479821,37.55265207489998],[126.9038190023015,37.552674769251155],[126.90371816997275,37.552743647578836],[126.90365103590017,37.552788938798216],[126.90358755970004,37.5528322328143],[126.9035833466558,37.55283466199393],[126.9035177059124,37.55288020665249],[126.90343070418558,37.552938960069206],[126.90334098273121,37.55300041413065],[126.90322457543783,37.55307947829146],[126.90302717008207,37.553212281940326],[126.90293548844862,37.55327502247144]]]},"properties":{"OBJECTID":85161,"PRESENT_SN":"11000UQ181PS201912150361","LCLAS_CL":"UQ1200","MLSFC_CL":"UQ1240","SCLAS_CL":" ","ATRB_SE":"UQ1240","WTNNC_SN":"11000AGZ201207160028","NTFC_SN":"11000NTC201205246495","DGM_NM":"망원1 주택재건축정비사업","SIGNGU_SE":"11000","DRAWING_NO":" ","CREATE_DAT":1576368000000,"DGM_AR":20654.31983901,"DGM_LT":613.76030727,"SHAPE.AREA":20654.31983905,"SHAPE.LEN":613.760307265062}}]}