{"type":"FeatureCollection","features":[{"type":"Feature","id":84699,"geometry":{"type":"Polygon","coordinates":[[[126.82759487407964,37.53523744256997],[126.827578073413,37.53531111178235],[126.827560242933,37.53538973312959],[126.827501267493,37.53564838236796],[126.8273475745018,37.53562617340285],[126.82737696874506,37.53548901005723],[126.82739858568262,37.53538778302166],[126.82740315830237,37.53536661824846],[126.8274195149203,37.53529033733185],[126.82742031570682,37.53528655434505],[126.82744261891284,37.535182084737436],[126.82743516995092,37.53512549685187],[126.8273928837167,37.53506642673078],[126.82748223614323,37.535025498415685],[126.82745008911257,37.53498516046791],[126.82740034566369,37.5349227438836],[126.82739256198016,37.534912823294995],[126.82731991993914,37.534821726764754],[126.82730051857851,37.53479737315712],[126.8272502092954,37.53473414658207],[126.82724580960038,37.534728644037],[126.82719911000088,37.53467010792588],[126.82715128468907,37.534610128546085],[126.82710029828415,37.53454627021109],[126.82705138108562,37.53448590715649],[126.82703047391706,37.53446013131492],[126.82700091783828,37.534423871356736],[126.82695083424112,37.53436208657189],[126.82691682754663,37.53431504234317],[126.82686680815563,37.53425295488317],[126.82681627227291,37.534190178279275],[126.82681480565905,37.53418837412506],[126.82676472363795,37.534126046864074],[126.82671486487112,37.534064082110625],[126.82666331030546,37.534002565321124],[126.82661039967606,37.53393942471395],[126.82655956037506,37.533878854979356],[126.82650420408314,37.53384272605719],[126.82639041389926,37.53382288331025],[126.82636836285965,37.533819068244114],[126.82624906326812,37.53379808013791],[126.82613044236781,37.53377718301828],[126.8260862274249,37.53376945891398],[126.82596037071737,37.53374738138706],[126.8258415214381,37.5337264836378],[126.8258152296764,37.53372183685128],[126.82579730902948,37.53371866932983],[126.82567891218223,37.53369786399126],[126.82555961297962,37.53367687518918],[126.82551539815137,37.5336691526733],[126.82539609904096,37.53364816370614],[126.82527906171613,37.533627628489846],[126.82523484716258,37.53361981396812],[126.82511351234312,37.53359855318125],[126.82499466580235,37.53357765458383],[126.82495045130415,37.53356984175768],[126.82482900372551,37.53354848860871],[126.82471267509031,37.53352789983178],[126.82473158528512,37.533459784278456],[126.82475121338459,37.533387563072075],[126.82477084187538,37.533315159861644],[126.82479046989852,37.53324293864675],[126.82481009831297,37.533170535427814],[126.82482972668492,37.533098134006565],[126.8248495827865,37.53302510042503],[126.82486932421952,37.53295269916447],[126.824888838068,37.53288083635283],[126.82490846629109,37.532808433112585],[126.82492798069687,37.5327363017977],[126.82494806457521,37.53266254954338],[126.8249625574716,37.532609778450244],[126.82500020822748,37.532474069559534],[126.82502964399347,37.532367628836404],[126.8250491564,37.532297207576875],[126.82506866403185,37.53222687640535],[126.82508817636024,37.53215645693946],[126.82510768391828,37.532086125759626],[126.82512719617704,37.532015704483435],[126.82514670613193,37.531945285001676],[126.82516621584197,37.53187495381273],[126.82518572572297,37.53180453432265],[126.82520523535923,37.5317342031254],[126.82522622211964,37.53166404171352],[126.82523934854927,37.531611010853396],[126.82525840172057,37.53154230255258],[126.8252777972357,37.531472331566846],[126.82529753508851,37.53140109969794],[126.8253172728993,37.53132986962674],[126.8253368964816,37.53125908807536],[126.82535640809456,37.531188756849225],[126.82537591535288,37.531118337315185],[126.82539542689204,37.53104800608074],[126.82541493408073,37.53097758473642],[126.82543478791139,37.53090599441606],[126.8254546394454,37.53083440228603],[126.82557506501826,37.53085557307599],[126.82569763937427,37.53087710733911],[126.82571180143185,37.530879121416866],[126.82574185236318,37.530884919885246],[126.82578734459618,37.53089238833697],[126.82586114738534,37.53090581840306],[126.82595460252865,37.53092182924923],[126.82598485262194,37.530927624347875],[126.82602352438516,37.53093443746081],[126.82614395028186,37.53095560767117],[126.82626652496737,37.53097714134435],[126.82630519678213,37.530983954365134],[126.82642686690251,37.5310053063314],[126.82654831082272,37.531026657837195],[126.82652868845032,37.53109743779376],[126.82650906603637,37.531168219548086],[126.82648955777721,37.531238549169025],[126.82647004926648,37.53130897068677],[126.8264504267409,37.5313797524285],[126.82643080396744,37.531450624265005],[126.82641118137138,37.531521404196354],[126.82639155873379,37.531592185925476],[126.826372047779,37.53166260561696],[126.82636566739602,37.53168561291578],[126.8263525415192,37.531732937014034],[126.82633303048638,37.53180335849918],[126.82631842784383,37.53185612780417],[126.82631416732448,37.531871517647595],[126.8263804698705,37.531883157701984],[126.82649987538167,37.53190594601953],[126.8265954219734,37.531924195720514],[126.8266171322125,37.5319283724393],[126.82673891268175,37.531951614528495],[126.82687494211073,37.531977582343025],[126.82689914033256,37.53198221318528],[126.8270235218575,37.532005999422225],[126.82712065240734,37.53202434113775],[126.82715932630508,37.53203052498846],[126.82720569769059,37.53203491640007],[126.82725218665891,37.532036426592335],[126.82726123820966,37.5320361696498],[126.82729879773441,37.53203505376973],[126.8273427957819,37.532030574056336],[126.8273852496985,37.53202455135241],[126.82739090861833,37.53202365870297],[126.82743584005233,37.53201381582042],[126.82744818030507,37.53201023003784],[126.82747964907149,37.5320010880901],[126.82752179685303,37.53198559905641],[126.82754429949719,37.531976948437865],[126.82763578980459,37.53194041637074],[126.82770689666793,37.5319119631714],[126.82777056104173,37.531886567761774],[126.8277948762488,37.53187686740222],[126.8278323547193,37.53186187774694],[126.82786563856992,37.53185057598266],[126.82790027294904,37.53184233776759],[126.82790321532228,37.531841983497785],[126.82793591987094,37.53183752660492],[126.8279721222784,37.531836138218196],[126.8279947445475,37.53183734274795],[126.82800820382622,37.531838083315954],[126.82804371176978,37.531843449530626],[126.82807819603177,37.531852149706495],[126.82811119997146,37.53186399937146],[126.82814216284913,37.53187881930702],[126.82817074094145,37.53189651891103],[126.82820959257008,37.531923692205645],[126.82827442145063,37.53196901354886],[126.82837109894604,37.532036630665836],[126.82844541609526,37.53208863136837],[126.82851713331112,37.53213873613072],[126.82852028474305,37.532140940971054],[126.82858331792106,37.53218504857893],[126.82866960647875,37.53224535580049],[126.8285816946686,37.53230009035482],[126.82856781991947,37.53230873218149],[126.82848891302058,37.53235788288571],[126.82840304032953,37.532411358903396],[126.82839318324125,37.53241747120487],[126.82838081545158,37.5324339394386],[126.82831148171468,37.532526268812155],[126.8282569017207,37.53259871145501],[126.82826176451358,37.53269745656838],[126.8282632780061,37.532727908735005],[126.82826695259428,37.53280133601294],[126.82828183405168,37.53282415115275],[126.82829750251094,37.53284813873528],[126.82832872570495,37.532896380420866],[126.82838148247401,37.53297744799494],[126.8284428524474,37.53305123192909],[126.82850410982375,37.53312483366511],[126.82853643186989,37.533163755234575],[126.82856965429664,37.53320375930453],[126.82859512817033,37.533234329440134],[126.82863158682595,37.53327808275547],[126.82867338857179,37.53332842653038],[126.82869397242382,37.53335321772939],[126.82875669714277,37.53342853516608],[126.82881874482133,37.5335031289826],[126.82888553116504,37.53358349604426],[126.8288377409735,37.533654236980965],[126.8288322143526,37.5336624765855],[126.82878087045528,37.53373856780122],[126.82874307060922,37.5337944569334],[126.82868778964925,37.53387626725312],[126.82864340491159,37.53394196753307],[126.82860560464769,37.53399794851972],[126.82858768089157,37.53402446911729],[126.82854021942309,37.53409469864534],[126.82850820684757,37.534142038548865],[126.82847051973334,37.534197927754654],[126.82838288703593,37.53432761790677],[126.82835076049601,37.53437522789615],[126.82830070062492,37.53444947914717],[126.82822438401155,37.53456239848275],[126.82816148841873,37.53465555888404],[126.82812372627208,37.5347113793882],[126.82800237599463,37.53489101760116],[126.8279399411011,37.53498335865258],[126.8278419958244,37.53503846170264],[126.82773808187054,37.535097114807805],[126.82770104073717,37.53511795971437],[126.82763352690611,37.53515596869926],[126.82761526782802,37.53515316675856],[126.82759487407964,37.53523744256997]]]},"properties":{"OBJECTID":84699,"PRESENT_SN":"11000UQ181PS201912150373","LCLAS_CL":"UQ1200","MLSFC_CL":"UQ1220","SCLAS_CL":"UQ1221","ATRB_SE":"UQ1221","WTNNC_SN":"11000AGZ200911247804","NTFC_SN":"11000NTC200911124066","DGM_NM":"신월1구역주택재개발사업","SIGNGU_SE":"11000","DRAWING_NO":" ","CREATE_DAT":1576368000000,"DGM_AR":92528.86364706,"DGM_LT":1585.34703763,"SHAPE.AREA":92528.8636471,"SHAPE.LEN":1585.34703762849}}]}