{"type":"FeatureCollection","features":[{"type":"Feature","id":86431,"geometry":{"type":"Polygon","coordinates":[[[127.1177994461184,37.49844931861027],[127.11774066589905,37.498391531443026],[127.11773639320585,37.49825998895503],[127.11773309390364,37.49824647722198],[127.11772943176662,37.49807033469916],[127.11772886145216,37.49806718176505],[127.1177221305019,37.49802844454477],[127.11768620500428,37.497904051065525],[127.11763558954209,37.49771299721053],[127.11760863988364,37.49761562483866],[127.11757936053809,37.4975480778042],[127.11747547165122,37.49742446999442],[127.11680725548396,37.49735348555918],[127.11676883387314,37.49737190342073],[127.11666492492132,37.49730785183027],[127.11667505246153,37.49727450500597],[127.11668990670265,37.49722628619266],[127.1167092463769,37.497153376538996],[127.11673549968849,37.497015498127844],[127.1168999157836,37.49678594337569],[127.11704634951154,37.496481532968104],[127.11718323769195,37.496443919279415],[127.11727946883812,37.49636742122453],[127.11730777868637,37.49631873954283],[127.11729647039385,37.49631875062536],[127.11733958168288,37.49626203553949],[127.11737593446959,37.49614856413483],[127.11738403586874,37.49604764341109],[127.11737065438217,37.49594854665226],[127.1173256432912,37.49579713105768],[127.11729186539753,37.495745716221336],[127.11739097696133,37.49533404181447],[127.11747004597844,37.495349462323034],[127.11753471179583,37.49526398413124],[127.11756880343877,37.495151325768035],[127.11768974567929,37.4951889605689],[127.11778517886643,37.494962355526],[127.11777947707027,37.494930825268185],[127.11777065925612,37.49485875401793],[127.11777393161434,37.49485424580242],[127.11803931597414,37.49476866245013],[127.1180260213165,37.494726598902886],[127.11812415252878,37.49471118600627],[127.11820361442525,37.494909690456936],[127.11826779789119,37.49509991985396],[127.1183138211777,37.495246829110805],[127.11855597540858,37.49520289372155],[127.11861673775826,37.495373304329576],[127.11864375442053,37.495440853375165],[127.11863327981025,37.49561475746437],[127.11836970253913,37.495627088235715],[127.1183764687007,37.49568835037418],[127.11840581183453,37.495723550405934],[127.1184021986236,37.49580104079155],[127.11838966553208,37.49588655798974],[127.11838282955901,37.49592710970379],[127.11836573957754,37.49599109753107],[127.11831690437873,37.496075749618434],[127.11824895935862,37.49616123146644],[127.1181968375076,37.49624138175479],[127.11820389043847,37.49634237766362],[127.11820675381963,37.49636571070606],[127.118203263268,37.496449507047075],[127.11820983965177,37.49653419534373],[127.11820601579709,37.49676936161375],[127.11817185320166,37.49690896006319],[127.11814901190422,37.497057648311966],[127.11814080254665,37.49716127127196],[127.11814308199051,37.49724686480238],[127.11814857168937,37.49728650332685],[127.11814279552506,37.497354985832274],[127.11815061725316,37.49744057298748],[127.1183516601632,37.49757318515151],[127.1184533343755,37.49765264454341],[127.11843063955189,37.49767600286967],[127.11854908314073,37.497850952337984],[127.1185906671286,37.497977142846054],[127.11862571224134,37.498042972011675],[127.11834928097326,37.49830570388565],[127.11832659728734,37.498336360266755],[127.11827324689956,37.49842732375728],[127.11807528731475,37.49846310596909],[127.11801096046536,37.498402711512995],[127.1177994461184,37.49844931861027]]]},"properties":{"OBJECTID":86431,"PRESENT_SN":"11710UQ181PS202404300001","LCLAS_CL":"UQ1200","MLSFC_CL":"UQ1240","SCLAS_CL":" ","ATRB_SE":"UQ1240","WTNNC_SN":"11710AGZ202312200001","NTFC_SN":"11710NTC202403260003","DGM_NM":"가락우성1차아파트 재건축정비구역","SIGNGU_SE":"11710","DRAWING_NO":" ","CREATE_DAT":1714435200000,"DGM_AR":35043.74772953,"DGM_LT":1102.10666583,"SHAPE.AREA":35043.74401557,"SHAPE.LEN":1102.10676976889}}]}