{"type":"FeatureCollection","features":[{"type":"Feature","id":84783,"geometry":{"type":"Polygon","coordinates":[[[127.01464221490022,37.55983255801412],[127.01457519437709,37.55985617137065],[127.01451059593903,37.55988032501629],[127.01448978356082,37.559887625319874],[127.0144540324345,37.55990016200658],[127.01444193435961,37.5599046682791],[127.01439428898159,37.55992242297839],[127.01425539218472,37.559969649895066],[127.01417857127764,37.560000291801074],[127.01414944062441,37.56001038600365],[127.01404560185728,37.559827126782416],[127.0139662562622,37.559852633178394],[127.0138745973035,37.55988165466939],[127.01375557269795,37.55991771565675],[127.01371150095171,37.55984968649498],[127.01366276351837,37.559764448895166],[127.01363521928604,37.55971633888169],[127.0136317549035,37.55970949171636],[127.01359534610465,37.55964461518595],[127.01359226692944,37.5596402006519],[127.01354892941973,37.55956136848581],[127.01353464229463,37.559536592726545],[127.01350747235149,37.55949243798768],[127.01350056625253,37.5594786535476],[127.01349869827304,37.55947532007557],[127.01348907546077,37.55945883294156],[127.01346256192136,37.559414137531476],[127.01350643818282,37.55939530240178],[127.01358437918086,37.55936448061752],[127.01364010461351,37.55934231056493],[127.01366726575678,37.559332117580645],[127.01374194650012,37.559297692068924],[127.01382819337951,37.55925957124696],[127.01421568869208,37.559114701531946],[127.0142525555796,37.55908981402896],[127.01443514819404,37.55889528313588],[127.01458305493702,37.55883998754078],[127.01466219189722,37.558742259215144],[127.0147053028851,37.558687735519705],[127.01483207265568,37.558686820304196],[127.01494044142677,37.55863193776027],[127.01506076002951,37.558568665531865],[127.01524007295696,37.55856631847459],[127.01526854190207,37.55855598261229],[127.0152866786021,37.55851327178234],[127.01531775077588,37.55856530211558],[127.01536983268117,37.55855331285367],[127.01538093415584,37.55854682442462],[127.01540334111913,37.558535469320915],[127.01537420012235,37.5584857290993],[127.01533293422018,37.55841598831629],[127.01532125087185,37.55839706889727],[127.01529492880123,37.55835121159135],[127.01523254908342,37.55824597423505],[127.01522237144711,37.55822929809544],[127.01519052496505,37.55817515229967],[127.0151774490089,37.55815289035467],[127.01516204090368,37.55812667333233],[127.01514504791244,37.558098113917204],[127.01513842536875,37.55808865428812],[127.01511545473234,37.558049364769026],[127.0150832347755,37.55799440809479],[127.01507305712673,37.557977290456584],[127.01504663307225,37.55792908152019],[127.01504131108875,37.557914125698275],[127.01499724079859,37.55785411580274],[127.01498071141903,37.557822583043155],[127.01495017780084,37.557766626039424],[127.01491356468505,37.55769949744255],[127.0148924629602,37.557667334495456],[127.01480328802766,37.55751884340631],[127.01477005097037,37.55746965309156],[127.01475772271634,37.55745019309213],[127.01472578690087,37.557399101529676],[127.01473371427413,37.557363871936204],[127.01472391929606,37.557333770958124],[127.0146824721925,37.55732062113301],[127.01461356228891,37.55720565346735],[127.01460683773445,37.55719448193735],[127.01456127149596,37.55711834431696],[127.01453232433724,37.55707049593305],[127.01454631789083,37.557034995384456],[127.01467579283658,37.556987309647546],[127.01470715135585,37.55697478238818],[127.01488328474667,37.55690881011529],[127.01499310655377,37.55686773771705],[127.0149938021131,37.556858873697884],[127.01499742599219,37.55680876922924],[127.01500441536867,37.55671929111122],[127.01500711205088,37.5566738809051],[127.0150096304449,37.55664396774783],[127.01501587458108,37.556564130305425],[127.01502118235099,37.55650087118601],[127.01502741628407,37.55642734067279],[127.01510713129414,37.55640147311051],[127.01512197883858,37.55639669615341],[127.01515454835705,37.55638615081263],[127.01521336126314,37.55636677271912],[127.01526787300106,37.55622129252215],[127.01541272173009,37.55614865576301],[127.01551672041771,37.5561071979338],[127.01563400397225,37.55611741020952],[127.01569638620647,37.556122844715986],[127.01570266743735,37.556123393565585],[127.01572100735065,37.556154025025386],[127.0157812988597,37.55611554547968],[127.0158406171363,37.556077696714055],[127.01601772014804,37.556008839453],[127.01604628266179,37.555996357228715],[127.01609984115443,37.556021524291666],[127.01610208219647,37.55602260520308],[127.01611356921505,37.55608026715272],[127.01611787402403,37.556101899393646],[127.0161306751991,37.55616631860427],[127.0161531965629,37.55628121007432],[127.0161597083314,37.55631466122756],[127.01623105409571,37.55630841029999],[127.0163505290176,37.55629533099647],[127.01640961570509,37.55628874633194],[127.01642373084255,37.55635749910534],[127.01642699245598,37.55636858087168],[127.01644634159781,37.556464092385816],[127.01645222086448,37.55649184213665],[127.01648788006713,37.55648219702756],[127.01658514794764,37.55645650643917],[127.01663619802633,37.55644316526104],[127.01670881784496,37.55642395584244],[127.01675231954783,37.556412417565035],[127.01675399151321,37.556397641111936],[127.01681537852454,37.55668183247112],[127.01679971775809,37.55674977815762],[127.01680718796807,37.55675320095272],[127.01685012969739,37.55676959340335],[127.01659818755199,37.55680324178556],[127.01668166050868,37.55689252821627],[127.01663816328517,37.55692767240431],[127.01661390259785,37.55694731709044],[127.01660941795451,37.55693281172464],[127.01657441427727,37.556939033024136],[127.01651361554276,37.5569890727355],[127.01652637895191,37.557314184334736],[127.01648186488825,37.55735960888714],[127.01648713440402,37.5574052361515],[127.01658753308126,37.55739788752127],[127.01666416303803,37.557392471777256],[127.01672556050049,37.55739158992565],[127.01696299962799,37.55726830368321],[127.01697002284223,37.55727714507974],[127.01678259678972,37.557371490490674],[127.0167585038733,37.5574374460657],[127.01671663657211,37.557474932642826],[127.01663255419386,37.55750968560668],[127.01654982973255,37.55754387972383],[127.01654564332081,37.55754928619615],[127.01653387110485,37.557539557002734],[127.01647665228296,37.55749674922446],[127.016392990707,37.55742863594516],[127.01639392676765,37.55741205761255],[127.0163440758771,37.55736944705843],[127.01629273680234,37.557355569238375],[127.01626724641791,37.557338814012176],[127.01622746243314,37.55726664067015],[127.01620299698416,37.55722438728637],[127.0160140507623,37.557164125394735],[127.01578468923461,37.55709946224905],[127.01557613092208,37.55704163469622],[127.01554608593962,37.55711769083374],[127.01557166992664,37.5571520155096],[127.01561675894146,37.557212565670234],[127.01562143426176,37.55721887204166],[127.0156623348018,37.55727374644771],[127.01568539464404,37.55730572882644],[127.01570247739906,37.55733005350415],[127.0157154620068,37.55734799065339],[127.01572703155107,37.55736393678371],[127.01574346892502,37.557386639750995],[127.01579184151144,37.5574534963762],[127.0158401123246,37.55752034398328],[127.01584178775411,37.55752259625483],[127.01589352273373,37.557594137576395],[127.01590462821237,37.55760945305217],[127.01591565443962,37.557624597348465],[127.01595383846613,37.55767567881348],[127.0159636422733,37.55769009345276],[127.01597205365589,37.557702616182844],[127.0160372298115,37.55780993410098],[127.01604815355269,37.557821555526594],[127.01605963268271,37.55783741153513],[127.01606692321697,37.55784768192153],[127.01609493075122,37.55788760132807],[127.0160990402031,37.55789354735375],[127.01611444778013,37.557915619701596],[127.01612627798357,37.55793249377853],[127.01613161937547,37.557929808167856],[127.0161401232818,37.55795219671286],[127.01618261020133,37.55801283707028],[127.01621193111015,37.55805481955152],[127.01622771211365,37.55807627015455],[127.01624125235502,37.558098342717756],[127.01624442232371,37.558103568063444],[127.01626599851356,37.5581277118978],[127.01627084376379,37.55813428851824],[127.01629222847988,37.55816303642958],[127.01633293782216,37.55821889269724],[127.01635553450559,37.55825232559161],[127.01636515858067,37.55827277685033],[127.01640036635504,37.558322146658845],[127.01641296603485,37.55833774120342],[127.01651493143129,37.558472705575724],[127.0165996240162,37.55859607632623],[127.01660989231483,37.55861158104782],[127.01661829240963,37.55862320274161],[127.01662520941214,37.5586324820512],[127.01663631526752,37.55864815785127],[127.01664836106376,37.55866662659802],[127.01668515508324,37.558722852646845],[127.01671280050155,37.55875978967134],[127.01672269517559,37.55877438443114],[127.0167747042056,37.558849439175795],[127.016823916819,37.558919448716786],[127.01687807757615,37.55900008927117],[127.0169022597273,37.559035945512385],[127.01691019588591,37.559047567245],[127.01692336244413,37.55906685571692],[127.01696277155578,37.55912442380876],[127.01699899945666,37.559177316167684],[127.017078180258,37.55929300184085],[127.01704953255985,37.55933653242187],[127.01695729600311,37.559299955329],[127.01689241839374,37.55928131330859],[127.01689903482004,37.55925941839857],[127.01676432506173,37.55923455954487],[127.01675742095546,37.55923338914957],[127.01674976976358,37.559231678256445],[127.01661888816331,37.55921989210268],[127.01658883066303,37.55923287019382],[127.01658761766087,37.55922295946246],[127.01658770720549,37.55921800400796],[127.01655997843577,37.559217376850796],[127.01650798414859,37.559216122077295],[127.01646159236049,37.55921576756168],[127.0164626151202,37.559236580293174],[127.01645113468318,37.55921567878573],[127.01640809359577,37.55921847728906],[127.01636431720475,37.55922307784845],[127.01623932649042,37.55923949150922],[127.01619825565544,37.55924725414339],[127.01610491212449,37.559277178567655],[127.01597665579065,37.55932143293345],[127.01593903801975,37.55933541188295],[127.01589703163184,37.55936352788223],[127.01588395771566,37.55935406908245],[127.01587415750848,37.55935947621216],[127.01588056420715,37.55936366503486],[127.01585110596086,37.55937452553934],[127.01576637005314,37.559437857345394],[127.01573444451292,37.55944894336575],[127.01567890014462,37.5594681411189],[127.01565952529425,37.55947508106092],[127.01556362425654,37.55950942021152],[127.01554318542165,37.55951590976612],[127.01545151687571,37.55954872565022],[127.01539317716515,37.559569635478695],[127.01525287934545,37.55962290036639],[127.01522655555338,37.55963155292547],[127.0152147518266,37.55963602320362],[127.01514114543303,37.55966391734643],[127.01507935422806,37.559688341276996],[127.01507131906847,37.559691315465166],[127.01494801903802,37.55973773051656],[127.01492197847267,37.559748365152416],[127.01476374992359,37.55978749496516],[127.01472211405758,37.55980272635203],[127.01468394124723,37.55981678605168],[127.01464221490022,37.55983255801412]]]},"properties":{"OBJECTID":84783,"PRESENT_SN":"11140UQ181PS202302160002","LCLAS_CL":"UQ1200","MLSFC_CL":"UQ1220","SCLAS_CL":"UQ1221","ATRB_SE":"UQ1221","WTNNC_SN":"11140AGZ202302130001","NTFC_SN":"11140NTC202302130001","DGM_NM":"신당 제8구역 주택재개발정비사업","SIGNGU_SE":"11140","DRAWING_NO":" ","CREATE_DAT":1676505600000,"DGM_AR":58657.55889043,"DGM_LT":1765.61823183,"SHAPE.AREA":58657.55889038,"SHAPE.LEN":1765.61823182553}},{"type":"Feature","id":84682,"geometry":{"type":"Polygon","coordinates":[[[127.01464221490022,37.55983255801412],[127.01457519437709,37.55985617137065],[127.01451059593903,37.55988032501629],[127.01448978356082,37.559887625319874],[127.0144540324345,37.55990016200658],[127.01444193435961,37.5599046682791],[127.01439428898159,37.55992242297839],[127.01425539218472,37.559969649895066],[127.01417857127764,37.560000291801074],[127.01414944062441,37.56001038600365],[127.01404560185728,37.559827126782416],[127.0139662562622,37.559852633178394],[127.0138745973035,37.55988165466939],[127.01375557269795,37.55991771565675],[127.01371150095171,37.55984968649498],[127.01366276351837,37.559764448895166],[127.01363521928604,37.55971633888169],[127.0136317549035,37.55970949171636],[127.01359534610465,37.55964461518595],[127.01359226692944,37.5596402006519],[127.01354892941973,37.55956136848581],[127.01353464229463,37.559536592726545],[127.01350747235149,37.55949243798768],[127.01350056625253,37.5594786535476],[127.01349869827304,37.55947532007557],[127.01348907546077,37.55945883294156],[127.01346256192136,37.559414137531476],[127.01350643818282,37.55939530240178],[127.01358437918086,37.55936448061752],[127.01364010461351,37.55934231056493],[127.01366726575678,37.559332117580645],[127.01374194650012,37.559297692068924],[127.01382819337951,37.55925957124696],[127.01421568869208,37.559114701531946],[127.0142525555796,37.55908981402896],[127.01443514819404,37.55889528313588],[127.01458305493702,37.55883998754078],[127.01466219189722,37.558742259215144],[127.0147053028851,37.558687735519705],[127.01483207265568,37.558686820304196],[127.01494044142677,37.55863193776027],[127.01506076002951,37.558568665531865],[127.01524007295696,37.55856631847459],[127.01526854190207,37.55855598261229],[127.0152866786021,37.55851327178234],[127.01531775077588,37.55856530211558],[127.01536983268117,37.55855331285367],[127.01538093415584,37.55854682442462],[127.01540334111913,37.558535469320915],[127.01537420012235,37.5584857290993],[127.01533293422018,37.55841598831629],[127.01532125087185,37.55839706889727],[127.01529492880123,37.55835121159135],[127.01523254908342,37.55824597423505],[127.01522237144711,37.55822929809544],[127.01519052496505,37.55817515229967],[127.0151774490089,37.55815289035467],[127.01516204090368,37.55812667333233],[127.01514504791244,37.558098113917204],[127.01513842536875,37.55808865428812],[127.01511545473234,37.558049364769026],[127.0150832347755,37.55799440809479],[127.01507305712673,37.557977290456584],[127.01504663307225,37.55792908152019],[127.01504131108875,37.557914125698275],[127.01499724079859,37.55785411580274],[127.01498071141903,37.557822583043155],[127.01495017780084,37.557766626039424],[127.01491356468505,37.55769949744255],[127.0148924629602,37.557667334495456],[127.01480328802766,37.55751884340631],[127.01477005097037,37.55746965309156],[127.01475772271634,37.55745019309213],[127.01472578690087,37.557399101529676],[127.01473371427413,37.557363871936204],[127.01472391929606,37.557333770958124],[127.0146824721925,37.55732062113301],[127.01461356228891,37.55720565346735],[127.01460683773445,37.55719448193735],[127.01456127149596,37.55711834431696],[127.01453232433724,37.55707049593305],[127.01454631789083,37.557034995384456],[127.01467579283658,37.556987309647546],[127.01470715135585,37.55697478238818],[127.01488328474667,37.55690881011529],[127.01499310655377,37.55686773771705],[127.0149938021131,37.556858873697884],[127.01499742599219,37.55680876922924],[127.01500441536867,37.55671929111122],[127.01500711205088,37.5566738809051],[127.0150096304449,37.55664396774783],[127.01501587458108,37.556564130305425],[127.01502118235099,37.55650087118601],[127.01502741628407,37.55642734067279],[127.01510713129414,37.55640147311051],[127.01512197883858,37.55639669615341],[127.01515454835705,37.55638615081263],[127.01521336126314,37.55636677271912],[127.01526787300106,37.55622129252215],[127.01541272173009,37.55614865576301],[127.01551672041771,37.5561071979338],[127.01563400397225,37.55611741020952],[127.01569638620647,37.556122844715986],[127.01570266743735,37.556123393565585],[127.01572100735065,37.556154025025386],[127.0157812988597,37.55611554547968],[127.0158406171363,37.556077696714055],[127.01601772014804,37.556008839453],[127.01604628266179,37.555996357228715],[127.01609984115443,37.556021524291666],[127.01610208219647,37.55602260520308],[127.01611356921505,37.55608026715272],[127.01611787402403,37.556101899393646],[127.0161306751991,37.55616631860427],[127.0161531965629,37.55628121007432],[127.0161597083314,37.55631466122756],[127.01623105409571,37.55630841029999],[127.0163505290176,37.55629533099647],[127.01640961570509,37.55628874633194],[127.01642373084255,37.55635749910534],[127.01642699245598,37.55636858087168],[127.01644634159781,37.556464092385816],[127.01645222086448,37.55649184213665],[127.01648788006713,37.55648219702756],[127.01658514794764,37.55645650643917],[127.01663619802633,37.55644316526104],[127.01670881784496,37.55642395584244],[127.01675231954783,37.556412417565035],[127.01675399151321,37.556397641111936],[127.01681537852454,37.55668183247112],[127.01679971775809,37.55674977815762],[127.01680718796807,37.55675320095272],[127.01685012969739,37.55676959340335],[127.01659818755199,37.55680324178556],[127.01668166050868,37.55689252821627],[127.01663816328517,37.55692767240431],[127.01661390259785,37.55694731709044],[127.01660941795451,37.55693281172464],[127.01657441427727,37.556939033024136],[127.01651361554276,37.5569890727355],[127.01652637895191,37.557314184334736],[127.01648186488825,37.55735960888714],[127.01648713440402,37.5574052361515],[127.01658753308126,37.55739788752127],[127.01666416303803,37.557392471777256],[127.01672556050049,37.55739158992565],[127.01696299962799,37.55726830368321],[127.01697002284223,37.55727714507974],[127.01678259678972,37.557371490490674],[127.0167585038733,37.5574374460657],[127.01671663657211,37.557474932642826],[127.01663255419386,37.55750968560668],[127.01654982973255,37.55754387972383],[127.01654564332081,37.55754928619615],[127.01653387110485,37.557539557002734],[127.01647665228296,37.55749674922446],[127.016392990707,37.55742863594516],[127.01639392676765,37.55741205761255],[127.0163440758771,37.55736944705843],[127.01629273680234,37.557355569238375],[127.01626724641791,37.557338814012176],[127.01622746243314,37.55726664067015],[127.01620299698416,37.55722438728637],[127.0160140507623,37.557164125394735],[127.01578468923461,37.55709946224905],[127.01557613092208,37.55704163469622],[127.01554608593962,37.55711769083374],[127.01557166992664,37.5571520155096],[127.01561675894146,37.557212565670234],[127.01562143426176,37.55721887204166],[127.0156623348018,37.55727374644771],[127.01568539464404,37.55730572882644],[127.01570247739906,37.55733005350415],[127.0157154620068,37.55734799065339],[127.01572703155107,37.55736393678371],[127.01574346892502,37.557386639750995],[127.01579184151144,37.5574534963762],[127.0158401123246,37.55752034398328],[127.01584178775411,37.55752259625483],[127.01589352273373,37.557594137576395],[127.01590462821237,37.55760945305217],[127.01591565443962,37.557624597348465],[127.01595383846613,37.55767567881348],[127.0159636422733,37.55769009345276],[127.01597205365589,37.557702616182844],[127.0160372298115,37.55780993410098],[127.01604815355269,37.557821555526594],[127.01605963268271,37.55783741153513],[127.01606692321697,37.55784768192153],[127.01609493075122,37.55788760132807],[127.0160990402031,37.55789354735375],[127.01611444778013,37.557915619701596],[127.01612627798357,37.55793249377853],[127.01613161937547,37.557929808167856],[127.0161401232818,37.55795219671286],[127.01618261020133,37.55801283707028],[127.01621193111015,37.55805481955152],[127.01622771211365,37.55807627015455],[127.01624125235502,37.558098342717756],[127.01624442232371,37.558103568063444],[127.01626599851356,37.5581277118978],[127.01627084376379,37.55813428851824],[127.01629222847988,37.55816303642958],[127.01633293782216,37.55821889269724],[127.01635553450559,37.55825232559161],[127.01636515858067,37.55827277685033],[127.01640036635504,37.558322146658845],[127.01641296603485,37.55833774120342],[127.01651493143129,37.558472705575724],[127.0165996240162,37.55859607632623],[127.01660989231483,37.55861158104782],[127.01661829240963,37.55862320274161],[127.01662520941214,37.5586324820512],[127.01663631526752,37.55864815785127],[127.01664836106376,37.55866662659802],[127.01668515508324,37.558722852646845],[127.01671280050155,37.55875978967134],[127.01672269517559,37.55877438443114],[127.0167747042056,37.558849439175795],[127.016823916819,37.558919448716786],[127.01687807757615,37.55900008927117],[127.0169022597273,37.559035945512385],[127.01691019588591,37.559047567245],[127.01692336244413,37.55906685571692],[127.01696277155578,37.55912442380876],[127.01699899945666,37.559177316167684],[127.017078180258,37.55929300184085],[127.01704953255985,37.55933653242187],[127.01695729600311,37.559299955329],[127.01689241839374,37.55928131330859],[127.01689903482004,37.55925941839857],[127.01676432506173,37.55923455954487],[127.01675742095546,37.55923338914957],[127.01674976976358,37.559231678256445],[127.01661888816331,37.55921989210268],[127.01658883066303,37.55923287019382],[127.01658761766087,37.55922295946246],[127.01658770720549,37.55921800400796],[127.01655997843577,37.559217376850796],[127.01650798414859,37.559216122077295],[127.01646159236049,37.55921576756168],[127.0164626151202,37.559236580293174],[127.01645113468318,37.55921567878573],[127.01640809359577,37.55921847728906],[127.01636431720475,37.55922307784845],[127.01623932649042,37.55923949150922],[127.01619825565544,37.55924725414339],[127.01610491212449,37.559277178567655],[127.01597665579065,37.55932143293345],[127.01593903801975,37.55933541188295],[127.01589703163184,37.55936352788223],[127.01588395771566,37.55935406908245],[127.01587415750848,37.55935947621216],[127.01588056420715,37.55936366503486],[127.01585110596086,37.55937452553934],[127.01576637005314,37.559437857345394],[127.01573444451292,37.55944894336575],[127.01567890014462,37.5594681411189],[127.01565952529425,37.55947508106092],[127.01556362425654,37.55950942021152],[127.01554318542165,37.55951590976612],[127.01545151687571,37.55954872565022],[127.01539317716515,37.559569635478695],[127.01525287934545,37.55962290036639],[127.01522655555338,37.55963155292547],[127.0152147518266,37.55963602320362],[127.01514114543303,37.55966391734643],[127.01507935422806,37.559688341276996],[127.01507131906847,37.559691315465166],[127.01494801903802,37.55973773051656],[127.01492197847267,37.559748365152416],[127.01476374992359,37.55978749496516],[127.01472211405758,37.55980272635203],[127.01468394124723,37.55981678605168],[127.01464221490022,37.55983255801412]]]},"properties":{"OBJECTID":84682,"PRESENT_SN":"11140UQ181PS202302160003","LCLAS_CL":"UQ1200","MLSFC_CL":"UQ1220","SCLAS_CL":"UQ1221","ATRB_SE":"UQ1221","WTNNC_SN":"11140AGZ202302130001","NTFC_SN":"11140NTC202302130001","DGM_NM":"신당 제8구역 주택재개발정비사업","SIGNGU_SE":"11140","DRAWING_NO":" ","CREATE_DAT":1676505600000,"DGM_AR":58657.55889043,"DGM_LT":1765.61823183,"SHAPE.AREA":58657.55889038,"SHAPE.LEN":1765.61823182553}},{"type":"Feature","id":85406,"geometry":{"type":"Polygon","coordinates":[[[127.01464221490022,37.55983255801412],[127.01457519437709,37.55985617137065],[127.01451059593903,37.55988032501629],[127.01448978356082,37.559887625319874],[127.0144540324345,37.55990016200658],[127.01444193435961,37.5599046682791],[127.01439428898159,37.55992242297839],[127.01425539218472,37.559969649895066],[127.01417857127764,37.560000291801074],[127.01414944062441,37.56001038600365],[127.01404560185728,37.559827126782416],[127.0139662562622,37.559852633178394],[127.0138745973035,37.55988165466939],[127.01375557269795,37.55991771565675],[127.01371150095171,37.55984968649498],[127.01366276351837,37.559764448895166],[127.01363521928604,37.55971633888169],[127.0136317549035,37.55970949171636],[127.01359534610465,37.55964461518595],[127.01359226692944,37.5596402006519],[127.01354892941973,37.55956136848581],[127.01353464229463,37.559536592726545],[127.01350747235149,37.55949243798768],[127.01350056625253,37.5594786535476],[127.01349869827304,37.55947532007557],[127.01348907546077,37.55945883294156],[127.01346256192136,37.559414137531476],[127.01350643818282,37.55939530240178],[127.01358437918086,37.55936448061752],[127.01364010461351,37.55934231056493],[127.01366726575678,37.559332117580645],[127.01374194650012,37.559297692068924],[127.01382819337951,37.55925957124696],[127.01421568869208,37.559114701531946],[127.0142525555796,37.55908981402896],[127.01443514819404,37.55889528313588],[127.01458305493702,37.55883998754078],[127.01466219189722,37.558742259215144],[127.0147053028851,37.558687735519705],[127.01483207265568,37.558686820304196],[127.01494044142677,37.55863193776027],[127.01506076002951,37.558568665531865],[127.01524007295696,37.55856631847459],[127.01526854190207,37.55855598261229],[127.0152866786021,37.55851327178234],[127.01531775077588,37.55856530211558],[127.01536983268117,37.55855331285367],[127.01538093415584,37.55854682442462],[127.01540334111913,37.558535469320915],[127.01537420012235,37.5584857290993],[127.01533293422018,37.55841598831629],[127.01532125087185,37.55839706889727],[127.01529492880123,37.55835121159135],[127.01523254908342,37.55824597423505],[127.01522237144711,37.55822929809544],[127.01519052496505,37.55817515229967],[127.0151774490089,37.55815289035467],[127.01516204090368,37.55812667333233],[127.01514504791244,37.558098113917204],[127.01513842536875,37.55808865428812],[127.01511545473234,37.558049364769026],[127.0150832347755,37.55799440809479],[127.01507305712673,37.557977290456584],[127.01504663307225,37.55792908152019],[127.01504131108875,37.557914125698275],[127.01499724079859,37.55785411580274],[127.01498071141903,37.557822583043155],[127.01495017780084,37.557766626039424],[127.01491356468505,37.55769949744255],[127.0148924629602,37.557667334495456],[127.01480328802766,37.55751884340631],[127.01477005097037,37.55746965309156],[127.01475772271634,37.55745019309213],[127.01472578690087,37.557399101529676],[127.01473371427413,37.557363871936204],[127.01472391929606,37.557333770958124],[127.0146824721925,37.55732062113301],[127.01461356228891,37.55720565346735],[127.01460683773445,37.55719448193735],[127.01456127149596,37.55711834431696],[127.01453232433724,37.55707049593305],[127.01454631789083,37.557034995384456],[127.01467579283658,37.556987309647546],[127.01470715135585,37.55697478238818],[127.01488328474667,37.55690881011529],[127.01499310655377,37.55686773771705],[127.0149938021131,37.556858873697884],[127.01499742599219,37.55680876922924],[127.01500441536867,37.55671929111122],[127.01500711205088,37.5566738809051],[127.0150096304449,37.55664396774783],[127.01501587458108,37.556564130305425],[127.01502118235099,37.55650087118601],[127.01502741628407,37.55642734067279],[127.01510713129414,37.55640147311051],[127.01512197883858,37.55639669615341],[127.01515454835705,37.55638615081263],[127.01521336126314,37.55636677271912],[127.01526787300106,37.55622129252215],[127.01541272173009,37.55614865576301],[127.01551672041771,37.5561071979338],[127.01563400397225,37.55611741020952],[127.01569638620647,37.556122844715986],[127.01570266743735,37.556123393565585],[127.01572100735065,37.556154025025386],[127.0157812988597,37.55611554547968],[127.0158406171363,37.556077696714055],[127.01601772014804,37.556008839453],[127.01604628266179,37.555996357228715],[127.01609984115443,37.556021524291666],[127.01610208219647,37.55602260520308],[127.01611356921505,37.55608026715272],[127.01611787402403,37.556101899393646],[127.0161306751991,37.55616631860427],[127.0161531965629,37.55628121007432],[127.0161597083314,37.55631466122756],[127.01623105409571,37.55630841029999],[127.0163505290176,37.55629533099647],[127.01640961570509,37.55628874633194],[127.01642373084255,37.55635749910534],[127.01642699245598,37.55636858087168],[127.01644634159781,37.556464092385816],[127.01645222086448,37.55649184213665],[127.01648788006713,37.55648219702756],[127.01658514794764,37.55645650643917],[127.01663619802633,37.55644316526104],[127.01670881784496,37.55642395584244],[127.01675231954783,37.556412417565035],[127.01675399151321,37.556397641111936],[127.01681537852454,37.55668183247112],[127.01679971775809,37.55674977815762],[127.01680718796807,37.55675320095272],[127.01685012969739,37.55676959340335],[127.01659818755199,37.55680324178556],[127.01668166050868,37.55689252821627],[127.01663816328517,37.55692767240431],[127.01661390259785,37.55694731709044],[127.01660941795451,37.55693281172464],[127.01657441427727,37.556939033024136],[127.01651361554276,37.5569890727355],[127.01652637895191,37.557314184334736],[127.01648186488825,37.55735960888714],[127.01648713440402,37.5574052361515],[127.01658753308126,37.55739788752127],[127.01666416303803,37.557392471777256],[127.01672556050049,37.55739158992565],[127.01696299962799,37.55726830368321],[127.01697002284223,37.55727714507974],[127.01678259678972,37.557371490490674],[127.0167585038733,37.5574374460657],[127.01671663657211,37.557474932642826],[127.01663255419386,37.55750968560668],[127.01654982973255,37.55754387972383],[127.01654564332081,37.55754928619615],[127.01653387110485,37.557539557002734],[127.01647665228296,37.55749674922446],[127.016392990707,37.55742863594516],[127.01639392676765,37.55741205761255],[127.0163440758771,37.55736944705843],[127.01629273680234,37.557355569238375],[127.01626724641791,37.557338814012176],[127.01622746243314,37.55726664067015],[127.01620299698416,37.55722438728637],[127.0160140507623,37.557164125394735],[127.01578468923461,37.55709946224905],[127.01557613092208,37.55704163469622],[127.01554608593962,37.55711769083374],[127.01557166992664,37.5571520155096],[127.01561675894146,37.557212565670234],[127.01562143426176,37.55721887204166],[127.0156623348018,37.55727374644771],[127.01568539464404,37.55730572882644],[127.01570247739906,37.55733005350415],[127.0157154620068,37.55734799065339],[127.01572703155107,37.55736393678371],[127.01574346892502,37.557386639750995],[127.01579184151144,37.5574534963762],[127.0158401123246,37.55752034398328],[127.01584178775411,37.55752259625483],[127.01589352273373,37.557594137576395],[127.01590462821237,37.55760945305217],[127.01591565443962,37.557624597348465],[127.01595383846613,37.55767567881348],[127.0159636422733,37.55769009345276],[127.01597205365589,37.557702616182844],[127.0160372298115,37.55780993410098],[127.01604815355269,37.557821555526594],[127.01605963268271,37.55783741153513],[127.01606692321697,37.55784768192153],[127.01609493075122,37.55788760132807],[127.0160990402031,37.55789354735375],[127.01611444778013,37.557915619701596],[127.01612627798357,37.55793249377853],[127.01613161937547,37.557929808167856],[127.0161401232818,37.55795219671286],[127.01618261020133,37.55801283707028],[127.01621193111015,37.55805481955152],[127.01622771211365,37.55807627015455],[127.01624125235502,37.558098342717756],[127.01624442232371,37.558103568063444],[127.01626599851356,37.5581277118978],[127.01627084376379,37.55813428851824],[127.01629222847988,37.55816303642958],[127.01633293782216,37.55821889269724],[127.01635553450559,37.55825232559161],[127.01636515858067,37.55827277685033],[127.01640036635504,37.558322146658845],[127.01641296603485,37.55833774120342],[127.01651493143129,37.558472705575724],[127.0165996240162,37.55859607632623],[127.01660989231483,37.55861158104782],[127.01661829240963,37.55862320274161],[127.01662520941214,37.5586324820512],[127.01663631526752,37.55864815785127],[127.01664836106376,37.55866662659802],[127.01668515508324,37.558722852646845],[127.01671280050155,37.55875978967134],[127.01672269517559,37.55877438443114],[127.0167747042056,37.558849439175795],[127.016823916819,37.558919448716786],[127.01687807757615,37.55900008927117],[127.0169022597273,37.559035945512385],[127.01691019588591,37.559047567245],[127.01692336244413,37.55906685571692],[127.01696277155578,37.55912442380876],[127.01699899945666,37.559177316167684],[127.017078180258,37.55929300184085],[127.01704953255985,37.55933653242187],[127.01695729600311,37.559299955329],[127.01689241839374,37.55928131330859],[127.01689903482004,37.55925941839857],[127.01676432506173,37.55923455954487],[127.01675742095546,37.55923338914957],[127.01674976976358,37.559231678256445],[127.01661888816331,37.55921989210268],[127.01658883066303,37.55923287019382],[127.01658761766087,37.55922295946246],[127.01658770720549,37.55921800400796],[127.01655997843577,37.559217376850796],[127.01650798414859,37.559216122077295],[127.01646159236049,37.55921576756168],[127.0164626151202,37.559236580293174],[127.01645113468318,37.55921567878573],[127.01640809359577,37.55921847728906],[127.01636431720475,37.55922307784845],[127.01623932649042,37.55923949150922],[127.01619825565544,37.55924725414339],[127.01610491212449,37.559277178567655],[127.01597665579065,37.55932143293345],[127.01593903801975,37.55933541188295],[127.01589703163184,37.55936352788223],[127.01588395771566,37.55935406908245],[127.01587415750848,37.55935947621216],[127.01588056420715,37.55936366503486],[127.01585110596086,37.55937452553934],[127.01576637005314,37.559437857345394],[127.01573444451292,37.55944894336575],[127.01567890014462,37.5594681411189],[127.01565952529425,37.55947508106092],[127.01556362425654,37.55950942021152],[127.01554318542165,37.55951590976612],[127.01545151687571,37.55954872565022],[127.01539317716515,37.559569635478695],[127.01525287934545,37.55962290036639],[127.01522655555338,37.55963155292547],[127.0152147518266,37.55963602320362],[127.01514114543303,37.55966391734643],[127.01507935422806,37.559688341276996],[127.01507131906847,37.559691315465166],[127.01494801903802,37.55973773051656],[127.01492197847267,37.559748365152416],[127.01476374992359,37.55978749496516],[127.01472211405758,37.55980272635203],[127.01468394124723,37.55981678605168],[127.01464221490022,37.55983255801412]]]},"properties":{"OBJECTID":85406,"PRESENT_SN":"11140UQ181PS202302160003","LCLAS_CL":"UQ1200","MLSFC_CL":"UQ1220","SCLAS_CL":"UQ1221","ATRB_SE":"UQ1221","WTNNC_SN":"11140AGZ202302130001","NTFC_SN":"11140NTC202302130001","DGM_NM":"신당 제8구역 주택재개발정비사업","SIGNGU_SE":"11140","DRAWING_NO":" ","CREATE_DAT":1676505600000,"DGM_AR":58657.55889043,"DGM_LT":1765.61823183,"SHAPE.AREA":58657.55889038,"SHAPE.LEN":1765.61823182553}},{"type":"Feature","id":85751,"geometry":{"type":"Polygon","coordinates":[[[127.01464221490022,37.55983255801412],[127.01457519437709,37.55985617137065],[127.01451059593903,37.55988032501629],[127.01448978356082,37.559887625319874],[127.0144540324345,37.55990016200658],[127.01444193435961,37.5599046682791],[127.01439428898159,37.55992242297839],[127.01425539218472,37.559969649895066],[127.01417857127764,37.560000291801074],[127.01414944062441,37.56001038600365],[127.01404560185728,37.559827126782416],[127.0139662562622,37.559852633178394],[127.0138745973035,37.55988165466939],[127.01375557269795,37.55991771565675],[127.01371150095171,37.55984968649498],[127.01366276351837,37.559764448895166],[127.01363521928604,37.55971633888169],[127.0136317549035,37.55970949171636],[127.01359534610465,37.55964461518595],[127.01359226692944,37.5596402006519],[127.01354892941973,37.55956136848581],[127.01353464229463,37.559536592726545],[127.01350747235149,37.55949243798768],[127.01350056625253,37.5594786535476],[127.01349869827304,37.55947532007557],[127.01348907546077,37.55945883294156],[127.01346256192136,37.559414137531476],[127.01350643818282,37.55939530240178],[127.01358437918086,37.55936448061752],[127.01364010461351,37.55934231056493],[127.01366726575678,37.559332117580645],[127.01374194650012,37.559297692068924],[127.01382819337951,37.55925957124696],[127.01421568869208,37.559114701531946],[127.0142525555796,37.55908981402896],[127.01443514819404,37.55889528313588],[127.01458305493702,37.55883998754078],[127.01466219189722,37.558742259215144],[127.0147053028851,37.558687735519705],[127.01483207265568,37.558686820304196],[127.01494044142677,37.55863193776027],[127.01506076002951,37.558568665531865],[127.01524007295696,37.55856631847459],[127.01526854190207,37.55855598261229],[127.0152866786021,37.55851327178234],[127.01531775077588,37.55856530211558],[127.01536983268117,37.55855331285367],[127.01538093415584,37.55854682442462],[127.01540334111913,37.558535469320915],[127.01537420012235,37.5584857290993],[127.01533293422018,37.55841598831629],[127.01532125087185,37.55839706889727],[127.01529492880123,37.55835121159135],[127.01523254908342,37.55824597423505],[127.01522237144711,37.55822929809544],[127.01519052496505,37.55817515229967],[127.0151774490089,37.55815289035467],[127.01516204090368,37.55812667333233],[127.01514504791244,37.558098113917204],[127.01513842536875,37.55808865428812],[127.01511545473234,37.558049364769026],[127.0150832347755,37.55799440809479],[127.01507305712673,37.557977290456584],[127.01504663307225,37.55792908152019],[127.01504131108875,37.557914125698275],[127.01499724079859,37.55785411580274],[127.01498071141903,37.557822583043155],[127.01495017780084,37.557766626039424],[127.01491356468505,37.55769949744255],[127.0148924629602,37.557667334495456],[127.01480328802766,37.55751884340631],[127.01477005097037,37.55746965309156],[127.01475772271634,37.55745019309213],[127.01472578690087,37.557399101529676],[127.01473371427413,37.557363871936204],[127.01472391929606,37.557333770958124],[127.0146824721925,37.55732062113301],[127.01461356228891,37.55720565346735],[127.01460683773445,37.55719448193735],[127.01456127149596,37.55711834431696],[127.01453232433724,37.55707049593305],[127.01454631789083,37.557034995384456],[127.01467579283658,37.556987309647546],[127.01470715135585,37.55697478238818],[127.01488328474667,37.55690881011529],[127.01499310655377,37.55686773771705],[127.0149938021131,37.556858873697884],[127.01499742599219,37.55680876922924],[127.01500441536867,37.55671929111122],[127.01500711205088,37.5566738809051],[127.0150096304449,37.55664396774783],[127.01501587458108,37.556564130305425],[127.01502118235099,37.55650087118601],[127.01502741628407,37.55642734067279],[127.01510713129414,37.55640147311051],[127.01512197883858,37.55639669615341],[127.01515454835705,37.55638615081263],[127.01521336126314,37.55636677271912],[127.01526787300106,37.55622129252215],[127.01541272173009,37.55614865576301],[127.01551672041771,37.5561071979338],[127.01563400397225,37.55611741020952],[127.01569638620647,37.556122844715986],[127.01570266743735,37.556123393565585],[127.01572100735065,37.556154025025386],[127.0157812988597,37.55611554547968],[127.0158406171363,37.556077696714055],[127.01601772014804,37.556008839453],[127.01604628266179,37.555996357228715],[127.01609984115443,37.556021524291666],[127.01610208219647,37.55602260520308],[127.01611356921505,37.55608026715272],[127.01611787402403,37.556101899393646],[127.0161306751991,37.55616631860427],[127.0161531965629,37.55628121007432],[127.0161597083314,37.55631466122756],[127.01623105409571,37.55630841029999],[127.0163505290176,37.55629533099647],[127.01640961570509,37.55628874633194],[127.01642373084255,37.55635749910534],[127.01642699245598,37.55636858087168],[127.01644634159781,37.556464092385816],[127.01645222086448,37.55649184213665],[127.01648788006713,37.55648219702756],[127.01658514794764,37.55645650643917],[127.01663619802633,37.55644316526104],[127.01670881784496,37.55642395584244],[127.01675231954783,37.556412417565035],[127.01675399151321,37.556397641111936],[127.01681537852454,37.55668183247112],[127.01679971775809,37.55674977815762],[127.01680718796807,37.55675320095272],[127.01685012969739,37.55676959340335],[127.01659818755199,37.55680324178556],[127.01668166050868,37.55689252821627],[127.01663816328517,37.55692767240431],[127.01661390259785,37.55694731709044],[127.01660941795451,37.55693281172464],[127.01657441427727,37.556939033024136],[127.01651361554276,37.5569890727355],[127.01652637895191,37.557314184334736],[127.01648186488825,37.55735960888714],[127.01648713440402,37.5574052361515],[127.01658753308126,37.55739788752127],[127.01666416303803,37.557392471777256],[127.01672556050049,37.55739158992565],[127.01696299962799,37.55726830368321],[127.01697002284223,37.55727714507974],[127.01678259678972,37.557371490490674],[127.0167585038733,37.5574374460657],[127.01671663657211,37.557474932642826],[127.01663255419386,37.55750968560668],[127.01654982973255,37.55754387972383],[127.01654564332081,37.55754928619615],[127.01653387110485,37.557539557002734],[127.01647665228296,37.55749674922446],[127.016392990707,37.55742863594516],[127.01639392676765,37.55741205761255],[127.0163440758771,37.55736944705843],[127.01629273680234,37.557355569238375],[127.01626724641791,37.557338814012176],[127.01622746243314,37.55726664067015],[127.01620299698416,37.55722438728637],[127.0160140507623,37.557164125394735],[127.01578468923461,37.55709946224905],[127.01557613092208,37.55704163469622],[127.01554608593962,37.55711769083374],[127.01557166992664,37.5571520155096],[127.01561675894146,37.557212565670234],[127.01562143426176,37.55721887204166],[127.0156623348018,37.55727374644771],[127.01568539464404,37.55730572882644],[127.01570247739906,37.55733005350415],[127.0157154620068,37.55734799065339],[127.01572703155107,37.55736393678371],[127.01574346892502,37.557386639750995],[127.01579184151144,37.5574534963762],[127.0158401123246,37.55752034398328],[127.01584178775411,37.55752259625483],[127.01589352273373,37.557594137576395],[127.01590462821237,37.55760945305217],[127.01591565443962,37.557624597348465],[127.01595383846613,37.55767567881348],[127.0159636422733,37.55769009345276],[127.01597205365589,37.557702616182844],[127.0160372298115,37.55780993410098],[127.01604815355269,37.557821555526594],[127.01605963268271,37.55783741153513],[127.01606692321697,37.55784768192153],[127.01609493075122,37.55788760132807],[127.0160990402031,37.55789354735375],[127.01611444778013,37.557915619701596],[127.01612627798357,37.55793249377853],[127.01613161937547,37.557929808167856],[127.0161401232818,37.55795219671286],[127.01618261020133,37.55801283707028],[127.01621193111015,37.55805481955152],[127.01622771211365,37.55807627015455],[127.01624125235502,37.558098342717756],[127.01624442232371,37.558103568063444],[127.01626599851356,37.5581277118978],[127.01627084376379,37.55813428851824],[127.01629222847988,37.55816303642958],[127.01633293782216,37.55821889269724],[127.01635553450559,37.55825232559161],[127.01636515858067,37.55827277685033],[127.01640036635504,37.558322146658845],[127.01641296603485,37.55833774120342],[127.01651493143129,37.558472705575724],[127.0165996240162,37.55859607632623],[127.01660989231483,37.55861158104782],[127.01661829240963,37.55862320274161],[127.01662520941214,37.5586324820512],[127.01663631526752,37.55864815785127],[127.01664836106376,37.55866662659802],[127.01668515508324,37.558722852646845],[127.01671280050155,37.55875978967134],[127.01672269517559,37.55877438443114],[127.0167747042056,37.558849439175795],[127.016823916819,37.558919448716786],[127.01687807757615,37.55900008927117],[127.0169022597273,37.559035945512385],[127.01691019588591,37.559047567245],[127.01692336244413,37.55906685571692],[127.01696277155578,37.55912442380876],[127.01699899945666,37.559177316167684],[127.017078180258,37.55929300184085],[127.01704953255985,37.55933653242187],[127.01695729600311,37.559299955329],[127.01689241839374,37.55928131330859],[127.01689903482004,37.55925941839857],[127.01676432506173,37.55923455954487],[127.01675742095546,37.55923338914957],[127.01674976976358,37.559231678256445],[127.01661888816331,37.55921989210268],[127.01658883066303,37.55923287019382],[127.01658761766087,37.55922295946246],[127.01658770720549,37.55921800400796],[127.01655997843577,37.559217376850796],[127.01650798414859,37.559216122077295],[127.01646159236049,37.55921576756168],[127.0164626151202,37.559236580293174],[127.01645113468318,37.55921567878573],[127.01640809359577,37.55921847728906],[127.01636431720475,37.55922307784845],[127.01623932649042,37.55923949150922],[127.01619825565544,37.55924725414339],[127.01610491212449,37.559277178567655],[127.01597665579065,37.55932143293345],[127.01593903801975,37.55933541188295],[127.01589703163184,37.55936352788223],[127.01588395771566,37.55935406908245],[127.01587415750848,37.55935947621216],[127.01588056420715,37.55936366503486],[127.01585110596086,37.55937452553934],[127.01576637005314,37.559437857345394],[127.01573444451292,37.55944894336575],[127.01567890014462,37.5594681411189],[127.01565952529425,37.55947508106092],[127.01556362425654,37.55950942021152],[127.01554318542165,37.55951590976612],[127.01545151687571,37.55954872565022],[127.01539317716515,37.559569635478695],[127.01525287934545,37.55962290036639],[127.01522655555338,37.55963155292547],[127.0152147518266,37.55963602320362],[127.01514114543303,37.55966391734643],[127.01507935422806,37.559688341276996],[127.01507131906847,37.559691315465166],[127.01494801903802,37.55973773051656],[127.01492197847267,37.559748365152416],[127.01476374992359,37.55978749496516],[127.01472211405758,37.55980272635203],[127.01468394124723,37.55981678605168],[127.01464221490022,37.55983255801412]]]},"properties":{"OBJECTID":85751,"PRESENT_SN":"11140UQ181PS202302160002","LCLAS_CL":"UQ1200","MLSFC_CL":"UQ1220","SCLAS_CL":"UQ1221","ATRB_SE":"UQ1221","WTNNC_SN":"11140AGZ202302130001","NTFC_SN":"11140NTC202302130001","DGM_NM":"신당 제8구역 주택재개발정비사업","SIGNGU_SE":"11140","DRAWING_NO":" ","CREATE_DAT":1676505600000,"DGM_AR":58657.55889043,"DGM_LT":1765.61823183,"SHAPE.AREA":58657.55889038,"SHAPE.LEN":1765.61823182553}}]}