{"type":"FeatureCollection","features":[{"type":"Feature","id":85802,"geometry":{"type":"Polygon","coordinates":[[[127.12470545055965,37.509079857430244],[127.12365794949713,37.507446176204986],[127.12316030110907,37.50764977443978],[127.12310644300985,37.50763595453138],[127.12256910826001,37.50679794831676],[127.12408215325956,37.50618019616753],[127.12561285633932,37.50866129563344],[127.125592917749,37.50870988031037],[127.12470545055965,37.509079857430244]]]},"properties":{"OBJECTID":85802,"PRESENT_SN":"11710UQ181PS202202080001","LCLAS_CL":"UQ1200","MLSFC_CL":"UQ1240","SCLAS_CL":" ","ATRB_SE":"UQ1240","WTNNC_SN":"11710AGZ202108270001","NTFC_SN":"11000NTC202111260001","DGM_NM":"대림가락아파트 재건축정비구역","SIGNGU_SE":"11710","DRAWING_NO":" ","CREATE_DAT":1644278400000,"DGM_AR":35241.02875004,"DGM_LT":913.90799308,"SHAPE.AREA":35241.02875,"SHAPE.LEN":913.9079930817051}}]}