{"type":"FeatureCollection","features":[{"type":"Feature","id":86719,"geometry":{"type":"Polygon","coordinates":[[[127.02636038413495,37.64656304279953],[127.02630170697437,37.6466163028317],[127.02619987052158,37.646706331698105],[127.02618514444514,37.64671939893205],[127.0261665668985,37.646735800580615],[127.02609531516332,37.64679879367724],[127.02608579980883,37.64680717473712],[127.02602281733104,37.646863138453185],[127.0260172666909,37.64686800487702],[127.02600367333531,37.64688008077903],[127.02593015583987,37.64694532668489],[127.02592913512603,37.646942533869996],[127.02591610820981,37.646954339351744],[127.02583409545382,37.64702949769064],[127.02578821685304,37.64703293805311],[127.02571060082661,37.6470256677979],[127.02562738275189,37.64692736941295],[127.02560448550798,37.64690133587834],[127.02559088318324,37.64688584186432],[127.02555427077974,37.64684566579131],[127.02550258273757,37.64678891481045],[127.02540645822545,37.6466736994565],[127.02539104206129,37.64665523256457],[127.02536825789082,37.64662793759336],[127.02539011695183,37.64659702968958],[127.02544334321799,37.64650439855549],[127.02544726170716,37.646498000829794],[127.02556270954597,37.64630931293914],[127.02565875403468,37.646177930991314],[127.02578787815078,37.646026630587365],[127.0258980186212,37.64596777413067],[127.02592819902931,37.645951649425214],[127.02681246558755,37.64547916238194],[127.0270119772686,37.64540523938287],[127.02709819646287,37.645379632994235],[127.02747288113831,37.64530116622801],[127.027915628835,37.64512492712309],[127.02790056380303,37.645139003744056],[127.02784098324653,37.64519467937318],[127.02778888100191,37.64525046142417],[127.0276842321131,37.64538788357631],[127.02767551106804,37.6453985170312],[127.02764436151043,37.645428075957405],[127.02757288735351,37.64549593528172],[127.02750220500582,37.64556028057984],[127.0273998059292,37.64565328384365],[127.02737182650263,37.645676174776376],[127.02731142741132,37.64572639940566],[127.02729334122522,37.64575332453043],[127.02727945663693,37.64577397793988],[127.02720532027676,37.64584541449476],[127.02718561094547,37.64586433928622],[127.02714766379093,37.64589786385317],[127.02710450590749,37.64593589441924],[127.02708785443446,37.64595058394235],[127.02706871091483,37.6459675264435],[127.0270176236757,37.64601258630908],[127.02696936819655,37.646054942612615],[127.0269228118189,37.64609585696827],[127.02691646834054,37.64610135428911],[127.0268753491562,37.64613749228106],[127.02683117145047,37.64617624374578],[127.0267909584192,37.64621166073247],[127.02673544727617,37.64624347707057],[127.0265476292949,37.64639271872511],[127.02654015287249,37.646398846949104],[127.02645134456964,37.64647950311981],[127.02636038413495,37.64656304279953]]]},"properties":{"OBJECTID":86719,"PRESENT_SN":"11320UQ181PS202404180001","LCLAS_CL":"UQ1200","MLSFC_CL":"UQ1220","SCLAS_CL":"UQ1221","ATRB_SE":"UQ1221","WTNNC_SN":"11320AGZ202305230001","NTFC_SN":"11320NTC202305230007","DGM_NM":"쌍문3구역 주택정비형 재개발사업","SIGNGU_SE":"11320","DRAWING_NO":" ","CREATE_DAT":1713398400000,"DGM_AR":14975.70089105,"DGM_LT":636.58810589,"SHAPE.AREA":14975.70086349,"SHAPE.LEN":636.588118222416}},{"type":"Feature","id":84179,"geometry":{"type":"Polygon","coordinates":[[[127.02636038413495,37.64656304279953],[127.02630170697437,37.6466163028317],[127.02619987052158,37.646706331698105],[127.02618514444514,37.64671939893205],[127.0261665668985,37.646735800580615],[127.02609531516332,37.64679879367724],[127.02608579980883,37.64680717473712],[127.02602281733104,37.646863138453185],[127.0260172666909,37.64686800487702],[127.02600367333531,37.64688008077903],[127.02593015583987,37.64694532668489],[127.02592913512603,37.646942533869996],[127.02591610820981,37.646954339351744],[127.02583409545382,37.64702949769064],[127.02578821685304,37.64703293805311],[127.02571060082661,37.6470256677979],[127.02562738275189,37.64692736941295],[127.02560448550798,37.64690133587834],[127.02559088318324,37.64688584186432],[127.02555427077974,37.64684566579131],[127.02550258273757,37.64678891481045],[127.02540645822545,37.6466736994565],[127.02539104206129,37.64665523256457],[127.02536825789082,37.64662793759336],[127.02539011695183,37.64659702968958],[127.02544334321799,37.64650439855549],[127.02544726170716,37.646498000829794],[127.02556270954597,37.64630931293914],[127.02565875403468,37.646177930991314],[127.02578787815078,37.646026630587365],[127.0258980186212,37.64596777413067],[127.02592819902931,37.645951649425214],[127.02681246558755,37.64547916238194],[127.0270119772686,37.64540523938287],[127.02709819646287,37.645379632994235],[127.02747288113831,37.64530116622801],[127.027915628835,37.64512492712309],[127.02790056380303,37.645139003744056],[127.02784098324653,37.64519467937318],[127.02778888100191,37.64525046142417],[127.0276842321131,37.64538788357631],[127.02767551106804,37.6453985170312],[127.02764436151043,37.645428075957405],[127.02757288735351,37.64549593528172],[127.02750220500582,37.64556028057984],[127.0273998059292,37.64565328384365],[127.02737182650263,37.645676174776376],[127.02731142741132,37.64572639940566],[127.02729334122522,37.64575332453043],[127.02727945663693,37.64577397793988],[127.02720532027676,37.64584541449476],[127.02718561094547,37.64586433928622],[127.02714766379093,37.64589786385317],[127.02710450590749,37.64593589441924],[127.02708785443446,37.64595058394235],[127.02706871091483,37.6459675264435],[127.0270176236757,37.64601258630908],[127.02696936819655,37.646054942612615],[127.0269228118189,37.64609585696827],[127.02691646834054,37.64610135428911],[127.0268753491562,37.64613749228106],[127.02683117145047,37.64617624374578],[127.0267909584192,37.64621166073247],[127.02673544727617,37.64624347707057],[127.0265476292949,37.64639271872511],[127.02654015287249,37.646398846949104],[127.02645134456964,37.64647950311981],[127.02636038413495,37.64656304279953]]]},"properties":{"OBJECTID":84179,"PRESENT_SN":"11320UQ181PS202404180001","LCLAS_CL":"UQ1200","MLSFC_CL":"UQ1220","SCLAS_CL":"UQ1221","ATRB_SE":"UQ1221","WTNNC_SN":"11320AGZ202305230001","NTFC_SN":"11320NTC202305230007","DGM_NM":"쌍문3구역 주택정비형 재개발사업","SIGNGU_SE":"11320","DRAWING_NO":" ","CREATE_DAT":1713398400000,"DGM_AR":14975.70089105,"DGM_LT":636.58810589,"SHAPE.AREA":14975.70086349,"SHAPE.LEN":636.588118222416}}]}