{"type":"FeatureCollection","features":[{"type":"Feature","id":85123,"geometry":{"type":"Polygon","coordinates":[[[126.95581359294958,37.56132123091531],[126.95580929483874,37.56135373694342],[126.95581193198284,37.5613722352734],[126.9558158088184,37.56139941961934],[126.95581085208305,37.56143547528971],[126.95580816435621,37.56146272016346],[126.95574231174993,37.561450098821986],[126.95563359000259,37.56143098267954],[126.95555506015972,37.56141994204742],[126.95551535957058,37.56141430441344],[126.95546932138278,37.56140776330535],[126.95536260200475,37.561390386603414],[126.95525572070741,37.56137869498363],[126.9551469132187,37.56136863240014],[126.95515817083489,37.56131652180115],[126.95516265875429,37.561288664975656],[126.9551971094127,37.56129326633321],[126.95520639374887,37.56124925484819],[126.95522639115445,37.561160551287266],[126.95524281275343,37.561162125445684],[126.95524446196899,37.56114904372783],[126.95525163895643,37.56109201391916],[126.95526029213003,37.56100883797861],[126.95528260521496,37.56093091294576],[126.95535301343764,37.560896657852204],[126.95536829856485,37.56081395300819],[126.9553730783945,37.56078974529313],[126.95539490378677,37.56067277837532],[126.95543003436448,37.560600244430624],[126.95546961998849,37.560534505671924],[126.95551593562014,37.5604754909022],[126.95564910250937,37.560310517492994],[126.95576036390074,37.56017169116478],[126.9557466135355,37.560114626174766],[126.9556418329648,37.560002241136836],[126.95551593654714,37.55986645809235],[126.95524686548814,37.55957207176751],[126.95519783391154,37.55946653765994],[126.95497569690436,37.558995935537034],[126.95485267651064,37.55889899455901],[126.95438404349248,37.55873285964352],[126.95437622325386,37.55873414944168],[126.95423477575318,37.55876742950061],[126.95377548673346,37.55918112326885],[126.95378132618738,37.55923518500369],[126.95365108897197,37.559165745269844],[126.95362400409054,37.55915021023637],[126.95355981010404,37.55911397340939],[126.95349511862489,37.55907706961266],[126.95345141441597,37.559051508774736],[126.95334355915622,37.55899195535784],[126.95325850085517,37.559056170191425],[126.95316977441631,37.559011615097454],[126.95312904639151,37.558990390920535],[126.95312900566095,37.55899037018107],[126.95305742902529,37.558953069589585],[126.95303477635235,37.558941075326615],[126.95291018071097,37.55888967850476],[126.95268753008064,37.55879899303207],[126.95249645917781,37.558719725881254],[126.95243099729183,37.55870261592183],[126.95239842809556,37.55869767396422],[126.95167958824622,37.55867164948462],[126.9516597363713,37.55867251506367],[126.95160025720371,37.558696222000314],[126.95158458678533,37.55870622536927],[126.95154638465742,37.558747267305165],[126.95146994300991,37.55885122624989],[126.95145604007985,37.558870130326035],[126.95129039474922,37.558800593680125],[126.95120789936598,37.558767384121246],[126.95111509598952,37.5587306202057],[126.95112829807505,37.55871053557378],[126.95118459692662,37.55862486015487],[126.95119220343278,37.55861328117524],[126.95112653284221,37.55858734971479],[126.9510909146424,37.558572549268426],[126.95103835789364,37.558551740979865],[126.95096236872567,37.55852127303806],[126.95093714875618,37.55851062154925],[126.95087865153337,37.55848799064542],[126.95085206287769,37.558476257363786],[126.9508451957349,37.55848731046111],[126.95079704752821,37.55856476769102],[126.95078881130098,37.55857693652295],[126.9507224248683,37.5585504197878],[126.95069297285609,37.55853865460503],[126.95068643357335,37.558551851288485],[126.95066818540582,37.558591072520656],[126.95066798254749,37.558606461336474],[126.95066491168618,37.55864530167743],[126.95066480760407,37.558648572225],[126.95066451015465,37.55865826043848],[126.95063401489902,37.55871598271638],[126.95060113623036,37.55876682940726],[126.95045991894906,37.55870896093256],[126.95031045992238,37.55863843881996],[126.9501636621479,37.558549519466204],[126.95005161821688,37.5584816441809],[126.94997833774008,37.558446401540984],[126.949909288743,37.55841319694165],[126.94972565100662,37.558343289834646],[126.94967253433424,37.55833099504441],[126.94962426086862,37.55831981958613],[126.94955715688926,37.55830564453728],[126.94949197418285,37.55829543465142],[126.94937914235496,37.55828772646997],[126.94935919048143,37.55830226864163],[126.94932637518876,37.55832617541744],[126.94931276560538,37.558529072274155],[126.94930821451037,37.55856348806646],[126.94917115217541,37.558958682516504],[126.94916237450164,37.55898400544195],[126.94916304379724,37.5589979710772],[126.94911762691054,37.55894754056337],[126.9490541217985,37.55893296138175],[126.94902360238562,37.558926388613095],[126.94898608935918,37.55891873153776],[126.94892861454288,37.55890717328645],[126.94887236271535,37.558894687533154],[126.94882602323248,37.5588850893436],[126.94875240080438,37.55886958647485],[126.94870026703735,37.558859454062556],[126.94865607787608,37.55884999191658],[126.94863098983055,37.55884515137785],[126.94857283626476,37.55883330433258],[126.94852810339827,37.55882452664695],[126.94848700251133,37.55881720116893],[126.9484544763127,37.558815762992495],[126.94833401501317,37.55880894236357],[126.94826725390705,37.558805704750995],[126.94816441348397,37.558800135260185],[126.94814260565366,37.55879807114781],[126.94802976082818,37.55879184830435],[126.94800873751898,37.55876893562311],[126.94798707978484,37.55874692364004],[126.9479989785088,37.55869416708185],[126.94800402340647,37.55866644591768],[126.94802480744252,37.558628226345576],[126.94807139026369,37.55855029381682],[126.94825109893105,37.558398702425634],[126.948376343476,37.55829884811469],[126.94840089409384,37.55827926263577],[126.94845931545612,37.55823201397331],[126.94850462128325,37.558182362761116],[126.94851756691877,37.55816887174691],[126.94852146556302,37.5581612871635],[126.94852838943812,37.55814887463283],[126.94856061565669,37.55809401881722],[126.94857306839683,37.55807331064802],[126.94858756378456,37.55804485488148],[126.94860081971426,37.55800863202611],[126.9486358725772,37.55790947578982],[126.94864308197943,37.55789334229207],[126.94867369145324,37.5578037886036],[126.94872494692085,37.557662148909536],[126.94876596248274,37.55754882272493],[126.9488629294799,37.55755146085657],[126.94893630994781,37.557555151575436],[126.94896519115198,37.5575568763138],[126.94900509543125,37.55755893030426],[126.9490728845472,37.5575633212235],[126.94916859335248,37.55756877864334],[126.94920296379162,37.557570208430434],[126.94955138345632,37.55759058950734],[126.94961340190709,37.557593202626535],[126.9496952139137,37.557597076777775],[126.94988400669419,37.55760704334396],[126.94990416276855,37.55760779096792],[126.94997339987344,37.557613281210685],[126.9500513634339,37.557617901256656],[126.95013513313285,37.5576222084315],[126.95028007196674,37.557629947847644],[126.95038650967011,37.557635895469986],[126.95041343275354,37.55763797940206],[126.95056317016855,37.55764590975534],[126.95059346577432,37.557648175299654],[126.95062376163314,37.55765007143047],[126.95068763545147,37.55765386508176],[126.95072686089225,37.557655747010045],[126.95076939096862,37.55765777450403],[126.95082666674092,37.55766143910555],[126.9509893387633,37.557671554865905],[126.95105408355565,37.55767611453299],[126.951148377633,37.55768204726806],[126.95125852716791,37.5576887074696],[126.95130032229409,37.55768975238064],[126.95140343330932,37.55769493183006],[126.95151394529555,37.55770122254136],[126.9515580145141,37.55770339456144],[126.95162943686785,37.55770776753037],[126.95163911300921,37.557708357261575],[126.95173973422382,37.557713508335866],[126.9517835093129,37.557715508959745],[126.95178818127722,37.5576506937219],[126.95179347557698,37.5575690302358],[126.95182475624772,37.557570647166386],[126.95183027047561,37.55749858832157],[126.95183834450212,37.55742344916741],[126.95184452014254,37.55736087802142],[126.95179814477551,37.55731756594084],[126.95184848411652,37.55732079374977],[126.95194909129906,37.55732927830237],[126.95202112314824,37.55733564247796],[126.95208766712271,37.557340319461375],[126.9521350413819,37.55734342157023],[126.95208328581865,37.55737844841828],[126.95208055383802,37.557402323505165],[126.95207114015173,37.55750130230593],[126.95206918971095,37.55752421366025],[126.952150447021,37.557528374194874],[126.95214416719628,37.55759483758753],[126.9521320194556,37.55773808087494],[126.95221071892414,37.557742699802944],[126.95227653932038,37.557746808753976],[126.95233744789093,37.55775091562259],[126.95238984676571,37.557753307038865],[126.95246748205278,37.55775847495672],[126.95248166238336,37.557759408866026],[126.95249535591041,37.55776056781895],[126.95255358250671,37.55776425900725],[126.952626091525,37.557768541724954],[126.95268819980313,37.5577726398995],[126.9527411978145,37.55777613962506],[126.95287624555588,37.55778400691652],[126.952901709197,37.55778546799706],[126.95299277848429,37.55779072218908],[126.95308761640926,37.55779618508432],[126.95324855698236,37.55780700880389],[126.9533307088373,37.55781104275333],[126.95344949490175,37.557816434039665],[126.9535814203402,37.55782241618485],[126.95366514476005,37.557827414599096],[126.95376834605084,37.5578335650889],[126.95383570586466,37.55783758369433],[126.953908202868,37.55784319007484],[126.953967311811,37.557847763891715],[126.9540422870349,37.55785392980151],[126.95414499092095,37.55785928689114],[126.95424022455356,37.557865668028946],[126.95446263079543,37.557877424688115],[126.9545364861052,37.55788286003609],[126.95458730036215,37.55788575440097],[126.95468408504138,37.55789139698564],[126.95478058550644,37.55789910264504],[126.9548272005456,37.557902643957085],[126.95498196196127,37.55791382326632],[126.95506264215679,37.55791879246011],[126.95518936065493,37.557926626799],[126.95530449477634,37.55792662686744],[126.95530449442401,37.55781723769864],[126.95530601177157,37.55779763275479],[126.95531200136314,37.5577201319568],[126.95532241367586,37.55766491436586],[126.95532518688245,37.55762759645286],[126.95532879320865,37.557579034512486],[126.95533172508024,37.55753951734467],[126.95546694247791,37.55754730966056],[126.95552634602713,37.557551089941086],[126.95552787383652,37.55755118964503],[126.95552780462442,37.55755331595407],[126.95561517415112,37.557556647574295],[126.95571328304577,37.55756162309787],[126.95586151587776,37.55756915872311],[126.9558995872072,37.55757072314038],[126.9559135489099,37.55757756704635],[126.95606407029868,37.55757749624412],[126.95613493298546,37.55757746403618],[126.95613498265757,37.557577670381946],[126.95619209914032,37.55781850076715],[126.9562073807641,37.557888540567994],[126.95622652166178,37.55797738550282],[126.95626853670132,37.558157914907525],[126.95628680016871,37.55823814603052],[126.95631805000467,37.55836638685312],[126.9563377687549,37.55845457426145],[126.9563601298165,37.55855283574032],[126.95637131601455,37.55860198900448],[126.95638579965599,37.55866332490776],[126.95640513793236,37.55874459255453],[126.95642388851492,37.5588245535376],[126.95642564948542,37.5588321855923],[126.9564399640572,37.558892512313605],[126.95644911930812,37.55893145657984],[126.95646333096195,37.55899360325704],[126.95648616787493,37.55909156755809],[126.9565142436731,37.55921054492693],[126.95651470652203,37.559212509260604],[126.9565369465025,37.55930585124426],[126.95655353068128,37.55937526078626],[126.9565678236744,37.559453012616],[126.95657064523438,37.55946616813732],[126.95659017967665,37.55956069838319],[126.95660101657485,37.559626618899095],[126.95660171677696,37.55972340345785],[126.95657491206678,37.5598618843518],[126.95656887081728,37.559895380840715],[126.95655024659355,37.55992461986736],[126.95651490130757,37.55998011636171],[126.95647705017188,37.56004314416083],[126.95646841775806,37.560056673729036],[126.95643375758165,37.56010195323899],[126.9563816936567,37.56016051568081],[126.95631849616987,37.560232192243504],[126.95627610419852,37.56027986537757],[126.95622210106852,37.5603443465045],[126.95617927678687,37.56039548824615],[126.95613804734424,37.56044818028651],[126.95607809034146,37.560513253710184],[126.95606943677961,37.56052412532131],[126.95601427497259,37.56059499391893],[126.95597197963788,37.560650595684265],[126.955959155497,37.56067052062116],[126.95589484291095,37.56078767846187],[126.95587890587207,37.56084535363935],[126.95585210155053,37.560943253784195],[126.95584514539651,37.561028655869244],[126.95584213931093,37.5610583242837],[126.95583282000925,37.561121326858746],[126.95583032319063,37.5612066675964],[126.9558225869889,37.56125344396509],[126.95582061941298,37.56126906635731],[126.95581359294958,37.56132123091531]]]},"properties":{"OBJECTID":85123,"PRESENT_SN":"11000UQ181PS201912150511","LCLAS_CL":"UQ1200","MLSFC_CL":"UQ1220","SCLAS_CL":"UQ1221","ATRB_SE":"UQ1221","WTNNC_SN":"11000AGZ200812127658","NTFC_SN":"11000NTC200802051787","DGM_NM":"북아현재정비촉진지구1-3구역주택재","SIGNGU_SE":"11000","DRAWING_NO":" ","CREATE_DAT":1576368000000,"DGM_AR":106677.05436476,"DGM_LT":2587.75643327,"SHAPE.AREA":106677.054364685,"SHAPE.LEN":2587.75643327132}}]}