{"type":"FeatureCollection","features":[{"type":"Feature","id":84505,"geometry":{"type":"MultiPolygon","coordinates":[[[[126.9744453822138,37.53504142250069],[126.97440483181492,37.535042674589185],[126.97438798498118,37.535042814879375],[126.97427916534868,37.535042952010855],[126.97427882685453,37.535040393111686],[126.97422578768158,37.53503599302942],[126.97421181439859,37.535036809703506],[126.97418605421606,37.535030902238454],[126.9741126413005,37.53501819023007],[126.97409425701684,37.53501486129724],[126.97406779613979,37.53500686333911],[126.97403670715228,37.53500057618559],[126.97401219247915,37.53499214619101],[126.9740002802047,37.53498798983678],[126.97398197639457,37.53498122812054],[126.97396139909709,37.53497269091414],[126.97394658068482,37.534964209108274],[126.97389900425671,37.53493471748944],[126.97389434465461,37.53492976994615],[126.97388750197915,37.53492331723307],[126.9738823198869,37.53492390166628],[126.97387719870233,37.534882076356034],[126.97387466037463,37.534862154798645],[126.97386725708165,37.53481129198978],[126.9738630520672,37.53477025075685],[126.97385551406002,37.534716576815555],[126.9738507748615,37.53468212171811],[126.9738421205053,37.53461835638752],[126.97384067585381,37.53460874244934],[126.9738317946335,37.53454659885215],[126.97382344339368,37.53448931173251],[126.9738166727702,37.534441125016116],[126.97380444007558,37.534355302521305],[126.97378892411918,37.534244909161494],[126.9737867575283,37.534229501664576],[126.97377565520667,37.53414664369764],[126.97377126805029,37.53410885500049],[126.9737668115788,37.534074940558625],[126.97376546942114,37.53406357871537],[126.97375818904186,37.53401728395869],[126.97375401619314,37.53398131531729],[126.97374085996475,37.533884527501016],[126.97373297306181,37.53382637552393],[126.97373125905672,37.533810959121425],[126.9737301306211,37.53380297605325],[126.97372277468544,37.533746995594065],[126.97371872373064,37.53371800967841],[126.97371542881388,37.53369441188189],[126.97370886074809,37.53364954986671],[126.97373680683859,37.53361732790405],[126.97379492845587,37.53355109150455],[126.97380636039817,37.53353793067135],[126.97382413056509,37.53351820308026],[126.97383033301222,37.53351167233104],[126.97384971068904,37.53348938629107],[126.97389065028852,37.53344293163572],[126.97393481591395,37.53339209889041],[126.97395564248775,37.533367695836006],[126.97396468615257,37.53335721939062],[126.97398744800637,37.53333112291398],[126.97402710879541,37.533285127418694],[126.97406830867985,37.53323788889621],[126.97415453330287,37.53314088991106],[126.9741702093597,37.533123513374726],[126.97421683032557,37.53307100524141],[126.97423637758293,37.53304843986748],[126.97428535255516,37.53299367976605],[126.97430363169131,37.532973672910224],[126.97431626300491,37.532959737448145],[126.97431922841952,37.532956467524116],[126.97434608724254,37.53292594804104],[126.97436510258464,37.532903625791135],[126.97438766047293,37.532877637307614],[126.97440054093616,37.53286293604892],[126.97441630742094,37.53284546940048],[126.97448300733357,37.53276919755179],[126.97452574580495,37.53272062574698],[126.97454352727866,37.532699852894716],[126.97457328357979,37.532665639946124],[126.9746148382837,37.532617700335734],[126.97464910566617,37.53257938707161],[126.97465186733197,37.53257631531125],[126.97469294184528,37.53252945495389],[126.97472559522912,37.5324927468712],[126.97474553794517,37.53247079417616],[126.97481415291432,37.5325110841297],[126.97482989839658,37.532520331884335],[126.97484141341516,37.53252709193874],[126.9749130849964,37.53256872140144],[126.97493087457912,37.532582072728374],[126.9749352744718,37.532585371355765],[126.97494529581817,37.53259289690844],[126.97496320077917,37.532606343761735],[126.97496575706975,37.532608110284144],[126.9749698967898,37.53261129172257],[126.97500607994758,37.532638590949844],[126.97501888374661,37.53264825247583],[126.97503982022059,37.53266342990546],[126.97504366572755,37.53266678246409],[126.97504779444283,37.53266910795327],[126.97505047479716,37.53267198452587],[126.97507413718908,37.5326892060139],[126.97513660860376,37.53273100807239],[126.97522934889186,37.53279266572978],[126.97526861154601,37.53281438841031],[126.97528461758696,37.5328230054662],[126.97533210344034,37.53285040621194],[126.97535613961816,37.53289913727664],[126.97536807334073,37.53297075089611],[126.97538675781317,37.53308524429499],[126.9753900996073,37.533105625510515],[126.97541028591307,37.533228669664744],[126.97541414317605,37.53325036283975],[126.97542748312055,37.53332581859649],[126.97543403230199,37.53336280583051],[126.97543837960662,37.533387358866136],[126.9754470178085,37.533436023437254],[126.97545309505301,37.53347023550513],[126.97546447493036,37.533534325689345],[126.97547371201846,37.53358525188327],[126.9754757107574,37.53359626246539],[126.97547890649133,37.53361384155443],[126.97549352851995,37.53369882648953],[126.97550038227637,37.533738597854686],[126.97551317519977,37.533812896599294],[126.97552482774996,37.53388052773857],[126.97553784719231,37.5339542769225],[126.97554227358194,37.533979352545465],[126.97554371894286,37.533987515864524],[126.97555943633132,37.53407898007113],[126.97560459919723,37.53434179086363],[126.97561941297715,37.53437040065499],[126.97563927684588,37.53444635875622],[126.97562978887088,37.53446598932379],[126.97558320017923,37.53449099068017],[126.97549154879825,37.534544750816245],[126.97541205145853,37.53459036858743],[126.97530575697174,37.53465103596015],[126.97516843324317,37.53472813944732],[126.97493282229168,37.53487223657745],[126.97491297265941,37.53488530552143],[126.97490216500994,37.534892763311376],[126.97487764110579,37.53491011091435],[126.97479105008367,37.5349527894259],[126.97477363512171,37.53495976818211],[126.97471578480526,37.53498176993952],[126.97463565334478,37.53500733633469],[126.97454495234305,37.53502606532645],[126.97450945755259,37.535032391197895],[126.9744453822138,37.53504142250069]]],[[[126.97508070688941,37.53525096628398],[126.97507667929489,37.53526305671255],[126.97504558584382,37.53536488901995],[126.97503043048322,37.53541281846497],[126.97502045088547,37.53544609891826],[126.97501119600781,37.535477631606206],[126.97499292631694,37.53553366928584],[126.9749907628509,37.53554057941828],[126.97498474113759,37.53564356159494],[126.97498218460117,37.53570606292197],[126.97497859471383,37.535779141676564],[126.97497457180889,37.53589280106721],[126.97497426321615,37.535901567661796],[126.97497231207124,37.53594784223435],[126.97496832241721,37.535999567357074],[126.97496634766316,37.53604858995267],[126.97496315778935,37.53611026221885],[126.97495244270166,37.53627095194018],[126.9749506775331,37.53630321610785],[126.97494839998552,37.53634458920072],[126.97494253951032,37.53643922820099],[126.97493426770959,37.53656953697392],[126.97492279622053,37.53675704006379],[126.97490718312682,37.537009521831784],[126.97490411256383,37.53705358870926],[126.97489531363725,37.537202250574616],[126.97488985309994,37.537285456047435],[126.9748829279123,37.5374147199497],[126.97487809166383,37.537492249304066],[126.97487325793654,37.53759446586465],[126.97476703918205,37.53758833312072],[126.97469353004976,37.537584261979106],[126.97457612135996,37.53757780216387],[126.97440450552102,37.53756914038672],[126.9743604250049,37.537566562428644],[126.97435350076164,37.53756585806168],[126.97431333486041,37.53756388465164],[126.97432316076758,37.537519269743434],[126.97433376629908,37.5374775922506],[126.97434343351789,37.53743369809788],[126.97435293062854,37.53739084905678],[126.974365713074,37.53733658518883],[126.97436851304806,37.53732198974609],[126.97438098930327,37.537269590860966],[126.97439394190138,37.53721401157812],[126.97440655499044,37.537158585384226],[126.9744192235475,37.53710615950792],[126.97443211895609,37.53705212991423],[126.97444668071034,37.5369894151277],[126.97446217026025,37.53692660144199],[126.97447533793735,37.53687040051101],[126.97448775751255,37.53681788446844],[126.97449790191325,37.536768025833176],[126.97450977884151,37.5367141852034],[126.97452113402025,37.536663867335655],[126.97453277340061,37.53660978338016],[126.97453749582681,37.53659778323098],[126.974550187916,37.536542330004124],[126.97456346774048,37.53648852572691],[126.97457482322157,37.536437171710034],[126.97458701714534,37.53638249321812],[126.97459896059077,37.536332112404644],[126.97461068973055,37.53627983044515],[126.97462276913895,37.53622882797408],[126.97463806674166,37.53616405905823],[126.97464264472654,37.536144562607845],[126.97465983188874,37.53607950580038],[126.97467848492771,37.53602827055838],[126.97468613384424,37.53599544911438],[126.97469874655322,37.53593990574845],[126.97471310380071,37.535878335132004],[126.97472473267585,37.53582125985042],[126.9747389073142,37.535763986925886],[126.97475381852323,37.53570345257047],[126.9747671589423,37.535637556946924],[126.9747700043467,37.53562207852732],[126.97479526900922,37.53555879848014],[126.97481506099378,37.535517573504876],[126.97486117909891,37.53545034279502],[126.97489294331419,37.53540389474649],[126.97490183925358,37.53539554454385],[126.97495741405676,37.53533345158759],[126.97497170721532,37.53532408447083],[126.97503799276748,37.535272400355545],[126.9750785311543,37.535241397247944],[126.97508472769286,37.53523887945769],[126.97508070688941,37.53525096628398]]]]},"properties":{"OBJECTID":84505,"PRESENT_SN":"11000UQ181PS201912151542","LCLAS_CL":"UQ1200","MLSFC_CL":"UQ1220","SCLAS_CL":"UQ1222","ATRB_SE":"UQ1222","WTNNC_SN":"11000AGZ201201169008","NTFC_SN":"11000NTC201110136269","DGM_NM":"한강로 도시환경정비사업","SIGNGU_SE":"11000","DRAWING_NO":" ","CREATE_DAT":1576368000000,"DGM_AR":41743.95442681,"DGM_LT":1311.47012684,"SHAPE.AREA":41743.95442679,"SHAPE.LEN":1311.47012683753}},{"type":"Feature","id":86002,"geometry":{"type":"MultiPolygon","coordinates":[[[[126.9744453822138,37.53504142250069],[126.97440483181492,37.535042674589185],[126.97438798498118,37.535042814879375],[126.97427916534868,37.535042952010855],[126.97427882685453,37.535040393111686],[126.97422578768158,37.53503599302942],[126.97421181439859,37.535036809703506],[126.97418605421606,37.535030902238454],[126.9741126413005,37.53501819023007],[126.97409425701684,37.53501486129724],[126.97406779613979,37.53500686333911],[126.97403670715228,37.53500057618559],[126.97401219247915,37.53499214619101],[126.9740002802047,37.53498798983678],[126.97398197639457,37.53498122812054],[126.97396139909709,37.53497269091414],[126.97394658068482,37.534964209108274],[126.97389900425671,37.53493471748944],[126.97389434465461,37.53492976994615],[126.97388750197915,37.53492331723307],[126.9738823198869,37.53492390166628],[126.97387719870233,37.534882076356034],[126.97387466037463,37.534862154798645],[126.97386725708165,37.53481129198978],[126.9738630520672,37.53477025075685],[126.97385551406002,37.534716576815555],[126.9738507748615,37.53468212171811],[126.9738421205053,37.53461835638752],[126.97384067585381,37.53460874244934],[126.9738317946335,37.53454659885215],[126.97382344339368,37.53448931173251],[126.9738166727702,37.534441125016116],[126.97380444007558,37.534355302521305],[126.97378892411918,37.534244909161494],[126.9737867575283,37.534229501664576],[126.97377565520667,37.53414664369764],[126.97377126805029,37.53410885500049],[126.9737668115788,37.534074940558625],[126.97376546942114,37.53406357871537],[126.97375818904186,37.53401728395869],[126.97375401619314,37.53398131531729],[126.97374085996475,37.533884527501016],[126.97373297306181,37.53382637552393],[126.97373125905672,37.533810959121425],[126.9737301306211,37.53380297605325],[126.97372277468544,37.533746995594065],[126.97371872373064,37.53371800967841],[126.97371542881388,37.53369441188189],[126.97370886074809,37.53364954986671],[126.97373680683859,37.53361732790405],[126.97379492845587,37.53355109150455],[126.97380636039817,37.53353793067135],[126.97382413056509,37.53351820308026],[126.97383033301222,37.53351167233104],[126.97384971068904,37.53348938629107],[126.97389065028852,37.53344293163572],[126.97393481591395,37.53339209889041],[126.97395564248775,37.533367695836006],[126.97396468615257,37.53335721939062],[126.97398744800637,37.53333112291398],[126.97402710879541,37.533285127418694],[126.97406830867985,37.53323788889621],[126.97415453330287,37.53314088991106],[126.9741702093597,37.533123513374726],[126.97421683032557,37.53307100524141],[126.97423637758293,37.53304843986748],[126.97428535255516,37.53299367976605],[126.97430363169131,37.532973672910224],[126.97431626300491,37.532959737448145],[126.97431922841952,37.532956467524116],[126.97434608724254,37.53292594804104],[126.97436510258464,37.532903625791135],[126.97438766047293,37.532877637307614],[126.97440054093616,37.53286293604892],[126.97441630742094,37.53284546940048],[126.97448300733357,37.53276919755179],[126.97452574580495,37.53272062574698],[126.97454352727866,37.532699852894716],[126.97457328357979,37.532665639946124],[126.9746148382837,37.532617700335734],[126.97464910566617,37.53257938707161],[126.97465186733197,37.53257631531125],[126.97469294184528,37.53252945495389],[126.97472559522912,37.5324927468712],[126.97474553794517,37.53247079417616],[126.97481415291432,37.5325110841297],[126.97482989839658,37.532520331884335],[126.97484141341516,37.53252709193874],[126.9749130849964,37.53256872140144],[126.97493087457912,37.532582072728374],[126.9749352744718,37.532585371355765],[126.97494529581817,37.53259289690844],[126.97496320077917,37.532606343761735],[126.97496575706975,37.532608110284144],[126.9749698967898,37.53261129172257],[126.97500607994758,37.532638590949844],[126.97501888374661,37.53264825247583],[126.97503982022059,37.53266342990546],[126.97504366572755,37.53266678246409],[126.97504779444283,37.53266910795327],[126.97505047479716,37.53267198452587],[126.97507413718908,37.5326892060139],[126.97513660860376,37.53273100807239],[126.97522934889186,37.53279266572978],[126.97526861154601,37.53281438841031],[126.97528461758696,37.5328230054662],[126.97533210344034,37.53285040621194],[126.97535613961816,37.53289913727664],[126.97536807334073,37.53297075089611],[126.97538675781317,37.53308524429499],[126.9753900996073,37.533105625510515],[126.97541028591307,37.533228669664744],[126.97541414317605,37.53325036283975],[126.97542748312055,37.53332581859649],[126.97543403230199,37.53336280583051],[126.97543837960662,37.533387358866136],[126.9754470178085,37.533436023437254],[126.97545309505301,37.53347023550513],[126.97546447493036,37.533534325689345],[126.97547371201846,37.53358525188327],[126.9754757107574,37.53359626246539],[126.97547890649133,37.53361384155443],[126.97549352851995,37.53369882648953],[126.97550038227637,37.533738597854686],[126.97551317519977,37.533812896599294],[126.97552482774996,37.53388052773857],[126.97553784719231,37.5339542769225],[126.97554227358194,37.533979352545465],[126.97554371894286,37.533987515864524],[126.97555943633132,37.53407898007113],[126.97560459919723,37.53434179086363],[126.97561941297715,37.53437040065499],[126.97563927684588,37.53444635875622],[126.97562978887088,37.53446598932379],[126.97558320017923,37.53449099068017],[126.97549154879825,37.534544750816245],[126.97541205145853,37.53459036858743],[126.97530575697174,37.53465103596015],[126.97516843324317,37.53472813944732],[126.97493282229168,37.53487223657745],[126.97491297265941,37.53488530552143],[126.97490216500994,37.534892763311376],[126.97487764110579,37.53491011091435],[126.97479105008367,37.5349527894259],[126.97477363512171,37.53495976818211],[126.97471578480526,37.53498176993952],[126.97463565334478,37.53500733633469],[126.97454495234305,37.53502606532645],[126.97450945755259,37.535032391197895],[126.9744453822138,37.53504142250069]]],[[[126.97508070688941,37.53525096628398],[126.97507667929489,37.53526305671255],[126.97504558584382,37.53536488901995],[126.97503043048322,37.53541281846497],[126.97502045088547,37.53544609891826],[126.97501119600781,37.535477631606206],[126.97499292631694,37.53553366928584],[126.9749907628509,37.53554057941828],[126.97498474113759,37.53564356159494],[126.97498218460117,37.53570606292197],[126.97497859471383,37.535779141676564],[126.97497457180889,37.53589280106721],[126.97497426321615,37.535901567661796],[126.97497231207124,37.53594784223435],[126.97496832241721,37.535999567357074],[126.97496634766316,37.53604858995267],[126.97496315778935,37.53611026221885],[126.97495244270166,37.53627095194018],[126.9749506775331,37.53630321610785],[126.97494839998552,37.53634458920072],[126.97494253951032,37.53643922820099],[126.97493426770959,37.53656953697392],[126.97492279622053,37.53675704006379],[126.97490718312682,37.537009521831784],[126.97490411256383,37.53705358870926],[126.97489531363725,37.537202250574616],[126.97488985309994,37.537285456047435],[126.9748829279123,37.5374147199497],[126.97487809166383,37.537492249304066],[126.97487325793654,37.53759446586465],[126.97476703918205,37.53758833312072],[126.97469353004976,37.537584261979106],[126.97457612135996,37.53757780216387],[126.97440450552102,37.53756914038672],[126.9743604250049,37.537566562428644],[126.97435350076164,37.53756585806168],[126.97431333486041,37.53756388465164],[126.97432316076758,37.537519269743434],[126.97433376629908,37.5374775922506],[126.97434343351789,37.53743369809788],[126.97435293062854,37.53739084905678],[126.974365713074,37.53733658518883],[126.97436851304806,37.53732198974609],[126.97438098930327,37.537269590860966],[126.97439394190138,37.53721401157812],[126.97440655499044,37.537158585384226],[126.9744192235475,37.53710615950792],[126.97443211895609,37.53705212991423],[126.97444668071034,37.5369894151277],[126.97446217026025,37.53692660144199],[126.97447533793735,37.53687040051101],[126.97448775751255,37.53681788446844],[126.97449790191325,37.536768025833176],[126.97450977884151,37.5367141852034],[126.97452113402025,37.536663867335655],[126.97453277340061,37.53660978338016],[126.97453749582681,37.53659778323098],[126.974550187916,37.536542330004124],[126.97456346774048,37.53648852572691],[126.97457482322157,37.536437171710034],[126.97458701714534,37.53638249321812],[126.97459896059077,37.536332112404644],[126.97461068973055,37.53627983044515],[126.97462276913895,37.53622882797408],[126.97463806674166,37.53616405905823],[126.97464264472654,37.536144562607845],[126.97465983188874,37.53607950580038],[126.97467848492771,37.53602827055838],[126.97468613384424,37.53599544911438],[126.97469874655322,37.53593990574845],[126.97471310380071,37.535878335132004],[126.97472473267585,37.53582125985042],[126.9747389073142,37.535763986925886],[126.97475381852323,37.53570345257047],[126.9747671589423,37.535637556946924],[126.9747700043467,37.53562207852732],[126.97479526900922,37.53555879848014],[126.97481506099378,37.535517573504876],[126.97486117909891,37.53545034279502],[126.97489294331419,37.53540389474649],[126.97490183925358,37.53539554454385],[126.97495741405676,37.53533345158759],[126.97497170721532,37.53532408447083],[126.97503799276748,37.535272400355545],[126.9750785311543,37.535241397247944],[126.97508472769286,37.53523887945769],[126.97508070688941,37.53525096628398]]]]},"properties":{"OBJECTID":86002,"PRESENT_SN":"11000UQ181PS201912151542","LCLAS_CL":"UQ1200","MLSFC_CL":"UQ1220","SCLAS_CL":"UQ1222","ATRB_SE":"UQ1222","WTNNC_SN":"11000AGZ201201169008","NTFC_SN":"11000NTC201110136269","DGM_NM":"한강로 도시환경정비사업","SIGNGU_SE":"11000","DRAWING_NO":" ","CREATE_DAT":1576368000000,"DGM_AR":41743.95442681,"DGM_LT":1311.47012684,"SHAPE.AREA":41743.95442679,"SHAPE.LEN":1311.47012683753}}]}