{"type":"FeatureCollection","features":[{"type":"Feature","id":85166,"geometry":{"type":"Polygon","coordinates":[[[127.01519197528728,37.57826687157264],[127.01532746364035,37.57826685580297],[127.01532500684148,37.57832091529345],[127.01518857197959,37.57832093116992],[127.01518759428203,37.57834176119494],[127.0151874082125,37.57834571204322],[127.01518462950777,37.578379580455284],[127.01510333598652,37.578382445965325],[127.01509996856377,37.57835397517278],[127.01507337397898,37.57834162570139],[127.01503284316422,37.57838942769276],[127.01499138435236,37.578439193926755],[127.01498421967705,37.57844664590414],[127.01488506112244,37.57848908733864],[127.01478384581839,37.5788461570659],[127.0148368845114,37.57885076414609],[127.01476792875235,37.57903759148043],[127.01475856992433,37.5790572700778],[127.01472444982792,37.5791261453148],[127.01474057078458,37.579126711131984],[127.01469842275667,37.57918758649862],[127.01469411141862,37.57919837178924],[127.01461033305274,37.57917455001416],[127.01458950893701,37.57921012327178],[127.01457269031664,37.579233875138826],[127.01455805607472,37.579254563407794],[127.01448664242041,37.57924441715505],[127.01445729807105,37.57924024880687],[127.01445298626352,37.57924853835583],[127.01443713103379,37.579279065516836],[127.01431262329207,37.57927298840615],[127.01431218138437,37.579270681928435],[127.01431463625386,37.579260428435205],[127.01425850744063,37.57926010114045],[127.01405928178436,37.57925176131566],[127.01400215601036,37.579247037190434],[127.0139330852577,37.579233304428485],[127.0139059841299,37.57896579534489],[127.01388265893283,37.57873410907687],[127.01386739653002,37.57858483520378],[127.01386277003363,37.57853859705125],[127.01386019598694,37.57851291018998],[127.01387798024723,37.5784407122659],[127.01386826119457,37.57840515133789],[127.01386727605116,37.578403691842475],[127.01376530546437,37.57837383475494],[127.01346696564424,37.57841285102036],[127.01323662057429,37.578397440205684],[127.01293383197151,37.5784405910941],[127.0129526395155,37.57861367782614],[127.01301132126646,37.578802059428405],[127.0130903595949,37.578926802317035],[127.01313689120144,37.57909270542147],[127.01306606872616,37.57902316521401],[127.01310138567364,37.57914363267255],[127.01316489088151,37.57918651338651],[127.01317305398726,37.579191540086086],[127.01302052108535,37.57921783682365],[127.01294172598134,37.57920437472458],[127.01292396317983,37.57920170952166],[127.01289433457288,37.57918872916361],[127.01279530458258,37.57914469843983],[127.01268596059619,37.579095019422745],[127.01259760712585,37.579056015027284],[127.01252320171302,37.57902195568263],[127.01246884700356,37.578998066571685],[127.01245261098138,37.57898449020822],[127.01237588087089,37.578922392281875],[127.0123099750479,37.57887060961305],[127.0122520510969,37.57882322299635],[127.01218473024252,37.57877068355657],[127.011960139433,37.57878497526203],[127.01188198724783,37.578300492777075],[127.01179008118876,37.57830816910678],[127.01178299157768,37.578254405142644],[127.01187333533373,37.57824685869751],[127.01181769303456,37.57790191267652],[127.01196775412384,37.57786378774955],[127.01196941797139,37.577861742362266],[127.01210676447288,37.577734033265564],[127.01215545065399,37.57770741373883],[127.01228138241872,37.57763766594609],[127.01228405382761,37.57763590877823],[127.0123474033941,37.57763235309657],[127.01235387833867,37.57762932518678],[127.01236817529906,37.57762272865023],[127.0123828676283,37.57761028467108],[127.0124000834502,37.57759100196746],[127.01240629746054,37.577584162904515],[127.0124612659436,37.57755466852344],[127.01257107834375,37.57749629236682],[127.01257285550957,37.57749517497675],[127.01259649068342,37.57748035152778],[127.01263161522442,37.57745875157202],[127.01272813674017,37.57739859256467],[127.0126843789886,37.5773733510594],[127.01239734394386,37.577109049028394],[127.01237638459338,37.577089749115366],[127.012360801013,37.5769665045473],[127.01239326594468,37.57695095953694],[127.01242287676872,37.576926296793495],[127.0124579428524,37.5768934525758],[127.01259464447102,37.576556668923416],[127.01260751694714,37.576488003496294],[127.01264912789372,37.57616398662723],[127.01265083454817,37.576145696429194],[127.01266544541362,37.5759459263962],[127.01266304635502,37.57584530708746],[127.01275689616524,37.57584364037499],[127.01280626103186,37.57583066956029],[127.01283237033209,37.57582382856907],[127.01293047401808,37.575798122974966],[127.0128824033019,37.57569317162291],[127.01287757925164,37.57568263954769],[127.01290058109635,37.575675970027696],[127.01302709151821,37.575641558075006],[127.01305014071451,37.57564848441698],[127.01311069570244,37.57566593060746],[127.0131404458783,37.5756686396539],[127.01327081305249,37.57568497065522],[127.01332945352242,37.57569312774674],[127.01343397622823,37.57570765917619],[127.01349626386771,37.57579894989739],[127.01352187404932,37.57582145395419],[127.01354723524257,37.57584422832691],[127.01355250185459,37.575860751893536],[127.01355414427125,37.5758667703199],[127.01355730451651,37.57587840174105],[127.01354935008693,37.575901810196505],[127.01352226565196,37.575933797994914],[127.0135035552954,37.57594734173161],[127.0134859641874,37.57595176736262],[127.01346120802901,37.575960770730354],[127.01337073125148,37.57600340554648],[127.01336201552682,37.57600938897529],[127.01335236044794,37.576016868136136],[127.0133362410805,37.57602205042638],[127.01328909583272,37.57604769722804],[127.0133694262644,37.57612642645113],[127.01345526212812,37.57622743647148],[127.01355168999035,37.57630277622825],[127.01367986443559,37.576402457308525],[127.01374463746647,37.576457158549665],[127.01381516412538,37.57645976408741],[127.01390256982754,37.576464106718625],[127.01391968710806,37.57646893421221],[127.013968206668,37.576470271576405],[127.01410762689737,37.576457706043236],[127.01418109513249,37.576449994747485],[127.01426327815787,37.57643102913788],[127.01426677843553,37.57644433633804],[127.0142863633846,37.57651428685226],[127.01431333096744,37.57659399425153],[127.0143173294645,37.576607905057124],[127.01432898123188,37.57662559016778],[127.01433532160279,37.576630959362014],[127.01439148681969,37.57665693771567],[127.01439817686095,37.576654927785086],[127.01440800310486,37.576655458295036],[127.01450485181083,37.57666834080533],[127.01458548917867,37.57667848603112],[127.0145954400544,37.576679602153206],[127.0147594433482,37.57670134270895],[127.01478892243728,37.576704799189045],[127.01493836755276,37.5767255680657],[127.01493836710651,37.57672308134174],[127.01531482699745,37.576773123814945],[127.01531204649922,37.576796639899264],[127.01531073653463,37.576814047120145],[127.01530974176498,37.57682181374381],[127.01529195706784,37.577004977453306],[127.01518939403952,37.57700907084485],[127.01509647600905,37.57701282066341],[127.01499432565011,37.576982685344994],[127.01494841866864,37.576969617255756],[127.01494236095768,37.57696268935525],[127.0149233402511,37.57695003265011],[127.01492038861953,37.57690370423729],[127.01491933285621,37.57688719827649],[127.01484738140114,37.576895964014554],[127.0148096737013,37.57690073448654],[127.01477183015237,37.57690551397158],[127.0147560879473,37.57693148218105],[127.01474249203426,37.57693148370471],[127.0146962251745,37.576931479868115],[127.01461427624606,37.57693220977611],[127.01458370708643,37.57703990812965],[127.01457452047907,37.577072254575995],[127.01466773512455,37.577080911724956],[127.01468379917526,37.57708226141507],[127.01478563977356,37.57708918761384],[127.01477758596008,37.577189107965516],[127.01476715524741,37.57729149728574],[127.01476131763005,37.577376803377284],[127.0147316946123,37.577393168617704],[127.0146434836794,37.57738690758862],[127.01454765389605,37.57737991753532],[127.01449363197554,37.577378770221586],[127.01446348490846,37.57737639492562],[127.01442027383844,37.5773735705569],[127.0144193050854,37.577401483235676],[127.01442537439635,37.57741010501654],[127.01438886022102,37.57744480600644],[127.01438865726824,37.5775153352788],[127.01438098187941,37.57751513789816],[127.01449475757761,37.5776025391903],[127.01450407642548,37.57761404376744],[127.0145089339195,37.57761955727242],[127.01452262342877,37.57763626907092],[127.01455316556779,37.57769638855308],[127.01451932818894,37.57769595080054],[127.01437004258784,37.57769175953699],[127.01433455230752,37.57769076329959],[127.01432049145653,37.577753068062876],[127.014339856943,37.577795232143636],[127.01436880329234,37.577858271042345],[127.01436904485138,37.577880534399505],[127.01436488137963,37.57789522093717],[127.01433987789822,37.57798348431961],[127.01431191318929,37.578100075039835],[127.01429680670299,37.578205005591784],[127.014235177039,37.5783390610509],[127.01452359820476,37.57835924777367],[127.01456716906735,37.578344628961574],[127.01464162193581,37.57832509632709],[127.01470352242637,37.5783187194542],[127.01475605972979,37.578306946688606],[127.01476303296623,37.57830516195285],[127.01479045019319,37.57829663553951],[127.01481457285493,37.57828678504042],[127.01484264282493,37.578256679909394],[127.01486629856204,37.57823138653984],[127.01488620729852,37.57820700358636],[127.01490988494152,37.57817777289335],[127.01493013357687,37.57815510176849],[127.01495668654532,37.57812535717672],[127.01500519635697,37.57806658027943],[127.0150086506929,37.57801232246218],[127.0150330692044,37.57801150878139],[127.01508841581283,37.578011033919694],[127.01520566707168,37.57801001488335],[127.0152027511625,37.57805491679752],[127.0152028896979,37.578069602865575],[127.0152023704525,37.57807782893481],[127.01519975179342,37.57812011254646],[127.01519805868462,37.57814740363112],[127.01519787128136,37.57817500087666],[127.01519252955498,37.57825823915464],[127.01519197528728,37.57826687157264]]]},"properties":{"OBJECTID":85166,"PRESENT_SN":"11110UQ181PS202501220001","LCLAS_CL":"UQ1200","MLSFC_CL":"UQ1220","SCLAS_CL":"UQ1221","ATRB_SE":"UQ1221","WTNNC_SN":"11110AGZ202409300002","NTFC_SN":"11110NTC202501090003","DGM_NM":"창신동 23일대 주택정비형 재개발구역","SIGNGU_SE":"11110","DRAWING_NO":" ","CREATE_DAT":1737504000000,"DGM_AR":64666.02351938,"DGM_LT":1879.57377894,"SHAPE.AREA":64666.024764485,"SHAPE.LEN":1879.5737823168702}}]}