{"type":"FeatureCollection","features":[{"type":"Feature","id":85265,"geometry":{"type":"Polygon","coordinates":[[[126.82343943066533,37.491463480310536],[126.82347829772155,37.491524176109934],[126.82332408431792,37.491514933638676],[126.82320256270593,37.491500280256524],[126.82318108447569,37.49149768900241],[126.8230635920168,37.49145300225611],[126.82296658389373,37.4914009581599],[126.82280163880415,37.49133998145195],[126.8226951785572,37.491316124100166],[126.82272909346423,37.49136681156388],[126.82271044122209,37.491364620940026],[126.82252086217908,37.49134424160719],[126.82250060948125,37.49134934661657],[126.82242548975506,37.49136509035496],[126.82241271721365,37.4913629986963],[126.82216416196059,37.49132207669951],[126.82204108877463,37.49138901422673],[126.82198210041575,37.49137351752503],[126.82192496446933,37.49138721597337],[126.82181567669619,37.4913637139311],[126.82178776160502,37.49135763477771],[126.82172556850479,37.491351681859015],[126.82169754444497,37.49133162982778],[126.8216862562477,37.49132355771707],[126.82158595643361,37.49124891042493],[126.82126459830423,37.491017476551725],[126.82120635821026,37.490968418393564],[126.82111546130717,37.490867998458114],[126.82096860895919,37.49072323949295],[126.82096272978286,37.49066657208929],[126.82099353080983,37.490647968475415],[126.82093165682768,37.49057736174116],[126.8209817813182,37.49058262809629],[126.82102330296979,37.4905870163293],[126.82127539270947,37.490473334691586],[126.8213316768432,37.49042329796521],[126.82136695213373,37.490391933920165],[126.82146509143973,37.49034856526308],[126.82151262774717,37.49032971671471],[126.82163236241306,37.49028701151602],[126.82195030770548,37.49020027844847],[126.82232237303124,37.49009778705285],[126.82255331409279,37.49003638260581],[126.82257012789186,37.49003174089702],[126.8227620252784,37.489979413031804],[126.82278704405188,37.48986260030533],[126.82281760912295,37.48971487366907],[126.8228337407858,37.48963579034057],[126.82291081324308,37.489511487897595],[126.82300537406445,37.4893554786332],[126.82304679885081,37.489291029669324],[126.82304657175385,37.48905377820786],[126.82304745599188,37.48882467344904],[126.82304662996954,37.488744122864446],[126.8231430244159,37.48876751421075],[126.82336904018764,37.488821194365194],[126.82356578789458,37.48886762201564],[126.82368853992628,37.48893385007708],[126.82382067903589,37.488999281229226],[126.82399775885928,37.48909099884148],[126.82434710604593,37.48935163267471],[126.82436873995754,37.48936754071913],[126.824459420036,37.48942676417133],[126.82448018346187,37.48944549282023],[126.82456892372068,37.48950649545762],[126.8247393801514,37.489626763707456],[126.82474810552002,37.48963320088609],[126.82488262055038,37.48973257503864],[126.82473169095537,37.48986677838117],[126.82499796283923,37.49006566660133],[126.82524944552611,37.490255161762846],[126.82533634392986,37.49023060399721],[126.82533733535244,37.490241777864405],[126.8253999477961,37.490254755498384],[126.82539122909998,37.4902569805837],[126.82541630487388,37.490319381514205],[126.82541208879083,37.49033316051624],[126.82539649807904,37.49037557433409],[126.82541533645707,37.49044290704462],[126.82546229076986,37.49047892688232],[126.82546732364325,37.490550744006676],[126.82547364859523,37.49055670723266],[126.82547363041462,37.490556745047535],[126.82545014396017,37.49059567825971],[126.82550629184033,37.490617025494444],[126.82551924694543,37.49063767767114],[126.82551980999045,37.4906386696088],[126.82552125416456,37.490649663948325],[126.82553572130413,37.49065238849452],[126.82561203092214,37.49070728287133],[126.82563171771058,37.490750470033156],[126.82572191241218,37.49081529599664],[126.82572609057415,37.490841813208206],[126.82570834064259,37.49086474064844],[126.82556153439769,37.49102435933117],[126.82540600489803,37.491190722316354],[126.82536355748056,37.491257693360005],[126.82535506648924,37.49126209559509],[126.82529371232627,37.49129074596652],[126.82522068702907,37.491233513692634],[126.82515070656035,37.49122791315812],[126.82506691718561,37.49122814845346],[126.82504624990723,37.49121730559907],[126.82504500777877,37.491216582944645],[126.82497239051389,37.49117827210429],[126.82495050217221,37.491205809963795],[126.82494676009668,37.49121030936624],[126.82483692843326,37.49135502580565],[126.8248079334099,37.491389670901846],[126.82478241974617,37.4914200865034],[126.8247287635955,37.491492806941494],[126.82470792472058,37.4914588080998],[126.82467852506902,37.49141083095834],[126.82464338405957,37.49130410008457],[126.82462720514584,37.491260017015556],[126.82457295612242,37.4911526268098],[126.82455112141933,37.49110943625796],[126.82450349936649,37.49102097692183],[126.82446481695884,37.49088180471901],[126.82445179964314,37.490839708558504],[126.8244426330141,37.4908122594012],[126.82440518493354,37.49070018927252],[126.82408570516438,37.49043299259334],[126.82404543095133,37.490399310424756],[126.82401124620333,37.49037071902573],[126.82396593892103,37.49033282700852],[126.82396076777609,37.49032864220583],[126.82395542215717,37.49032460130057],[126.82394990431303,37.490320709702054],[126.82394422102377,37.490316969222505],[126.82393838357962,37.49031338708681],[126.82393239197216,37.490309966898934],[126.82392625976583,37.49030671048127],[126.82391998920505,37.49030362504516],[126.82391359159288,37.49030071240953],[126.82390707144796,37.49029797438317],[126.8239004377991,37.49029541818765],[126.82389369743488,37.49029304203114],[126.82388685938413,37.490290853135186],[126.82387993043122,37.49028885150997],[126.82387292187913,37.49028703897449],[126.82386583823805,37.490285420941476],[126.82385868855802,37.49028399562255],[126.82385148187203,37.49028276843727],[126.82384422723446,37.49028173579523],[126.82383693141692,37.49028090311261],[126.82382960572664,37.49028027040641],[126.823822256948,37.490279837686835],[126.82381489186535,37.49027960496408],[126.82380752178172,37.490279574057126],[126.82380015574716,37.4902797431776],[126.82379280053755,37.49028011593969],[126.82378546747294,37.49028068695442],[126.82377816107194,37.490281458030644],[126.82377089264612,37.490282427383285],[126.82376367123705,37.49028359682802],[126.82375650364186,37.490284960969085],[126.82374939890643,37.490286519820096],[126.82374236381509,37.490288273391265],[126.8237354119494,37.49029021629707],[126.82372854330936,37.49029234853745],[126.8234328389983,37.490388641673654],[126.8234182293256,37.490393616592996],[126.82340382682948,37.49039896123247],[126.82338964509138,37.490404670206615],[126.82337569995434,37.49041073813342],[126.82336200500846,37.49041715602343],[126.8233485738353,37.490423918491274],[126.82333542227789,37.49043102015488],[126.8231837920169,37.49051573577438],[126.8230552322463,37.49059130847086],[126.82303969816844,37.49060173118895],[126.82302461089033,37.490612561831504],[126.82300998853366,37.49062378781209],[126.82299584469314,37.490635398339435],[126.82298219749057,37.49064738082712],[126.82296906052922,37.49065972087987],[126.82295645193527,37.49067240410928],[126.8229443830506,37.49068541611665],[126.82293286747422,37.490698744308716],[126.82292191881378,37.49071237248825],[126.82291154841552,37.490726284454546],[126.82290176988285,37.49074046581235],[126.82289259456203,37.49075490036098],[126.8228840292764,37.49076957189292],[126.82287608537224,37.490784464207465],[126.82286877420027,37.4907995593019],[126.82284789967595,37.49086167143854],[126.82297766553802,37.49097327071677],[126.82317289118447,37.491186561713945],[126.82343943066533,37.491463480310536]]]},"properties":{"OBJECTID":85265,"PRESENT_SN":"11000UQ181PS201912151413","LCLAS_CL":"UQ1200","MLSFC_CL":"UQ1240","SCLAS_CL":" ","ATRB_SE":"UQ1240","WTNNC_SN":"11000AGZ201412020219","NTFC_SN":"11000NTC201406057221","DGM_NM":"대흥.성원.동진빌라 주택재건축 정비","SIGNGU_SE":"11000","DRAWING_NO":" ","CREATE_DAT":1576368000000,"DGM_AR":56298.00942045,"DGM_LT":1493.29840728,"SHAPE.AREA":56298.00942054,"SHAPE.LEN":1493.2984072859101}}]}