{"type":"FeatureCollection","features":[{"type":"Feature","id":84265,"geometry":{"type":"Polygon","coordinates":[[[127.05456207138509,37.60680359606046],[127.05451298167267,37.60684150441537],[127.05444855258979,37.60691998184987],[127.05444124312945,37.60692917514638],[127.05443512247051,37.60693790840847],[127.05435256747306,37.60704039608076],[127.05435768310672,37.607067765630305],[127.05436452670526,37.6071043965029],[127.05438217412225,37.60715660051866],[127.05443871209897,37.60720910244408],[127.05446713928463,37.60725877886226],[127.05449036301388,37.60730101549585],[127.05452000279978,37.607335780101344],[127.05438434927323,37.607381682912504],[127.05436082163763,37.60739007258252],[127.05433395392527,37.60739964402917],[127.05424959332896,37.60743192790041],[127.05415342165671,37.60746576666828],[127.0541315574472,37.60747229051761],[127.05410835715547,37.60747922040023],[127.0540163506985,37.60750977762518],[127.054012721816,37.607502886725825],[127.05400821701352,37.60750658275609],[127.0539990039222,37.60751449747623],[127.05398625715776,37.60748983425222],[127.0539343531909,37.60752078803109],[127.05384239685617,37.60757457241748],[127.05389185567195,37.60759350714515],[127.05382827828971,37.607660973851914],[127.05376240160349,37.60772818025666],[127.05374506333352,37.607745162432984],[127.05369984183227,37.60779361022275],[127.05371232904454,37.60785207843943],[127.0537843619597,37.607891293342945],[127.05387590384144,37.60794037431319],[127.053834800772,37.607983243247034],[127.053756521503,37.60806492491365],[127.05373280173141,37.60809048726061],[127.05369040959984,37.60813647411126],[127.05366982388756,37.60815776440498],[127.05361739383741,37.608214702595575],[127.05355358925588,37.60828228637537],[127.05356917033679,37.6082950193909],[127.0534969791552,37.608370544489006],[127.05343182507256,37.60843589436018],[127.05342294247332,37.6084307266301],[127.05340018379242,37.6084543784042],[127.05333097979675,37.608526496373756],[127.0532716338627,37.60858976233661],[127.0532745131696,37.60859363529656],[127.0532038592627,37.60868208862878],[127.05308312336207,37.60862103684157],[127.05296441438144,37.60855925425125],[127.05295605263863,37.608553906062696],[127.05301799229869,37.608490639126366],[127.05306164388404,37.60844716570962],[127.05316564035991,37.60834388572903],[127.05318201674686,37.60832761583633],[127.05320338394966,37.60830612706998],[127.05329918716404,37.608212364927276],[127.05332393823683,37.608187550030365],[127.05326804813319,37.60815470672392],[127.0531722994443,37.608097977787466],[127.0530681221086,37.60803713496633],[127.05304954135616,37.60802638535434],[127.0529504282742,37.607967999898406],[127.05287015597003,37.60791956201487],[127.05284564944375,37.607904796568455],[127.05275361824643,37.60785126415953],[127.05263242486684,37.607781175250174],[127.05270907259074,37.607713604412496],[127.05279030552309,37.607644085411174],[127.05286970513788,37.60757675653739],[127.05292928508531,37.6075250772943],[127.05301514474706,37.60744854647951],[127.05308640346661,37.60738450058457],[127.05316453455806,37.60731779374153],[127.05324126282788,37.60725343902433],[127.05328420367121,37.607215146475404],[127.05331998180431,37.60718565965055],[127.05338463142952,37.60712918472385],[127.05341252052166,37.60710633256606],[127.05342731361748,37.60709372131988],[127.05350638617992,37.60703003212378],[127.05358454113498,37.606966136052925],[127.05361091389474,37.60694521261857],[127.05368005946139,37.606889213064],[127.05367304032437,37.60687640419837],[127.05377243545706,37.60683737473388],[127.05388910868011,37.606792949646334],[127.05388628542332,37.60678820272255],[127.05398187744582,37.6067363537909],[127.05399097529133,37.60674185474819],[127.05404801152311,37.60671460169351],[127.05414522719276,37.60666896868403],[127.05419814227412,37.60664350133889],[127.05423587493111,37.606624302578936],[127.05433784522305,37.60657635176193],[127.05441741509324,37.6066730636036],[127.05439007445749,37.60668611306764],[127.05441012914117,37.60671543105509],[127.05444973394776,37.60670123183965],[127.05445319001976,37.60670397828558],[127.05446991564365,37.6067179720475],[127.05456207138509,37.60680359606046]]]},"properties":{"OBJECTID":84265,"PRESENT_SN":"11000UQ181PS201912150629","LCLAS_CL":"UQ1200","MLSFC_CL":"UQ1220","SCLAS_CL":"UQ1221","ATRB_SE":"UQ1221","WTNNC_SN":"11000AGZ200811257593","NTFC_SN":"11000NTC200708271378","DGM_NM":"석관3구역주택재개발사업","SIGNGU_SE":"11000","DRAWING_NO":" ","CREATE_DAT":1576368000000,"DGM_AR":15223.89505656,"DGM_LT":698.22394882,"SHAPE.AREA":15223.8950565,"SHAPE.LEN":698.2239488214061}},{"type":"Feature","id":85278,"geometry":{"type":"Polygon","coordinates":[[[127.05456207138509,37.60680359606046],[127.05451298167267,37.60684150441537],[127.05444855258979,37.60691998184987],[127.05444124312945,37.60692917514638],[127.05443512247051,37.60693790840847],[127.05435256747306,37.60704039608076],[127.05435768310672,37.607067765630305],[127.05436452670526,37.6071043965029],[127.05438217412225,37.60715660051866],[127.05443871209897,37.60720910244408],[127.05446713928463,37.60725877886226],[127.05449036301388,37.60730101549585],[127.05452000279978,37.607335780101344],[127.05438434927323,37.607381682912504],[127.05436082163763,37.60739007258252],[127.05433395392527,37.60739964402917],[127.05424959332896,37.60743192790041],[127.05415342165671,37.60746576666828],[127.0541315574472,37.60747229051761],[127.05410835715547,37.60747922040023],[127.0540163506985,37.60750977762518],[127.054012721816,37.607502886725825],[127.05400821701352,37.60750658275609],[127.0539990039222,37.60751449747623],[127.05398625715776,37.60748983425222],[127.0539343531909,37.60752078803109],[127.05384239685617,37.60757457241748],[127.05389185567195,37.60759350714515],[127.05382827828971,37.607660973851914],[127.05376240160349,37.60772818025666],[127.05374506333352,37.607745162432984],[127.05369984183227,37.60779361022275],[127.05371232904454,37.60785207843943],[127.0537843619597,37.607891293342945],[127.05387590384144,37.60794037431319],[127.053834800772,37.607983243247034],[127.053756521503,37.60806492491365],[127.05373280173141,37.60809048726061],[127.05369040959984,37.60813647411126],[127.05366982388756,37.60815776440498],[127.05361739383741,37.608214702595575],[127.05355358925588,37.60828228637537],[127.05356917033679,37.6082950193909],[127.0534969791552,37.608370544489006],[127.05343182507256,37.60843589436018],[127.05342294247332,37.6084307266301],[127.05340018379242,37.6084543784042],[127.05333097979675,37.608526496373756],[127.0532716338627,37.60858976233661],[127.0532745131696,37.60859363529656],[127.0532038592627,37.60868208862878],[127.05308312336207,37.60862103684157],[127.05296441438144,37.60855925425125],[127.05295605263863,37.608553906062696],[127.05301799229869,37.608490639126366],[127.05306164388404,37.60844716570962],[127.05316564035991,37.60834388572903],[127.05318201674686,37.60832761583633],[127.05320338394966,37.60830612706998],[127.05329918716404,37.608212364927276],[127.05332393823683,37.608187550030365],[127.05326804813319,37.60815470672392],[127.0531722994443,37.608097977787466],[127.0530681221086,37.60803713496633],[127.05304954135616,37.60802638535434],[127.0529504282742,37.607967999898406],[127.05287015597003,37.60791956201487],[127.05284564944375,37.607904796568455],[127.05275361824643,37.60785126415953],[127.05263242486684,37.607781175250174],[127.05270907259074,37.607713604412496],[127.05279030552309,37.607644085411174],[127.05286970513788,37.60757675653739],[127.05292928508531,37.6075250772943],[127.05301514474706,37.60744854647951],[127.05308640346661,37.60738450058457],[127.05316453455806,37.60731779374153],[127.05324126282788,37.60725343902433],[127.05328420367121,37.607215146475404],[127.05331998180431,37.60718565965055],[127.05338463142952,37.60712918472385],[127.05341252052166,37.60710633256606],[127.05342731361748,37.60709372131988],[127.05350638617992,37.60703003212378],[127.05358454113498,37.606966136052925],[127.05361091389474,37.60694521261857],[127.05368005946139,37.606889213064],[127.05367304032437,37.60687640419837],[127.05377243545706,37.60683737473388],[127.05388910868011,37.606792949646334],[127.05388628542332,37.60678820272255],[127.05398187744582,37.6067363537909],[127.05399097529133,37.60674185474819],[127.05404801152311,37.60671460169351],[127.05414522719276,37.60666896868403],[127.05419814227412,37.60664350133889],[127.05423587493111,37.606624302578936],[127.05433784522305,37.60657635176193],[127.05441741509324,37.6066730636036],[127.05439007445749,37.60668611306764],[127.05441012914117,37.60671543105509],[127.05444973394776,37.60670123183965],[127.05445319001976,37.60670397828558],[127.05446991564365,37.6067179720475],[127.05456207138509,37.60680359606046]]]},"properties":{"OBJECTID":85278,"PRESENT_SN":"11000UQ181PS201912150629","LCLAS_CL":"UQ1200","MLSFC_CL":"UQ1220","SCLAS_CL":"UQ1221","ATRB_SE":"UQ1221","WTNNC_SN":"11000AGZ200811257593","NTFC_SN":"11000NTC200708271378","DGM_NM":"석관3구역주택재개발사업","SIGNGU_SE":"11000","DRAWING_NO":" ","CREATE_DAT":1576368000000,"DGM_AR":15223.89505656,"DGM_LT":698.22394882,"SHAPE.AREA":15223.8950565,"SHAPE.LEN":698.2239488214061}}]}