{"type":"FeatureCollection","features":[{"type":"Feature","id":84941,"geometry":{"type":"Polygon","coordinates":[[[127.04728734651033,37.57590964313012],[127.04726688065067,37.575967305222015],[127.04726309491002,37.575978055464056],[127.04723731787041,37.576051135495675],[127.0472344813626,37.5760591553784],[127.04722771219747,37.576078349022566],[127.04715478551681,37.57611398424136],[127.04707390128036,37.576150829808334],[127.0470426434174,37.576165636071984],[127.04700135830736,37.57618475290858],[127.0469699645658,37.57619955019542],[127.0468737800445,37.57624474465362],[127.04681637940986,37.57627178729088],[127.04678673979248,37.57628581801679],[127.04671273642829,37.576320074864135],[127.04663646977987,37.576355765099144],[127.04662091995226,37.576363078044956],[127.04657262955112,37.57638594551283],[127.04642071909893,37.576458262541145],[127.04626376069707,37.57653268058606],[127.0461082281542,37.57660675550786],[127.04609148829812,37.57661192448423],[127.04606957497039,37.576617050361286],[127.04602085142372,37.57661646507648],[127.04600582841856,37.57661516430739],[127.04599396075248,37.57660870870259],[127.04597245627077,37.57659700397186],[127.04592619022995,37.57655990072243],[127.04590716011849,37.57654005913693],[127.04588963467725,37.57651860421619],[127.04586646758169,37.576490249852164],[127.04584931502733,37.576467596472526],[127.04578785407485,37.57638708932124],[127.0457121685179,37.576276737764054],[127.04565629336902,37.576203940899106],[127.04560871086855,37.57614136711251],[127.04555220109016,37.5760670567754],[127.04554123449577,37.576052645073084],[127.04549944126258,37.57599751123468],[127.0454686033593,37.57595683414486],[127.04544531067138,37.575926092126565],[127.04541591163046,37.575887324579604],[127.04540562480553,37.57587375953929],[127.04537811775839,37.575837478003486],[127.04535874315363,37.57580874371289],[127.04536817726378,37.57577743090927],[127.04537264009755,37.575762608014564],[127.04542556975035,37.57573433518947],[127.04549488375994,37.57569731306012],[127.04551413355468,37.575687034635585],[127.04556736751988,37.57565859765352],[127.04573656389793,37.57556821945945],[127.04575102665997,37.57556050159224],[127.04585669070102,37.575504051155036],[127.04586945593148,37.57549723489786],[127.04596458397883,37.575446428500314],[127.04609961442551,37.57537429861957],[127.0461151069225,37.575366021706664],[127.0462376548376,37.5753005636864],[127.04638306209232,37.57522289748778],[127.04646767632134,37.5751776988176],[127.04655293549435,37.57513215746533],[127.0466363273265,37.57508760785066],[127.04669778580397,37.57516427637386],[127.04675169979616,37.5752321270908],[127.04676309633425,37.57524597990587],[127.04682591511177,37.575325305750894],[127.04688894807994,37.57540293762334],[127.04703298334692,37.57558279128512],[127.04706372305404,37.57562837838612],[127.04713732652532,37.575719376691325],[127.04719879889173,37.57579855869366],[127.04727696944192,37.575897159472404],[127.04728734651033,37.57590964313012]]]},"properties":{"OBJECTID":84941,"PRESENT_SN":"11000UQ181PS201912150115","LCLAS_CL":"UQ1200","MLSFC_CL":"UQ1220","SCLAS_CL":"UQ1221","ATRB_SE":"UQ1221","WTNNC_SN":"11000AGZ200907167746","NTFC_SN":"11000NTC200906253498","DGM_NM":"청량리재정비촉진지구전농12구역주택","SIGNGU_SE":"11000","DRAWING_NO":" ","CREATE_DAT":1576368000000,"DGM_AR":16237.05896519,"DGM_LT":497.93293337,"SHAPE.AREA":16237.0589652,"SHAPE.LEN":497.93293337414804}}]}