{"type":"FeatureCollection","features":[{"type":"Feature","id":84158,"geometry":{"type":"Polygon","coordinates":[[[127.075273172223,37.53230763975807],[127.07511141561291,37.53233810414759],[127.07499105958244,37.53236079402229],[127.07485973108348,37.532385472774514],[127.07475012102722,37.53240617354403],[127.07463141139681,37.53242354616891],[127.07461881004328,37.532448961988784],[127.07453105997917,37.53249487684322],[127.07442657393096,37.532549541602634],[127.07440597405976,37.53259864044799],[127.07439904186914,37.532600726922134],[127.07436844589573,37.53260993503215],[127.07420232879994,37.53265995242555],[127.07407537974932,37.53269816053273],[127.07382938734061,37.53277221990384],[127.07378775253297,37.532783976324254],[127.07372815735594,37.532801942548105],[127.0735031906332,37.53286971746652],[127.07349459913674,37.53287230675226],[127.07342767999636,37.532949978921074],[127.07297066107941,37.533480435108594],[127.07286813530878,37.533251060907574],[127.07282667211312,37.53315830163959],[127.07276912426254,37.53304548693478],[127.07276240048643,37.53303007499189],[127.07269820196936,37.53288330581514],[127.07268836020931,37.53286083195732],[127.07260337866575,37.53266652981596],[127.07259623545846,37.53265018108173],[127.07254817207323,37.53254029778992],[127.07253407095028,37.532512051110494],[127.07247826542948,37.532386314954934],[127.07251059078033,37.53234062416182],[127.07284981034964,37.53224497751444],[127.07291841828922,37.53222276260375],[127.07296105830513,37.53218566993935],[127.07294542575536,37.532153243623185],[127.07286490597417,37.53205819241149],[127.07276828025245,37.531944139893966],[127.07282787362233,37.53188909826268],[127.07288708258338,37.53183441723056],[127.0728843870636,37.53183140954044],[127.0727714699171,37.53170543770727],[127.07266543912777,37.53158713808179],[127.07247591241365,37.53144309310111],[127.0723913358199,37.531495131224595],[127.07238759908755,37.53149170969063],[127.07209057599425,37.53168884477952],[127.07199794404478,37.53154904784599],[127.07185479342743,37.531441401361064],[127.07173447342268,37.53135721201748],[127.07163142953212,37.53128510363202],[127.07161428964531,37.53127322969771],[127.07147557448978,37.53117712184584],[127.07136881851038,37.531103150370384],[127.07129088564218,37.531049145816425],[127.07128251877616,37.53100610127354],[127.07132620072242,37.53097004471909],[127.07149501566404,37.53083068720794],[127.07150235247008,37.530824619172],[127.07151267375245,37.53081609866358],[127.07195830468942,37.530867127303715],[127.07205223807554,37.53086412499312],[127.07207231686819,37.530840821407935],[127.07207463699645,37.530838126951245],[127.07213452590929,37.53084495673163],[127.07253418702753,37.53083258971774],[127.07283569572124,37.530836102113184],[127.07309353375354,37.53083909961626],[127.07319479086796,37.530840236530125],[127.0732151554298,37.530840467437756],[127.0733446967445,37.53084201051671],[127.07344199410959,37.53084312259689],[127.07358430471086,37.53082907044245],[127.07370658087746,37.530805209530584],[127.07384016829826,37.53077908908152],[127.07396414097825,37.53075486646645],[127.0741001036173,37.53072829376932],[127.07414832192418,37.53075178006683],[127.07418680047724,37.530881409413446],[127.07424353082288,37.53107229508684],[127.07433742369383,37.531388215755456],[127.07439894520266,37.53159558656856],[127.07442947884748,37.53169828100742],[127.07445889498504,37.531815121727824],[127.0745675139988,37.53217112729427],[127.07457829621622,37.532206169277444],[127.07460479418745,37.532293219501234],[127.07481921094377,37.5322526013713],[127.07495042590939,37.53222774253551],[127.0749425940908,37.532201888887414],[127.07506294988075,37.53217919906173],[127.07522595041007,37.53214846366349],[127.075273172223,37.53230763975807]]]},"properties":{"OBJECTID":84158,"PRESENT_SN":"11000UQ181PS201912151398","LCLAS_CL":"UQ1200","MLSFC_CL":"UQ1240","SCLAS_CL":" ","ATRB_SE":"UQ1240","WTNNC_SN":"11000AGZ201810300016","NTFC_SN":"11000NTC201808300002","DGM_NM":"자양7 주택재건축 정비사업","SIGNGU_SE":"11000","DRAWING_NO":" ","CREATE_DAT":1576368000000,"DGM_AR":44458.41294029,"DGM_LT":1209.39102672,"SHAPE.AREA":44458.41294015,"SHAPE.LEN":1209.3910267266701}}]}