{"type":"FeatureCollection","features":[{"type":"Feature","id":84420,"geometry":{"type":"Polygon","coordinates":[[[127.0251887702171,37.6128917869748],[127.02518125456731,37.61290686190036],[127.02509564863324,37.61296454184041],[127.02502510272129,37.6130114970411],[127.02494289312219,37.61306530197299],[127.02491084901357,37.61309206747466],[127.02490122472977,37.61310098909716],[127.02483781756321,37.6131595654297],[127.02477293929293,37.61322255682599],[127.02474881619128,37.61322661599243],[127.02469492090633,37.61327960429019],[127.02462800409181,37.61334376728153],[127.02461158586202,37.61335827629427],[127.02458461860687,37.61335821849889],[127.02458948380101,37.613305393013235],[127.02459253224713,37.613274398659705],[127.0246017934199,37.6131897947015],[127.02461468108442,37.61311230778442],[127.02461512830038,37.613093477186595],[127.02462744074396,37.61298724907371],[127.0246292472655,37.61296904889624],[127.02463806145693,37.61290426660881],[127.02464687669327,37.61284290804909],[127.0246515215227,37.61281020151411],[127.0246570239196,37.61276716956373],[127.0246625263102,37.61272413761277],[127.02466428966306,37.61271287499931],[127.02467109371777,37.612667238955986],[127.02467041386727,37.61266628404904],[127.02467116896898,37.6126542377793],[127.02467874223939,37.6126055832964],[127.02468778870417,37.612559631467725],[127.02469287607431,37.61252971788513],[127.02470169292742,37.612473855303946],[127.02471751940962,37.61237807786518],[127.02472204340145,37.612357624696585],[127.02472825733832,37.61230842988636],[127.02473322937244,37.61227193915863],[127.02473944517155,37.61222878092271],[127.02474573124402,37.61219310081878],[127.02477699261246,37.612163344253545],[127.02477822702704,37.61216301965693],[127.02486930198161,37.61213939595835],[127.02496521321187,37.61211642894525],[127.0249900850302,37.61211740607158],[127.02503930624812,37.61211481045602],[127.02506659035093,37.612115417683064],[127.02510240373,37.61211896940932],[127.02512921218438,37.61211968483469],[127.0252133189611,37.612123461111814],[127.02524252903397,37.61212587888432],[127.02530549096225,37.61213109190465],[127.02544876665424,37.61214351450662],[127.02549890719477,37.612146928059595],[127.02552543248248,37.61214753533471],[127.02559859925934,37.61215348492737],[127.02567776907605,37.61216047838456],[127.0257736223552,37.61216900002983],[127.02579907557676,37.61218153645876],[127.02586363929073,37.61220134475191],[127.02593881683565,37.61222569176079],[127.02595550388443,37.6122381759104],[127.02596110498634,37.61225692417527],[127.02596221612811,37.612260617969234],[127.0260005001799,37.61233793226457],[127.02602245359468,37.61238434627396],[127.026055441369,37.61243968671169],[127.02607974800885,37.61247812653453],[127.0260874202137,37.612492063120705],[127.02613693910452,37.61256726673293],[127.02617793947302,37.612603495647015],[127.02620446054082,37.61262509563759],[127.02623344020978,37.612649307953454],[127.02626035765995,37.61267073666183],[127.02630436871232,37.6127005589223],[127.02632159854001,37.61270993451927],[127.0263387943913,37.61271930111101],[127.0263946599908,37.61273785857644],[127.02641192289727,37.61274447715007],[127.02645094283044,37.61275088390141],[127.0264796098576,37.61275423850284],[127.02651248876421,37.61275351075965],[127.02658677553785,37.61275367520117],[127.0266727932893,37.61274589044036],[127.02671904697624,37.61274182615719],[127.02686066860932,37.612715324999975],[127.02692654466357,37.61269534508885],[127.02701248835376,37.61266997293908],[127.02705878339378,37.6126545471381],[127.02713072862558,37.6126304843535],[127.0271697663328,37.61262268238639],[127.0271780675649,37.61262077951114],[127.02734539285333,37.612610435787644],[127.02735362193005,37.612727381374604],[127.02736013937094,37.61280741412574],[127.02736090147206,37.61281684723407],[127.02732240050001,37.612837668327955],[127.02729057583994,37.61284118910886],[127.02717256452985,37.61285554042276],[127.02717677750424,37.61292068046097],[127.02718021856434,37.61304663690824],[127.02718124588813,37.613069882003906],[127.02718061038117,37.61319809178761],[127.02718189212041,37.613302515244825],[127.0271815633613,37.61333459025121],[127.02718224521276,37.61334125736467],[127.02715345475904,37.613342029455524],[127.02712142509672,37.613342892340185],[127.02712260153157,37.613338603413936],[127.02702175156381,37.61332930910206],[127.02700793371122,37.613328951694506],[127.02686601283999,37.61331132302524],[127.02671718378207,37.61329549762301],[127.0266873947856,37.61329072877821],[127.0265878359917,37.61328110946682],[127.02654694777085,37.61327706372865],[127.0263924501487,37.61324412047346],[127.02636481295251,37.61323881050491],[127.02621303390588,37.613206407031086],[127.02608209583923,37.613177152461],[127.02605581851834,37.6131740044922],[127.0260482297833,37.61317301499014],[127.02597946966895,37.61313825138081],[127.02588907327521,37.61309204973753],[127.02586675755641,37.61308115246886],[127.02567388919465,37.61298103901059],[127.02561107854838,37.612955554075846],[127.02547233531425,37.612919236726874],[127.02535669085105,37.61289871776501],[127.0252729184449,37.61288070601747],[127.0251887702171,37.6128917869748]]]},"properties":{"OBJECTID":84420,"PRESENT_SN":"11000UQ181PS201912151546","LCLAS_CL":"UQ1200","MLSFC_CL":"UQ1220","SCLAS_CL":"UQ1221","ATRB_SE":"UQ1221","WTNNC_SN":"11000AGZ201010267902","NTFC_SN":"11000NTC201009085357","DGM_NM":"미아제10-1주택재개발정비구역","SIGNGU_SE":"11000","DRAWING_NO":" ","CREATE_DAT":1576368000000,"DGM_AR":18651.81166205,"DGM_LT":755.02644708,"SHAPE.AREA":18651.811662,"SHAPE.LEN":755.02644708183}}]}