{"type":"FeatureCollection","features":[{"type":"Feature","id":84512,"geometry":{"type":"Polygon","coordinates":[[[127.15118497919684,37.49450223562824],[127.15114456777317,37.494535724683686],[127.1510701436462,37.494597400383924],[127.15083715457313,37.49481363746554],[127.15088957631794,37.49485269256739],[127.15079619944326,37.494923529982486],[127.15074543678183,37.49496016114665],[127.15069467407083,37.494996792288866],[127.15055681265517,37.495093083927934],[127.15039730843363,37.49523333627954],[127.15017917314397,37.49541642450312],[127.15011478308352,37.49536780292333],[127.15001075348788,37.49527348202515],[127.149928852335,37.49520223484619],[127.14984537672976,37.49512729549127],[127.14975626063979,37.49504884024844],[127.14974101905467,37.49502683896138],[127.14973118620759,37.495019174787615],[127.14970522752391,37.49498608663502],[127.1494767179138,37.49473388974032],[127.14937897884742,37.49465068953372],[127.14899951288002,37.49438419066419],[127.14893922269013,37.494342573087124],[127.1487858200185,37.49422598233169],[127.1487650266757,37.49420974702038],[127.14871212215849,37.49420105523515],[127.14864476937323,37.49416523432221],[127.14864550189134,37.494117840866686],[127.14853190439784,37.493992148764534],[127.1482550069488,37.49387677589799],[127.14819733490647,37.49388060467833],[127.14823872002962,37.49385186908776],[127.14816104140327,37.493787138652024],[127.14799307077134,37.49373362945887],[127.14786780771658,37.493689203261],[127.14768625493228,37.493635935703814],[127.14755940009637,37.493598492087614],[127.14759967488943,37.4935906666752],[127.1476450944138,37.4935594431494],[127.14770144328914,37.49356029426272],[127.14769646194516,37.493499257742116],[127.14768823855233,37.493391753503104],[127.14783501328792,37.49338584417162],[127.14784747131313,37.49338534220295],[127.14800344989902,37.493379061763875],[127.14812986524474,37.49337396928543],[127.14837151443335,37.493364240212244],[127.14838784282605,37.493363582007916],[127.14849385922417,37.49335931368274],[127.14853596863026,37.4933576169672],[127.14854867540052,37.49335710560511],[127.14875910029531,37.49334863274382],[127.14879843721964,37.49334704660884],[127.14897554383121,37.49333991413239],[127.14903758350407,37.493296917595345],[127.14906605516664,37.4932771825985],[127.14910794676679,37.49324815234289],[127.1492064777563,37.49317986052789],[127.14936886255612,37.493067318160705],[127.1493678110522,37.493050743796495],[127.14935987788597,37.49292587524978],[127.15055354595809,37.49287824077612],[127.15073049877047,37.49287117524041],[127.15081439587732,37.492867826557735],[127.15092983918878,37.49286321887369],[127.15104528361829,37.49285861197644],[127.1510527314163,37.49285148465737],[127.15107883256763,37.49284154062902],[127.1512142521878,37.4928233545492],[127.15121323315157,37.49283345063424],[127.15128059603579,37.49284656490116],[127.15130885842261,37.49285378391714],[127.15131881435335,37.492856328329644],[127.15133849227587,37.492861482320734],[127.15136683310412,37.492868904849146],[127.15138325607938,37.49287320611094],[127.15140187165228,37.49287808122826],[127.15141419228111,37.492881308293086],[127.15143376952359,37.49288643536604],[127.15145784736416,37.49289274153791],[127.15153889677747,37.49291294716974],[127.15159411991624,37.49292671367823],[127.15162076080091,37.49293335533674],[127.15170383351564,37.4929531203991],[127.15186582795204,37.492992071783284],[127.15205405039295,37.49303916159101],[127.15211373745825,37.49305263655169],[127.1522785317374,37.49309476432673],[127.1524246656376,37.49305913426223],[127.15213628523888,37.49340966381166],[127.15202696159997,37.493545321488796],[127.15191804345476,37.49365218532197],[127.15185497856915,37.4937195341691],[127.15165887801074,37.49392354444842],[127.15151514504839,37.49411130508075],[127.15140440683602,37.49423617990784],[127.15134119311472,37.49432007100286],[127.15122979827579,37.494505481904355],[127.1511936593994,37.494492114523794],[127.15118497919684,37.49450223562824]]]},"properties":{"OBJECTID":84512,"PRESENT_SN":"11000UQ181PS201912151545","LCLAS_CL":"UQ1200","MLSFC_CL":"UQ1230","SCLAS_CL":"UQ1231","ATRB_SE":"UQ1231","WTNNC_SN":"11000AGZ200902168727","NTFC_SN":"11000NTC200809182216","DGM_NM":"거여2재정비촉진구역 2지구","SIGNGU_SE":"11000","DRAWING_NO":" ","CREATE_DAT":1576368000000,"DGM_AR":59920.22519252,"DGM_LT":1148.67340029,"SHAPE.AREA":59920.225192605,"SHAPE.LEN":1148.67340028966}}]}