{"type":"FeatureCollection","features":[{"type":"Feature","id":86910,"geometry":{"type":"Polygon","coordinates":[[[126.99199896725874,37.50691848057344],[126.99182543791173,37.507471310513964],[126.99182511431258,37.50747234122866],[126.98910608677848,37.50658481319331],[126.9893109117918,37.50593182196878],[126.98937740342295,37.50571984204415],[126.98937717724085,37.50571976453507],[126.9884890532249,37.50542087200139],[126.98790886033237,37.50525399583784],[126.9874149568054,37.50514175465865],[126.9867941167572,37.504999987977605],[126.9864326485423,37.50491655501335],[126.98611973320234,37.50484432668514],[126.98590574045873,37.50480275628607],[126.98571251603032,37.50476521934441],[126.98565274020935,37.50475509402582],[126.98558631686919,37.5047438424342],[126.98558517011838,37.504743648564975],[126.98551239440265,37.50496460488423],[126.98535997107824,37.50542737812917],[126.98535899776466,37.50543053509275],[126.98535813980482,37.50543371549803],[126.9853574017237,37.505436913939654],[126.985356788046,37.50544012681426],[126.98535648225328,37.5054421269878],[126.98535629424751,37.50544335592322],[126.9852423151288,37.50542274706812],[126.98524397829354,37.50541979562805],[126.98524529529332,37.505417251391364],[126.9852455261079,37.505416804528174],[126.98524696083312,37.505413777372794],[126.98524828473036,37.50541071776619],[126.98524948875144,37.50540762750912],[126.98525057968142,37.50540451020656],[126.9853546833458,37.505088442703965],[126.98540187872473,37.50494515173005],[126.98547442614563,37.50472488741367],[126.98545413522844,37.50472145005207],[126.98541438348734,37.50471474121519],[126.98466819846699,37.50459040033503],[126.98440562981502,37.504546644368894],[126.98410427172192,37.50449424784365],[126.98397474195158,37.5044717262545],[126.98376810005358,37.50443639428579],[126.98337062217756,37.504369290634656],[126.98213760888828,37.504162811294414],[126.98196339313724,37.504135716604715],[126.98195327588375,37.504134874298494],[126.98175524420823,37.50411838280617],[126.98163561120225,37.50410587399909],[126.9816306170703,37.50410535148063],[126.9815575578205,37.50410515896031],[126.98150069597999,37.50410512230994],[126.98111239359991,37.50411384962314],[126.98098292203217,37.504115746316174],[126.9804230194148,37.50412873016339],[126.98020149870733,37.504134609960126],[126.98026136797674,37.50406607281089],[126.98034265630714,37.503976946258234],[126.98037931099108,37.503910302386316],[126.9804117270433,37.50385896570365],[126.98041953909251,37.503836698028756],[126.98049770397883,37.50364839433528],[126.9804979802055,37.50364740689042],[126.98050842700002,37.50361006777995],[126.98055016735101,37.50342962237491],[126.98055172427327,37.50342289309553],[126.98055210232515,37.5034217543009],[126.98058476645531,37.503323230531365],[126.9805942210416,37.5032747657092],[126.98060215404726,37.50324416831268],[126.98060293862945,37.50324114380049],[126.98063017587499,37.50314447150693],[126.98065598649019,37.50309414630448],[126.98069617430703,37.50303273234193],[126.9807073322736,37.503015768510345],[126.98073629244179,37.5029776703907],[126.98080898756207,37.50290824321722],[126.98137075018218,37.50266465634533],[126.9813786890636,37.502661292470094],[126.98159695203667,37.50256881045912],[126.98226353061082,37.502275167572364],[126.98230063693579,37.50225882139389],[126.98271287553371,37.50204326979733],[126.98363707482636,37.50152292448644],[126.98387637521171,37.50136979972128],[126.98455577552376,37.50093652791124],[126.98468403082926,37.50083662550862],[126.98502162897255,37.50058082555347],[126.98530213332045,37.50037522044727],[126.98530359191425,37.50037641266873],[126.98531650442986,37.50038696243169],[126.98534743036218,37.50036349565249],[126.98553780562274,37.500518889766774],[126.98580358830972,37.50073583183081],[126.98589976384214,37.50081458285342],[126.9862501934033,37.501103182468476],[126.98640771345482,37.50123291047268],[126.98654623807106,37.50134627372498],[126.98659634209959,37.50139018572222],[126.98664829384444,37.501401121384156],[126.98675741065306,37.50142408349905],[126.9867499284874,37.50144743644596],[126.98665876636002,37.50173062686638],[126.98662435640084,37.50182574995293],[126.98649415339511,37.502224965876174],[126.98726887242437,37.50237982634299],[126.98740148047035,37.50198038461379],[126.98752503767685,37.50160452977769],[126.9875095604454,37.501578065617565],[126.98760203155919,37.50159673622409],[126.98852531758686,37.50178592490463],[126.98859543436589,37.50179839340316],[126.9895090809669,37.50198731204509],[126.9895757441493,37.502000581498926],[126.99059526927145,37.5022111173407],[126.9906704190119,37.50222619256144],[126.99068105840479,37.50222832529998],[126.99070554439015,37.50223323798459],[126.99072526732944,37.50223544723392],[126.99072465656832,37.50225160748562],[126.99068131888662,37.50238229694046],[126.99042214275741,37.503163663685314],[126.99086691755417,37.50325372335356],[126.99090305897926,37.503261006671934],[126.99090312912764,37.50326079224066],[126.99138544895297,37.503358185646015],[126.99146453325714,37.503374356309976],[126.99250026371483,37.503586165469535],[126.99251960451937,37.50359075302493],[126.99257539022459,37.50360217290746],[126.9925688177899,37.503616128872],[126.99255284718242,37.50382912363198],[126.99252625735497,37.50392498781569],[126.99227818279026,37.504396190691395],[126.99210092287188,37.50471098541715],[126.99178794146044,37.50506018688381],[126.99178011074704,37.50527732674725],[126.991745367054,37.50544526989303],[126.99176422952259,37.5056352919096],[126.99183422972074,37.50568926744091],[126.99184473699381,37.505772790804606],[126.99193113589234,37.50583163300714],[126.99196833525691,37.505916780316724],[126.9920548455551,37.50598219972057],[126.99209000381136,37.506111585819156],[126.9921437101738,37.506232774297516],[126.99217162764239,37.50636621428157],[126.99217501449573,37.50641513872854],[126.99218190084302,37.50651677182041],[126.99218325699164,37.506534161184206],[126.99224510984138,37.506622553933575],[126.9923994795184,37.50670509734041],[126.99250381007647,37.506890826202444],[126.99250472146012,37.50689244896884],[126.9920906382958,37.506723266047324],[126.9920647773325,37.506712562831076],[126.99206373800848,37.506712132972005],[126.99199896725874,37.50691848057344]],[[126.98735006241331,37.50238633230506],[126.98736659316144,37.50240406593434],[126.98765601932425,37.50246375534813],[126.9877290519911,37.50247690045035],[126.98789397970593,37.502511562970575],[126.98792297522208,37.50250680002913],[126.9879346033633,37.502494466698906],[126.98810421033018,37.50197635793185],[126.98810291442946,37.50196298696775],[126.98809954361761,37.501954147790165],[126.98808166947504,37.501935251821294],[126.98756618331868,37.50183107269301],[126.98754468213157,37.50183234956993],[126.98752916379122,37.501844096753636],[126.98751771871082,37.501857403145365],[126.98734766897147,37.502364554887066],[126.98735006241331,37.50238633230506]]]},"properties":{"OBJECTID":86910,"PRESENT_SN":"11000UQ181PS201912151392","LCLAS_CL":"UQ1200","MLSFC_CL":"UQ1240","SCLAS_CL":" ","ATRB_SE":"UQ1240","WTNNC_SN":"11000AGZ201711300456","NTFC_SN":"11000NTC201708178257","DGM_NM":"반포주공1단지(1,2,4주구) 주택재건축","SIGNGU_SE":"11000","DRAWING_NO":" ","CREATE_DAT":1576368000000,"DGM_AR":372825.52236496,"DGM_LT":3791.72348654,"SHAPE.AREA":372825.52236489,"SHAPE.LEN":3791.7234865399805}}]}