{"type":"FeatureCollection","features":[{"type":"Feature","id":87005,"geometry":{"type":"Polygon","coordinates":[[[126.9329586844509,37.46211663247412],[126.93277264756331,37.46211463230004],[126.93265102717804,37.46211286760682],[126.93262346093488,37.46211050892947],[126.93251140754029,37.46205463534481],[126.93240730470517,37.462067801260474],[126.93234559958039,37.46208138834839],[126.93233389328643,37.462077290936385],[126.93232092144797,37.462072751290115],[126.93230609649287,37.46206756183406],[126.93214957581168,37.46201278811258],[126.93203061481769,37.46197116390667],[126.93202425321353,37.46196893468534],[126.93201911090188,37.46198048253814],[126.93200284579035,37.46201699969122],[126.93199836152317,37.46202588095703],[126.93198444769726,37.46204992057939],[126.93199034543586,37.462003792623534],[126.93199710172378,37.461897135695125],[126.93200831711691,37.46177210990639],[126.93201388383562,37.46170500636884],[126.93201897759005,37.46146499078272],[126.93199645154723,37.461268594592184],[126.93198305358797,37.46118731610196],[126.93195916560006,37.461094768878915],[126.93193665754524,37.46098904076526],[126.93192442044146,37.46096029151459],[126.93189969027306,37.460874113882454],[126.9318701759951,37.46079118605137],[126.93181065417292,37.46060898584889],[126.93177559516657,37.460545228098745],[126.93181452687928,37.460479549807545],[126.93198345293108,37.46019444529669],[126.93202656492078,37.46011808347517],[126.93204179258045,37.460090719904755],[126.93208833359215,37.46002184742415],[126.93218003454373,37.45988612885582],[126.93236013595846,37.45967506589448],[126.93246500687347,37.45929005578162],[126.93248821058049,37.45920485229894],[126.93252954316203,37.459181846748436],[126.93263948431535,37.45912065155084],[126.93264415106789,37.459117102509275],[126.93264463742783,37.45911672797469],[126.93264476637118,37.459116627137284],[126.93264480032886,37.45911657309678],[126.93269452412338,37.459076101893466],[126.9327532703554,37.459020075564545],[126.93283512802876,37.4589420240592],[126.93296384825473,37.459035307745374],[126.9330277597493,37.459189804061516],[126.93309810877271,37.45936252238348],[126.9331532467661,37.459495596660034],[126.93318472372015,37.459571506496886],[126.93318716533192,37.45957127364726],[126.93321334096692,37.45963517001682],[126.93323332002397,37.45968959323984],[126.9332734109148,37.459789240492356],[126.93332254086647,37.459904975880086],[126.93334575277352,37.45995930183645],[126.9333694865537,37.459999067852344],[126.93342709461382,37.4600891204366],[126.93347927384035,37.460170664381984],[126.93351120374157,37.460146472762645],[126.93350653277135,37.46018710538676],[126.93339726529,37.46099999190859],[126.93338230539585,37.46110631083349],[126.93336487455294,37.46113298853811],[126.9333247100467,37.46116452846074],[126.93330922403916,37.46117669119486],[126.93330685938166,37.461216586311146],[126.93331830509378,37.461231226131034],[126.93332727153954,37.46124270019144],[126.933340740415,37.461259926158355],[126.93337503850744,37.46124229525961],[126.93338368911296,37.461238119585865],[126.93338573118534,37.461229822511335],[126.9333847415894,37.46121177482],[126.93341945980562,37.461191999759556],[126.93347046218734,37.46123842185913],[126.93360868120857,37.46123223937722],[126.93368875126016,37.461257927045295],[126.93369896624077,37.46126120445478],[126.93403891326872,37.46137771061025],[126.93404315060751,37.46137916274573],[126.9340179227051,37.46141758609364],[126.93398655785187,37.461465356554186],[126.93368358753196,37.461368604378336],[126.93321549330284,37.46130892254916],[126.93304619423051,37.4614092235205],[126.933044417474,37.461424007975054],[126.9330370486549,37.46148513686081],[126.93301364197411,37.46166884711948],[126.93300106820656,37.46177314010672],[126.93298819651044,37.46188182981964],[126.93297391135852,37.4619910953522],[126.9329586844509,37.46211663247412]]]},"properties":{"OBJECTID":87005,"PRESENT_SN":"11000UQ181PS201912151567","LCLAS_CL":"UQ1200","MLSFC_CL":"UQ1220","SCLAS_CL":"UQ1221","ATRB_SE":"UQ1221","WTNNC_SN":"11000AGZ201903180086","NTFC_SN":"11000NTC201903183010","DGM_NM":"신림3재정비촉진구역","SIGNGU_SE":"11000","DRAWING_NO":" ","CREATE_DAT":1576368000000,"DGM_AR":35082.54056404,"DGM_LT":1005.13405823,"SHAPE.AREA":35082.54056397,"SHAPE.LEN":1005.13405823008}}]}