{"type":"FeatureCollection","features":[{"type":"Feature","id":86529,"geometry":{"type":"Polygon","coordinates":[[[127.0614046685661,37.53724291049469],[127.06142306647516,37.53724359492847],[127.06142810542723,37.53723445630415],[127.06173509143301,37.537151625064524],[127.06179220582402,37.53713621597956],[127.06204766488563,37.53706728550414],[127.06215931424533,37.53703715308302],[127.06252492004434,37.53694198210986],[127.06267580004143,37.536902710879154],[127.06274232528412,37.53688439526306],[127.06278873797335,37.536871631152394],[127.06296143644926,37.53682410414913],[127.06322072022891,37.53675831360898],[127.06325078746059,37.5367504412373],[127.06326280168645,37.53674839871248],[127.06340586356005,37.536710229846726],[127.06345846579632,37.53669841728149],[127.06352969768746,37.53668037806058],[127.06359839564938,37.53666297983367],[127.06365798740502,37.53664789290058],[127.06366164645077,37.53663967391906],[127.06367303275448,37.536644515269465],[127.06378235216107,37.536616905318866],[127.06404033388023,37.53655175336899],[127.06418210131223,37.53650900720262],[127.06422025704063,37.536499841871795],[127.06427360492583,37.53648704646487],[127.06439907870849,37.5364569406169],[127.06444237008358,37.53644655613915],[127.06453154112556,37.536422623269395],[127.06448911443381,37.53646558722688],[127.06458707146258,37.5365294243709],[127.06457750696435,37.53653829524956],[127.06470373397185,37.53662319142422],[127.0647897722631,37.53668104317099],[127.06485460673677,37.536724643508876],[127.06453889763763,37.53701680620136],[127.06453312117661,37.53702301712507],[127.06450305186218,37.5370552887128],[127.06446733038025,37.53709361797808],[127.06442268979848,37.53714153854804],[127.06440387944507,37.537161703777436],[127.06378961021356,37.53780736541462],[127.06368621998246,37.53789198707146],[127.06345985291425,37.538088216108854],[127.06344454376112,37.53810132457248],[127.06343452610389,37.538109907276215],[127.06341555610678,37.53812918945582],[127.06334770265423,37.538198132926844],[127.06330526308253,37.538241240612194],[127.06326616982523,37.538280985829445],[127.06323869823478,37.538308894925514],[127.0632086776804,37.538332985137345],[127.06314986055808,37.5383836696589],[127.06311397326066,37.53841460144279],[127.06302648229088,37.538489997064694],[127.0630188953399,37.53848254980607],[127.06301890168866,37.53849028032035],[127.06301219699228,37.538496257393476],[127.06294783748375,37.53854946747849],[127.0625829471947,37.538851146891155],[127.0625093649576,37.538917506985634],[127.0623929013063,37.53901371200177],[127.06236583106858,37.53896536967679],[127.06229002551983,37.53882998951244],[127.06226768050132,37.53879008703319],[127.06226353329889,37.538782673996685],[127.06223899006918,37.538738844314224],[127.06218353562394,37.5386398176764],[127.06214167859373,37.53856505677541],[127.06212055749067,37.538527343050504],[127.06210982696817,37.53850816642136],[127.06207696692104,37.53844946557982],[127.06205804411806,37.5384156970639],[127.06204136483844,37.538385891763085],[127.06199359308614,37.53830028588456],[127.06194314663882,37.538209041139176],[127.06193208742175,37.53818904475753],[127.06181890423255,37.53797465730843],[127.06179802303647,37.537967505075656],[127.06177495338203,37.53792633246712],[127.06159870245078,37.53761169645387],[127.0615773779471,37.537573631341765],[127.06140791574734,37.537271109926465],[127.0614046685661,37.53724291049469]]]},"properties":{"OBJECTID":86529,"PRESENT_SN":"11215UQ181PS202307180001","LCLAS_CL":"UQ1200","MLSFC_CL":"UQ1206","SCLAS_CL":" ","ATRB_SE":"UQ1206","WTNNC_SN":"11215AGZ202307180001","NTFC_SN":"11215NTC202307180002","DGM_NM":"자양1 주택재건축정비구역","SIGNGU_SE":"11215","DRAWING_NO":" ","CREATE_DAT":1696982400000,"DGM_AR":39589.06617447,"DGM_LT":894.98421275,"SHAPE.AREA":39589.0661745,"SHAPE.LEN":894.984212746111}},{"type":"Feature","id":85397,"geometry":{"type":"Polygon","coordinates":[[[127.0614046685661,37.53724291049469],[127.06142306647516,37.53724359492847],[127.06142810542723,37.53723445630415],[127.06173509143301,37.537151625064524],[127.06179220582402,37.53713621597956],[127.06204766488563,37.53706728550414],[127.06215931424533,37.53703715308302],[127.06252492004434,37.53694198210986],[127.06267580004143,37.536902710879154],[127.06274232528412,37.53688439526306],[127.06278873797335,37.536871631152394],[127.06296143644926,37.53682410414913],[127.06322072022891,37.53675831360898],[127.06325078746059,37.5367504412373],[127.06326280168645,37.53674839871248],[127.06340586356005,37.536710229846726],[127.06345846579632,37.53669841728149],[127.06352969768746,37.53668037806058],[127.06359839564938,37.53666297983367],[127.06365798740502,37.53664789290058],[127.06366164645077,37.53663967391906],[127.06367303275448,37.536644515269465],[127.06378235216107,37.536616905318866],[127.06404033388023,37.53655175336899],[127.06418210131223,37.53650900720262],[127.06422025704063,37.536499841871795],[127.06427360492583,37.53648704646487],[127.06439907870849,37.5364569406169],[127.06444237008358,37.53644655613915],[127.06453154112556,37.536422623269395],[127.06448911443381,37.53646558722688],[127.06458707146258,37.5365294243709],[127.06457750696435,37.53653829524956],[127.06470373397185,37.53662319142422],[127.0647897722631,37.53668104317099],[127.06485460673677,37.536724643508876],[127.06453889763763,37.53701680620136],[127.06453312117661,37.53702301712507],[127.06450305186218,37.5370552887128],[127.06446733038025,37.53709361797808],[127.06442268979848,37.53714153854804],[127.06440387944507,37.537161703777436],[127.06378961021356,37.53780736541462],[127.06368621998246,37.53789198707146],[127.06345985291425,37.538088216108854],[127.06344454376112,37.53810132457248],[127.06343452610389,37.538109907276215],[127.06341555610678,37.53812918945582],[127.06334770265423,37.538198132926844],[127.06330526308253,37.538241240612194],[127.06326616982523,37.538280985829445],[127.06323869823478,37.538308894925514],[127.0632086776804,37.538332985137345],[127.06314986055808,37.5383836696589],[127.06311397326066,37.53841460144279],[127.06302648229088,37.538489997064694],[127.0630188953399,37.53848254980607],[127.06301890168866,37.53849028032035],[127.06301219699228,37.538496257393476],[127.06294783748375,37.53854946747849],[127.0625829471947,37.538851146891155],[127.0625093649576,37.538917506985634],[127.0623929013063,37.53901371200177],[127.06236583106858,37.53896536967679],[127.06229002551983,37.53882998951244],[127.06226768050132,37.53879008703319],[127.06226353329889,37.538782673996685],[127.06223899006918,37.538738844314224],[127.06218353562394,37.5386398176764],[127.06214167859373,37.53856505677541],[127.06212055749067,37.538527343050504],[127.06210982696817,37.53850816642136],[127.06207696692104,37.53844946557982],[127.06205804411806,37.5384156970639],[127.06204136483844,37.538385891763085],[127.06199359308614,37.53830028588456],[127.06194314663882,37.538209041139176],[127.06193208742175,37.53818904475753],[127.06181890423255,37.53797465730843],[127.06179802303647,37.537967505075656],[127.06177495338203,37.53792633246712],[127.06159870245078,37.53761169645387],[127.0615773779471,37.537573631341765],[127.06140791574734,37.537271109926465],[127.0614046685661,37.53724291049469]]]},"properties":{"OBJECTID":85397,"PRESENT_SN":"11215UQ181PS202307180001","LCLAS_CL":"UQ1200","MLSFC_CL":"UQ1206","SCLAS_CL":" ","ATRB_SE":"UQ1206","WTNNC_SN":"11215AGZ202307180001","NTFC_SN":"11215NTC202307180002","DGM_NM":"자양1 주택재건축정비구역","SIGNGU_SE":"11215","DRAWING_NO":" ","CREATE_DAT":1696982400000,"DGM_AR":39589.06617447,"DGM_LT":894.98421275,"SHAPE.AREA":39589.0661745,"SHAPE.LEN":894.984212746111}}]}