{"type":"FeatureCollection","features":[{"type":"Feature","id":84831,"geometry":{"type":"Polygon","coordinates":[[[126.81520652515637,37.56673332685792],[126.81520742810068,37.56666663991153],[126.81520843958327,37.566591820824804],[126.81521021040017,37.566539791605834],[126.81511779845795,37.56651430097456],[126.81512294810787,37.566360024045785],[126.81512503883026,37.56633407891288],[126.8151233769253,37.56627877368986],[126.81512132819344,37.56621063779654],[126.8151208785474,37.566195761786375],[126.81512584079005,37.56617574968251],[126.81512142445354,37.56608568902888],[126.8151224768704,37.56605852592271],[126.81512101461665,37.56601849274747],[126.81512128319038,37.56591069904679],[126.8151214604237,37.56582139346053],[126.81511799994914,37.56569750223454],[126.81508384814975,37.565671472846574],[126.81509278241226,37.56565634135587],[126.81508777414369,37.56561761802003],[126.81508268073912,37.56561305999113],[126.81512209041337,37.56550948163392],[126.81514226042883,37.565454958687134],[126.81512124726613,37.56545265502697],[126.81511962940174,37.56537968150179],[126.81512145737805,37.56530472223345],[126.8151206855312,37.56516022064822],[126.81512095238368,37.56502585680837],[126.81511723530407,37.56490956949497],[126.8151181031229,37.56477477412416],[126.81511598862504,37.56470125020406],[126.81511899330067,37.5645946591122],[126.81511955625582,37.56454588053505],[126.81510634619391,37.56449641348233],[126.81512093582933,37.564496427506064],[126.81512070961243,37.56447365018337],[126.81512298713811,37.564399962005616],[126.81512379548766,37.56435717538166],[126.81512363509492,37.56431706316117],[126.81512323592658,37.564250128162776],[126.81512379009126,37.56423667729278],[126.81511782538213,37.564104862398835],[126.81511848805167,37.56404331698035],[126.81511653321697,37.56394660188128],[126.8151158800862,37.56385894376158],[126.81511785855909,37.5637689922766],[126.81511786184112,37.56367227125445],[126.81521438985064,37.5636706306398],[126.81530177640232,37.563667434840106],[126.81529487075116,37.56371346441936],[126.81529589751298,37.563814800122564],[126.81529623437464,37.56384771373325],[126.81535614845056,37.5638319508321],[126.81542328165719,37.56382611014337],[126.81542128669216,37.56380907833209],[126.81558178228275,37.56380933118785],[126.81577884496704,37.56385180757851],[126.81596919065773,37.56391013046745],[126.81607931770834,37.56395661424745],[126.81628389462533,37.56402730250973],[126.81628440577273,37.56404942796427],[126.81628481469265,37.56406712760706],[126.81628426657339,37.564105651176604],[126.81628092303579,37.56434064332345],[126.81627961706762,37.564552679692355],[126.81628223146026,37.564603048998805],[126.8162745435972,37.56462235411054],[126.81627606168239,37.56474064714736],[126.81627780354017,37.5647777074975],[126.81628083570199,37.56486506299525],[126.81628475513631,37.56501921008704],[126.81628459703353,37.565078494815886],[126.81628972187987,37.56514808611908],[126.81629015729844,37.56521451660835],[126.81629076261865,37.565331186423705],[126.8162898035197,37.56542140980135],[126.81629174557551,37.565487338098215],[126.81629345230527,37.56552945292774],[126.81629524474606,37.56557352303409],[126.81629660617581,37.56561338485275],[126.81629886373963,37.565734751396384],[126.81630061225042,37.565819884832834],[126.81630245421943,37.565902930826915],[126.81630348268351,37.56594927472496],[126.81630340496274,37.56599895504544],[126.81630354757873,37.56600078427348],[126.81630512760698,37.56602093282907],[126.81630461308116,37.566073315425726],[126.81630499396942,37.566116058862185],[126.81630651060817,37.566129809406924],[126.81630887965252,37.566151293561965],[126.81631009545869,37.56619511949231],[126.81631013734349,37.56619648905873],[126.81631049899799,37.56624243096902],[126.81631216095016,37.566316359584164],[126.81631262364293,37.56637041053764],[126.81631311780502,37.56642820964704],[126.81631624302118,37.56643046701752],[126.81632088000025,37.56643381695381],[126.81633094615619,37.566441482124844],[126.81633249676091,37.56649181370602],[126.81625623058497,37.56655100605179],[126.81616802377468,37.566623523224116],[126.81616562729862,37.56662225807979],[126.81605953952979,37.566551976658616],[126.81597608284713,37.56663051974346],[126.81593823599697,37.56661993673041],[126.8158282172196,37.56654653150683],[126.81574221451135,37.56663380098823],[126.81571380568673,37.56662401661229],[126.81569652101074,37.566619736750134],[126.81564637060858,37.566563571353846],[126.81556472529353,37.566646351638845],[126.81546999147311,37.566589503270514],[126.81546642441623,37.566590146360376],[126.81540321531631,37.56665556653001],[126.81537230232647,37.56663777735787],[126.81530896671246,37.56670395410618],[126.81523666671748,37.56668363091324],[126.81520652515637,37.56673332685792]]]},"properties":{"OBJECTID":84831,"PRESENT_SN":"11000UQ181PS201912151485","LCLAS_CL":"UQ1200","MLSFC_CL":"UQ1240","SCLAS_CL":" ","ATRB_SE":"UQ1240","WTNNC_SN":"11000AGZ201806200498","NTFC_SN":"11000NTC201804199283","DGM_NM":"방화6구역","SIGNGU_SE":"11000","DRAWING_NO":" ","CREATE_DAT":1576368000000,"DGM_AR":31700.39453437,"DGM_LT":898.3668665,"SHAPE.AREA":31700.394534425,"SHAPE.LEN":898.366866498937}},{"type":"Feature","id":85777,"geometry":{"type":"Polygon","coordinates":[[[126.81520652515637,37.56673332685792],[126.81520742810068,37.56666663991153],[126.81520843958327,37.566591820824804],[126.81521021040017,37.566539791605834],[126.81511779845795,37.56651430097456],[126.81512294810787,37.566360024045785],[126.81512503883026,37.56633407891288],[126.8151233769253,37.56627877368986],[126.81512132819344,37.56621063779654],[126.8151208785474,37.566195761786375],[126.81512584079005,37.56617574968251],[126.81512142445354,37.56608568902888],[126.8151224768704,37.56605852592271],[126.81512101461665,37.56601849274747],[126.81512128319038,37.56591069904679],[126.8151214604237,37.56582139346053],[126.81511799994914,37.56569750223454],[126.81508384814975,37.565671472846574],[126.81509278241226,37.56565634135587],[126.81508777414369,37.56561761802003],[126.81508268073912,37.56561305999113],[126.81512209041337,37.56550948163392],[126.81514226042883,37.565454958687134],[126.81512124726613,37.56545265502697],[126.81511962940174,37.56537968150179],[126.81512145737805,37.56530472223345],[126.8151206855312,37.56516022064822],[126.81512095238368,37.56502585680837],[126.81511723530407,37.56490956949497],[126.8151181031229,37.56477477412416],[126.81511598862504,37.56470125020406],[126.81511899330067,37.5645946591122],[126.81511955625582,37.56454588053505],[126.81510634619391,37.56449641348233],[126.81512093582933,37.564496427506064],[126.81512070961243,37.56447365018337],[126.81512298713811,37.564399962005616],[126.81512379548766,37.56435717538166],[126.81512363509492,37.56431706316117],[126.81512323592658,37.564250128162776],[126.81512379009126,37.56423667729278],[126.81511782538213,37.564104862398835],[126.81511848805167,37.56404331698035],[126.81511653321697,37.56394660188128],[126.8151158800862,37.56385894376158],[126.81511785855909,37.5637689922766],[126.81511786184112,37.56367227125445],[126.81521438985064,37.5636706306398],[126.81530177640232,37.563667434840106],[126.81529487075116,37.56371346441936],[126.81529589751298,37.563814800122564],[126.81529623437464,37.56384771373325],[126.81535614845056,37.5638319508321],[126.81542328165719,37.56382611014337],[126.81542128669216,37.56380907833209],[126.81558178228275,37.56380933118785],[126.81577884496704,37.56385180757851],[126.81596919065773,37.56391013046745],[126.81607931770834,37.56395661424745],[126.81628389462533,37.56402730250973],[126.81628440577273,37.56404942796427],[126.81628481469265,37.56406712760706],[126.81628426657339,37.564105651176604],[126.81628092303579,37.56434064332345],[126.81627961706762,37.564552679692355],[126.81628223146026,37.564603048998805],[126.8162745435972,37.56462235411054],[126.81627606168239,37.56474064714736],[126.81627780354017,37.5647777074975],[126.81628083570199,37.56486506299525],[126.81628475513631,37.56501921008704],[126.81628459703353,37.565078494815886],[126.81628972187987,37.56514808611908],[126.81629015729844,37.56521451660835],[126.81629076261865,37.565331186423705],[126.8162898035197,37.56542140980135],[126.81629174557551,37.565487338098215],[126.81629345230527,37.56552945292774],[126.81629524474606,37.56557352303409],[126.81629660617581,37.56561338485275],[126.81629886373963,37.565734751396384],[126.81630061225042,37.565819884832834],[126.81630245421943,37.565902930826915],[126.81630348268351,37.56594927472496],[126.81630340496274,37.56599895504544],[126.81630354757873,37.56600078427348],[126.81630512760698,37.56602093282907],[126.81630461308116,37.566073315425726],[126.81630499396942,37.566116058862185],[126.81630651060817,37.566129809406924],[126.81630887965252,37.566151293561965],[126.81631009545869,37.56619511949231],[126.81631013734349,37.56619648905873],[126.81631049899799,37.56624243096902],[126.81631216095016,37.566316359584164],[126.81631262364293,37.56637041053764],[126.81631311780502,37.56642820964704],[126.81631624302118,37.56643046701752],[126.81632088000025,37.56643381695381],[126.81633094615619,37.566441482124844],[126.81633249676091,37.56649181370602],[126.81625623058497,37.56655100605179],[126.81616802377468,37.566623523224116],[126.81616562729862,37.56662225807979],[126.81605953952979,37.566551976658616],[126.81597608284713,37.56663051974346],[126.81593823599697,37.56661993673041],[126.8158282172196,37.56654653150683],[126.81574221451135,37.56663380098823],[126.81571380568673,37.56662401661229],[126.81569652101074,37.566619736750134],[126.81564637060858,37.566563571353846],[126.81556472529353,37.566646351638845],[126.81546999147311,37.566589503270514],[126.81546642441623,37.566590146360376],[126.81540321531631,37.56665556653001],[126.81537230232647,37.56663777735787],[126.81530896671246,37.56670395410618],[126.81523666671748,37.56668363091324],[126.81520652515637,37.56673332685792]]]},"properties":{"OBJECTID":85777,"PRESENT_SN":"11000UQ181PS201912151485","LCLAS_CL":"UQ1200","MLSFC_CL":"UQ1240","SCLAS_CL":" ","ATRB_SE":"UQ1240","WTNNC_SN":"11000AGZ201806200498","NTFC_SN":"11000NTC201804199283","DGM_NM":"방화6구역","SIGNGU_SE":"11000","DRAWING_NO":" ","CREATE_DAT":1576368000000,"DGM_AR":31700.39453437,"DGM_LT":898.3668665,"SHAPE.AREA":31700.394534425,"SHAPE.LEN":898.366866498937}}]}