{"type":"FeatureCollection","features":[{"type":"Feature","id":86767,"geometry":{"type":"Polygon","coordinates":[[[126.94937836743983,37.58552207367951],[126.94938241234547,37.585550204233336],[126.94937015922545,37.58557064218187],[126.94929451350338,37.5856423001554],[126.94928045431487,37.58567112547008],[126.9492436434299,37.585692552629],[126.94922609568694,37.58569101318161],[126.94913897490214,37.58560934527189],[126.94913526775363,37.585605053134],[126.94911329525162,37.585579601353366],[126.94907775447399,37.585565800492056],[126.9490341944648,37.585524606095774],[126.9490304742152,37.585501899607046],[126.9488803570503,37.585327221770626],[126.94878212866118,37.585264108941324],[126.94850171158396,37.58507234370713],[126.94845309160617,37.585040388229544],[126.94844420367404,37.585034546748304],[126.94857167958924,37.58491284660362],[126.94857571067503,37.58491205554428],[126.94860441441263,37.584875506418705],[126.94880650674554,37.58469877840664],[126.94888954153099,37.58461599685601],[126.94897119477204,37.58453338581801],[126.94910553548435,37.58440692012529],[126.94925800751793,37.58425583836606],[126.94943969849766,37.58407430697264],[126.94944258561742,37.58407413705902],[126.94945138974401,37.58406370752789],[126.9494607059611,37.584049512101544],[126.94947263575635,37.584037759498095],[126.94958093822063,37.58392319280187],[126.94958226227214,37.58392401328145],[126.94971042187726,37.583777488223674],[126.9497886449961,37.583691811750754],[126.94986123878459,37.58360955650748],[126.9499203097003,37.58353433200757],[126.94999042006313,37.58363488741936],[126.95003073674219,37.58365346711998],[126.95023177274888,37.58371626144121],[126.9502700447606,37.58371187044006],[126.95027132846349,37.5837286167191],[126.95037329094563,37.58376046393511],[126.95045902561588,37.58384811110338],[126.9504789045131,37.58387717468876],[126.95054309670473,37.58412765844139],[126.9507908733704,37.58440565799766],[126.9507545047947,37.58441083924902],[126.95077010936762,37.5844392270072],[126.9507535729413,37.584449310936584],[126.95058589331309,37.5844585188611],[126.95063438528247,37.58457287485379],[126.95067805528305,37.58461929443049],[126.95077831107574,37.5846989846965],[126.9508420160192,37.584752170213754],[126.95084785742834,37.5848198367413],[126.95082754512381,37.584888393025544],[126.95080224921492,37.58495992041692],[126.95076824801362,37.58501306395385],[126.95073765227669,37.58505296445751],[126.95065121024038,37.585137169391444],[126.95059772944424,37.585199134140524],[126.95058945137664,37.58521850175878],[126.9504858729668,37.58536153353013],[126.95016291671325,37.58528318792657],[126.94996618719067,37.58522138466645],[126.94989294278352,37.58521081112606],[126.94986339403073,37.585209356622855],[126.94986105908382,37.58521813210134],[126.94985358883582,37.585246212551596],[126.94984685868472,37.585271509279906],[126.94983365376311,37.58532115591104],[126.94983399930561,37.58536340327384],[126.94983419473391,37.58538696413088],[126.949834489117,37.58542296764116],[126.94980670540068,37.58549017890346],[126.94980510748739,37.58549404343129],[126.94979717801814,37.58551323004756],[126.94979491406883,37.58551427509978],[126.94977697235528,37.58552255450166],[126.94974236302656,37.58553852371051],[126.9497378425472,37.58552662871911],[126.94966279401184,37.58550506222184],[126.94962213653622,37.585522703670534],[126.94960447871999,37.5855786362939],[126.94956497338512,37.58557073709261],[126.94954247020608,37.585564177022],[126.94954477512036,37.585554699669416],[126.94937975368752,37.58551492046693],[126.94937836743983,37.58552207367951]]]},"properties":{"OBJECTID":86767,"PRESENT_SN":"11410UQ181PS202110130001","LCLAS_CL":"UQ1200","MLSFC_CL":"UQ1206","SCLAS_CL":" ","ATRB_SE":"UQ1206","WTNNC_SN":"11410AGZ202109300001","NTFC_SN":"11410NTC202109300003","DGM_NM":"홍제3 주택재건축 정비구역","SIGNGU_SE":"11410","DRAWING_NO":" ","CREATE_DAT":1634083200000,"DGM_AR":27289.22565758,"DGM_LT":751.87012303,"SHAPE.AREA":27289.225657585,"SHAPE.LEN":751.870123027633}},{"type":"Feature","id":85473,"geometry":{"type":"Polygon","coordinates":[[[126.94937836743983,37.58552207367951],[126.94938241234547,37.585550204233336],[126.94937015922545,37.58557064218187],[126.94929451350338,37.5856423001554],[126.94928045431487,37.58567112547008],[126.9492436434299,37.585692552629],[126.94922609568694,37.58569101318161],[126.94913897490214,37.58560934527189],[126.94913526775363,37.585605053134],[126.94911329525162,37.585579601353366],[126.94907775447399,37.585565800492056],[126.9490341944648,37.585524606095774],[126.9490304742152,37.585501899607046],[126.9488803570503,37.585327221770626],[126.94878212866118,37.585264108941324],[126.94850171158396,37.58507234370713],[126.94845309160617,37.585040388229544],[126.94844420367404,37.585034546748304],[126.94857167958924,37.58491284660362],[126.94857571067503,37.58491205554428],[126.94860441441263,37.584875506418705],[126.94880650674554,37.58469877840664],[126.94888954153099,37.58461599685601],[126.94897119477204,37.58453338581801],[126.94910553548435,37.58440692012529],[126.94925800751793,37.58425583836606],[126.94943969849766,37.58407430697264],[126.94944258561742,37.58407413705902],[126.94945138974401,37.58406370752789],[126.9494607059611,37.584049512101544],[126.94947263575635,37.584037759498095],[126.94958093822063,37.58392319280187],[126.94958226227214,37.58392401328145],[126.94971042187726,37.583777488223674],[126.9497886449961,37.583691811750754],[126.94986123878459,37.58360955650748],[126.9499203097003,37.58353433200757],[126.94999042006313,37.58363488741936],[126.95003073674219,37.58365346711998],[126.95023177274888,37.58371626144121],[126.9502700447606,37.58371187044006],[126.95027132846349,37.5837286167191],[126.95037329094563,37.58376046393511],[126.95045902561588,37.58384811110338],[126.9504789045131,37.58387717468876],[126.95054309670473,37.58412765844139],[126.9507908733704,37.58440565799766],[126.9507545047947,37.58441083924902],[126.95077010936762,37.5844392270072],[126.9507535729413,37.584449310936584],[126.95058589331309,37.5844585188611],[126.95063438528247,37.58457287485379],[126.95067805528305,37.58461929443049],[126.95077831107574,37.5846989846965],[126.9508420160192,37.584752170213754],[126.95084785742834,37.5848198367413],[126.95082754512381,37.584888393025544],[126.95080224921492,37.58495992041692],[126.95076824801362,37.58501306395385],[126.95073765227669,37.58505296445751],[126.95065121024038,37.585137169391444],[126.95059772944424,37.585199134140524],[126.95058945137664,37.58521850175878],[126.9504858729668,37.58536153353013],[126.95016291671325,37.58528318792657],[126.94996618719067,37.58522138466645],[126.94989294278352,37.58521081112606],[126.94986339403073,37.585209356622855],[126.94986105908382,37.58521813210134],[126.94985358883582,37.585246212551596],[126.94984685868472,37.585271509279906],[126.94983365376311,37.58532115591104],[126.94983399930561,37.58536340327384],[126.94983419473391,37.58538696413088],[126.949834489117,37.58542296764116],[126.94980670540068,37.58549017890346],[126.94980510748739,37.58549404343129],[126.94979717801814,37.58551323004756],[126.94979491406883,37.58551427509978],[126.94977697235528,37.58552255450166],[126.94974236302656,37.58553852371051],[126.9497378425472,37.58552662871911],[126.94966279401184,37.58550506222184],[126.94962213653622,37.585522703670534],[126.94960447871999,37.5855786362939],[126.94956497338512,37.58557073709261],[126.94954247020608,37.585564177022],[126.94954477512036,37.585554699669416],[126.94937975368752,37.58551492046693],[126.94937836743983,37.58552207367951]]]},"properties":{"OBJECTID":85473,"PRESENT_SN":"11410UQ181PS202110130001","LCLAS_CL":"UQ1200","MLSFC_CL":"UQ1206","SCLAS_CL":" ","ATRB_SE":"UQ1206","WTNNC_SN":"11410AGZ202109300001","NTFC_SN":"11410NTC202109300003","DGM_NM":"홍제3 주택재건축 정비구역","SIGNGU_SE":"11410","DRAWING_NO":" ","CREATE_DAT":1634083200000,"DGM_AR":27289.22565758,"DGM_LT":751.87012303,"SHAPE.AREA":27289.225657585,"SHAPE.LEN":751.870123027633}}]}