{"type":"FeatureCollection","features":[{"type":"Feature","id":85874,"geometry":{"type":"Polygon","coordinates":[[[127.09481919154582,37.600204586597634],[127.09470137588322,37.60013509133861],[127.09335968281599,37.59934366427762],[127.09292822387408,37.5990634618545],[127.09292748833356,37.599062952467605],[127.09293122949573,37.59902851128724],[127.09293826245226,37.59896441890069],[127.0929450026755,37.59890171425402],[127.09324296709299,37.59896693050819],[127.0933324489186,37.59898612396051],[127.09361737737116,37.599048988831484],[127.09369969013763,37.59906716047771],[127.09372868740941,37.5990738321338],[127.0937698612566,37.599083287314706],[127.09378110886158,37.599085738207734],[127.0942094323873,37.59917625777844],[127.09426460599634,37.59918841375139],[127.09436945910518,37.599211045103274],[127.09449192744493,37.599238942249684],[127.09458304133679,37.599258764155394],[127.09468851862117,37.59928233175386],[127.09481536933099,37.59931006292795],[127.09485908674172,37.5993430493991],[127.09487932297101,37.599397786143506],[127.0949011064629,37.599458269932526],[127.09494096610882,37.599566563597826],[127.09498015613623,37.59967356036207],[127.09500447157694,37.59973927683624],[127.09504492370685,37.599850236901844],[127.09513637091858,37.60009923217484],[127.09524361510276,37.60039283150356],[127.09520937469262,37.60037755999543],[127.094972366213,37.60027188237856],[127.09481919154582,37.600204586597634]]]},"properties":{"OBJECTID":85874,"PRESENT_SN":"11260UQ181PS202306280001","LCLAS_CL":"UQ1200","MLSFC_CL":"UQ1220","SCLAS_CL":"UQ1222","ATRB_SE":"UQ1222","WTNNC_SN":"11260AGZ202305100001","NTFC_SN":"11260NTC202306200002","DGM_NM":"상봉10재정비촉진구역","SIGNGU_SE":"11260","DRAWING_NO":" ","CREATE_DAT":1687910400000,"DGM_AR":11990.88998791,"DGM_LT":568.54821889,"SHAPE.AREA":11990.88459073,"SHAPE.LEN":568.5482073883651}}]}