{"type":"FeatureCollection","features":[{"type":"Feature","id":84170,"geometry":{"type":"Polygon","coordinates":[[[127.0715129866403,37.49976988494695],[127.07147879502735,37.4998008815331],[127.0713794650497,37.49986893868059],[127.07113390205559,37.50003662433206],[127.07107013398424,37.5000760805805],[127.07104419736089,37.50009469245843],[127.07092636805326,37.5001902135343],[127.07087095180763,37.50023626007665],[127.07072008708336,37.50036678610738],[127.07045027039827,37.5002838537642],[127.07040083962558,37.50023512956371],[127.07026183812481,37.50019401687498],[127.07019527832843,37.50017409846853],[127.07014808710525,37.50013789673973],[127.0699226213134,37.500075399092715],[127.06982257069546,37.5000122699499],[127.06969347751148,37.499931232117596],[127.06969338359475,37.499931173606875],[127.06972315822074,37.49986724858807],[127.06981573211263,37.499665719194184],[127.06990936191265,37.49946188976111],[127.06977897824123,37.49927041284384],[127.06895034678428,37.49902864530046],[127.06916662780431,37.49863940820372],[127.06917661146088,37.498621014902476],[127.0692007119878,37.498576616093246],[127.06920079003615,37.49857663677151],[127.06939621246661,37.49863518598178],[127.06953792705282,37.498678911035725],[127.07002283794493,37.49882215995728],[127.07011844567033,37.49885131485967],[127.07035859945616,37.49891545241727],[127.071061847807,37.499128397041],[127.0712664932695,37.499191940967286],[127.07185304789364,37.499352808912434],[127.07195445662627,37.49938006677475],[127.07196560989911,37.49938306946009],[127.0719960077811,37.49944312091225],[127.07182313293481,37.499747392056875],[127.07180998324678,37.49976210417943],[127.07171399287769,37.499869767520956],[127.0717062513467,37.4998751420724],[127.07152857087256,37.49975847807971],[127.0715129866403,37.49976988494695]]]},"properties":{"OBJECTID":84170,"PRESENT_SN":"11000UQ181PS201912150603","LCLAS_CL":"UQ1200","MLSFC_CL":"UQ1240","SCLAS_CL":" ","ATRB_SE":"UQ1240","WTNNC_SN":"11000AGZ201710270373","NTFC_SN":"11000NTC201707138200","DGM_NM":"강남구 대치쌍용2차아파트 주택재건","SIGNGU_SE":"11000","DRAWING_NO":" ","CREATE_DAT":1576368000000,"DGM_AR":24463.34634255,"DGM_LT":758.26049421,"SHAPE.AREA":24463.34634255,"SHAPE.LEN":758.260494203087}}]}