{"type":"FeatureCollection","features":[{"type":"Feature","id":86618,"geometry":{"type":"Polygon","coordinates":[[[127.08320569177816,37.6152338946977],[127.08320842171872,37.61523417211218],[127.08321374671937,37.61523567306418],[127.08302838904447,37.615492490659186],[127.0830768767413,37.61550047588992],[127.08311245430247,37.61551432640216],[127.08319065159436,37.61555598772316],[127.08322250797147,37.615582814900314],[127.08328440255762,37.61562890224967],[127.08339502623622,37.61570252578084],[127.08346959670637,37.61576233518379],[127.08343253527126,37.615791913081516],[127.0834667412995,37.615823207425116],[127.08353158202897,37.61588251899407],[127.083609030889,37.61591250384497],[127.08362668779156,37.6159322410592],[127.08367248237714,37.61598342994315],[127.08369188522511,37.616004661559934],[127.0837173073901,37.61603247515009],[127.08374705354152,37.616066042988614],[127.08372506522726,37.616196412192174],[127.08371697327028,37.61639572375983],[127.08372700456744,37.61645592029888],[127.08369782591679,37.616814666048874],[127.08366975971722,37.616856716332876],[127.08363131304193,37.61687332113179],[127.08362843942078,37.616876341416045],[127.08362680906343,37.616876946207334],[127.08359284322114,37.61688949346355],[127.0835803664362,37.61689410615053],[127.0833328862296,37.616981231608165],[127.08320163787477,37.61702614630485],[127.08316772452619,37.6170350354211],[127.08310867192343,37.61704917660716],[127.08303529497151,37.617066787423944],[127.08300261689794,37.61707633335528],[127.08290513710857,37.61710449319284],[127.08288471097535,37.617110931268584],[127.08283722690365,37.61712789342109],[127.08275978125504,37.61715483201836],[127.08260980936427,37.61720806598384],[127.08249585076246,37.61724824687491],[127.08244334638248,37.61726608626432],[127.08243400540746,37.61726929114996],[127.08235234186319,37.617301854489575],[127.08234458658437,37.61730504026241],[127.08228278206217,37.61733040913651],[127.08226395359797,37.617336476609246],[127.08219263774889,37.61735526577571],[127.08216308316253,37.61736256589752],[127.08215628994041,37.61736511130439],[127.08213871866776,37.61737218699627],[127.08208019938486,37.61739710302952],[127.08200129866228,37.61743017779847],[127.08195291030123,37.61745027562321],[127.08189820844106,37.61742406733106],[127.08189156761914,37.61742089139271],[127.08184962567618,37.61740035056441],[127.08175415118532,37.617366511616936],[127.08174856752477,37.61736474048138],[127.08162589795141,37.617322477727164],[127.08150889568284,37.61728170663165],[127.08140688452123,37.61724643927371],[127.08130531513501,37.61721111746981],[127.08123088304835,37.617185183488694],[127.08120455043583,37.61717617344673],[127.08113290548023,37.61712966813594],[127.08110026625063,37.61711214805874],[127.08106442600499,37.61708705288362],[127.08100580074436,37.61704552114105],[127.08097019343235,37.617017866995354],[127.08093749012741,37.616992202051584],[127.08093115201852,37.6169870977568],[127.08088136310111,37.61694695652529],[127.0810202665325,37.61689929126058],[127.08103779375091,37.61689339604891],[127.08114960214272,37.61685470463207],[127.08125379120601,37.61681933386573],[127.08140230778473,37.61676923801742],[127.08142438654475,37.616761789980664],[127.08160262498534,37.616702348603035],[127.08175220385179,37.61665044963153],[127.08177567568195,37.61664298256221],[127.08180064122988,37.61663423507966],[127.08200073165658,37.616567786623065],[127.08207125878721,37.61654403370544],[127.0821590072056,37.61651448468397],[127.08215451246706,37.616484755394154],[127.08216060812933,37.61645515401507],[127.08216372982706,37.61643848374005],[127.08217664648966,37.616434240303896],[127.08224759301405,37.616410946493914],[127.08228876231112,37.61639822350775],[127.0823149041848,37.61635669743484],[127.08230038063937,37.61632249714135],[127.08227981919374,37.61626650625548],[127.08226429062609,37.616224603259965],[127.08224900359318,37.61618608778425],[127.08220781040092,37.616082250901385],[127.08220386940724,37.61607232478848],[127.08215885336115,37.61596294946855],[127.08208203626086,37.61576215530675],[127.0821594757908,37.61575268716933],[127.08217916831148,37.61574894365159],[127.082172898234,37.61573235187134],[127.08211682894044,37.61559244083405],[127.08207584203065,37.615488261380804],[127.08201924963345,37.615348170452094],[127.08200907664165,37.615314823080894],[127.08200457985254,37.61530408645631],[127.08197559849656,37.61523296477142],[127.08196445797276,37.61520564561708],[127.08194883146714,37.61516708527798],[127.08184254401509,37.61490234137055],[127.08183104742814,37.614870328333915],[127.081817862633,37.61483774882673],[127.08178469070064,37.61475587222831],[127.08176028595095,37.614695658249886],[127.08174502428365,37.614659133849166],[127.08174172879507,37.61465954153073],[127.08171542284151,37.614598644088844],[127.08175280443325,37.61456336329731],[127.08187522582416,37.61456017162245],[127.08189722933317,37.61460973761934],[127.08194123011015,37.61468195730386],[127.08193810036022,37.61471006103126],[127.08200034774923,37.614687656252435],[127.08212404616545,37.61470264524346],[127.08213986554952,37.61472053692864],[127.0821948929971,37.6146724500133],[127.08226798579729,37.61464543366643],[127.08246298535995,37.61454794909614],[127.08260860421171,37.61454611924894],[127.08265622899332,37.61460696579803],[127.08260016411454,37.61472154603289],[127.08246839016012,37.61490525639698],[127.08262911174197,37.61493644612314],[127.08282657561811,37.615065231598784],[127.08290151258488,37.61523369940384],[127.08311559155827,37.61522394712977],[127.08320569177816,37.6152338946977]]]},"properties":{"OBJECTID":86618,"PRESENT_SN":"11000UQ181PS201912150608","LCLAS_CL":"UQ1200","MLSFC_CL":"UQ1240","SCLAS_CL":" ","ATRB_SE":"UQ1240","WTNNC_SN":"11000AGZ201707180356","NTFC_SN":"11000NTC201706088151","DGM_NM":"묵1주택재건축정비구역","SIGNGU_SE":"11000","DRAWING_NO":" ","CREATE_DAT":1576368000000,"DGM_AR":37319.61261935,"DGM_LT":1085.55058873,"SHAPE.AREA":37319.61261935,"SHAPE.LEN":1085.5505887352401}},{"type":"Feature","id":84249,"geometry":{"type":"Polygon","coordinates":[[[127.08320569177816,37.6152338946977],[127.08320842171872,37.61523417211218],[127.08321374671937,37.61523567306418],[127.08302838904447,37.615492490659186],[127.0830768767413,37.61550047588992],[127.08311245430247,37.61551432640216],[127.08319065159436,37.61555598772316],[127.08322250797147,37.615582814900314],[127.08328440255762,37.61562890224967],[127.08339502623622,37.61570252578084],[127.08346959670637,37.61576233518379],[127.08343253527126,37.615791913081516],[127.0834667412995,37.615823207425116],[127.08353158202897,37.61588251899407],[127.083609030889,37.61591250384497],[127.08362668779156,37.6159322410592],[127.08367248237714,37.61598342994315],[127.08369188522511,37.616004661559934],[127.0837173073901,37.61603247515009],[127.08374705354152,37.616066042988614],[127.08372506522726,37.616196412192174],[127.08371697327028,37.61639572375983],[127.08372700456744,37.61645592029888],[127.08369782591679,37.616814666048874],[127.08366975971722,37.616856716332876],[127.08363131304193,37.61687332113179],[127.08362843942078,37.616876341416045],[127.08362680906343,37.616876946207334],[127.08359284322114,37.61688949346355],[127.0835803664362,37.61689410615053],[127.0833328862296,37.616981231608165],[127.08320163787477,37.61702614630485],[127.08316772452619,37.6170350354211],[127.08310867192343,37.61704917660716],[127.08303529497151,37.617066787423944],[127.08300261689794,37.61707633335528],[127.08290513710857,37.61710449319284],[127.08288471097535,37.617110931268584],[127.08283722690365,37.61712789342109],[127.08275978125504,37.61715483201836],[127.08260980936427,37.61720806598384],[127.08249585076246,37.61724824687491],[127.08244334638248,37.61726608626432],[127.08243400540746,37.61726929114996],[127.08235234186319,37.617301854489575],[127.08234458658437,37.61730504026241],[127.08228278206217,37.61733040913651],[127.08226395359797,37.617336476609246],[127.08219263774889,37.61735526577571],[127.08216308316253,37.61736256589752],[127.08215628994041,37.61736511130439],[127.08213871866776,37.61737218699627],[127.08208019938486,37.61739710302952],[127.08200129866228,37.61743017779847],[127.08195291030123,37.61745027562321],[127.08189820844106,37.61742406733106],[127.08189156761914,37.61742089139271],[127.08184962567618,37.61740035056441],[127.08175415118532,37.617366511616936],[127.08174856752477,37.61736474048138],[127.08162589795141,37.617322477727164],[127.08150889568284,37.61728170663165],[127.08140688452123,37.61724643927371],[127.08130531513501,37.61721111746981],[127.08123088304835,37.617185183488694],[127.08120455043583,37.61717617344673],[127.08113290548023,37.61712966813594],[127.08110026625063,37.61711214805874],[127.08106442600499,37.61708705288362],[127.08100580074436,37.61704552114105],[127.08097019343235,37.617017866995354],[127.08093749012741,37.616992202051584],[127.08093115201852,37.6169870977568],[127.08088136310111,37.61694695652529],[127.0810202665325,37.61689929126058],[127.08103779375091,37.61689339604891],[127.08114960214272,37.61685470463207],[127.08125379120601,37.61681933386573],[127.08140230778473,37.61676923801742],[127.08142438654475,37.616761789980664],[127.08160262498534,37.616702348603035],[127.08175220385179,37.61665044963153],[127.08177567568195,37.61664298256221],[127.08180064122988,37.61663423507966],[127.08200073165658,37.616567786623065],[127.08207125878721,37.61654403370544],[127.0821590072056,37.61651448468397],[127.08215451246706,37.616484755394154],[127.08216060812933,37.61645515401507],[127.08216372982706,37.61643848374005],[127.08217664648966,37.616434240303896],[127.08224759301405,37.616410946493914],[127.08228876231112,37.61639822350775],[127.0823149041848,37.61635669743484],[127.08230038063937,37.61632249714135],[127.08227981919374,37.61626650625548],[127.08226429062609,37.616224603259965],[127.08224900359318,37.61618608778425],[127.08220781040092,37.616082250901385],[127.08220386940724,37.61607232478848],[127.08215885336115,37.61596294946855],[127.08208203626086,37.61576215530675],[127.0821594757908,37.61575268716933],[127.08217916831148,37.61574894365159],[127.082172898234,37.61573235187134],[127.08211682894044,37.61559244083405],[127.08207584203065,37.615488261380804],[127.08201924963345,37.615348170452094],[127.08200907664165,37.615314823080894],[127.08200457985254,37.61530408645631],[127.08197559849656,37.61523296477142],[127.08196445797276,37.61520564561708],[127.08194883146714,37.61516708527798],[127.08184254401509,37.61490234137055],[127.08183104742814,37.614870328333915],[127.081817862633,37.61483774882673],[127.08178469070064,37.61475587222831],[127.08176028595095,37.614695658249886],[127.08174502428365,37.614659133849166],[127.08174172879507,37.61465954153073],[127.08171542284151,37.614598644088844],[127.08175280443325,37.61456336329731],[127.08187522582416,37.61456017162245],[127.08189722933317,37.61460973761934],[127.08194123011015,37.61468195730386],[127.08193810036022,37.61471006103126],[127.08200034774923,37.614687656252435],[127.08212404616545,37.61470264524346],[127.08213986554952,37.61472053692864],[127.0821948929971,37.6146724500133],[127.08226798579729,37.61464543366643],[127.08246298535995,37.61454794909614],[127.08260860421171,37.61454611924894],[127.08265622899332,37.61460696579803],[127.08260016411454,37.61472154603289],[127.08246839016012,37.61490525639698],[127.08262911174197,37.61493644612314],[127.08282657561811,37.615065231598784],[127.08290151258488,37.61523369940384],[127.08311559155827,37.61522394712977],[127.08320569177816,37.6152338946977]]]},"properties":{"OBJECTID":84249,"PRESENT_SN":"11000UQ181PS201912150608","LCLAS_CL":"UQ1200","MLSFC_CL":"UQ1240","SCLAS_CL":" ","ATRB_SE":"UQ1240","WTNNC_SN":"11000AGZ201707180356","NTFC_SN":"11000NTC201706088151","DGM_NM":"묵1주택재건축정비구역","SIGNGU_SE":"11000","DRAWING_NO":" ","CREATE_DAT":1576368000000,"DGM_AR":37319.61261935,"DGM_LT":1085.55058873,"SHAPE.AREA":37319.61261935,"SHAPE.LEN":1085.5505887352401}}]}