{"type":"FeatureCollection","features":[{"type":"Feature","id":85856,"geometry":{"type":"Polygon","coordinates":[[[126.99881864711244,37.5093465123981],[126.9987235906556,37.50953772704566],[126.99865402464941,37.50967766107038],[126.9978847960679,37.50933956411448],[126.99536103229511,37.50823024525698],[126.99498151662598,37.50877913594436],[126.99479049379356,37.508683104125645],[126.9951639111754,37.508143596703256],[126.99525899654196,37.5080052698276],[126.99533203334852,37.507899019034504],[126.9953782970117,37.50783171693058],[126.99586456905092,37.50712977396036],[126.99611635463538,37.50676614307073],[126.99626890654753,37.5065459280793],[126.99626892464504,37.50654590285215],[126.99631068708793,37.50648561173201],[126.99635127312335,37.50642701802484],[126.9963636246938,37.50640918781834],[126.99691544660367,37.50561253029402],[126.9970061697234,37.50548152869705],[126.99711044266849,37.50533097587837],[126.99747726656395,37.504801301287486],[126.99752563010765,37.50473145756416],[126.99767144406165,37.50452090816618],[126.99775603206263,37.504398845471975],[126.99781038051347,37.50432036845388],[126.99789819376076,37.504193573712755],[126.99791633546134,37.50416737324175],[126.99795140571318,37.50417797905319],[126.99800207155705,37.50419330654929],[126.99805839209564,37.50421033707571],[126.99849910684743,37.50434362479395],[126.99855173622592,37.50435954225778],[126.99868898030549,37.50440105009932],[126.99877167470393,37.50442605474644],[126.99882409836655,37.50444191442007],[126.9988716612618,37.5044563035328],[126.9988794647637,37.50445864630224],[126.99926871308035,37.50457636974735],[127.00054453961158,37.50496218547978],[127.00057383141316,37.50497102450754],[127.0008586068926,37.50505716184479],[127.00090395785243,37.50513906280483],[127.00077634858066,37.50539655827867],[126.99945052878839,37.508071649828075],[126.99881864711244,37.5093465123981]]]},"properties":{"OBJECTID":85856,"PRESENT_SN":"11000UQ181PS201912151576","LCLAS_CL":"UQ1200","MLSFC_CL":"UQ1240","SCLAS_CL":" ","ATRB_SE":"UQ1240","WTNNC_SN":"11000AGZ201903080921","NTFC_SN":"11000NTC201810250031","DGM_NM":"신반포3차· 경남아파트 주택재건축","SIGNGU_SE":"11000","DRAWING_NO":" ","CREATE_DAT":1576368000000,"DGM_AR":168467.71434568,"DGM_LT":1824.19459857,"SHAPE.AREA":168467.71434537,"SHAPE.LEN":1824.1945985740101}}]}