{"type":"FeatureCollection","features":[{"type":"Feature","id":85165,"geometry":{"type":"Polygon","coordinates":[[[126.94960113648452,37.55445194682135],[126.94960577574075,37.554453030049345],[126.94955016710878,37.554513101640225],[126.94952978099994,37.554535166928055],[126.94948583832743,37.55458163867053],[126.94948560233892,37.554595513816516],[126.94944363562485,37.55472974286318],[126.94943690904937,37.55480082802577],[126.94943588248117,37.55481236024786],[126.94942757385816,37.554871911135365],[126.94941677459427,37.55494894193469],[126.94941586445422,37.55495578905864],[126.9493763169569,37.55502839141175],[126.94932863401426,37.555082339658526],[126.94926793610672,37.55513646232519],[126.9492576990048,37.55514556680549],[126.9491809911548,37.5551777792691],[126.94916061515612,37.55518497815736],[126.9491034465167,37.55520891913293],[126.94904808935175,37.555231779697536],[126.94903156161833,37.55523834958029],[126.94896601531411,37.555266341220616],[126.94889299719125,37.555297753257236],[126.94888439693084,37.55529657813682],[126.94882148031647,37.5552864589856],[126.94880881480863,37.555272578084264],[126.94876573014321,37.5552244459698],[126.9486931309867,37.555143234300026],[126.94865817764632,37.555103430931936],[126.94856774424588,37.55497226030219],[126.94852997444407,37.55493052751299],[126.94847797832966,37.554873795844934],[126.94843706451881,37.55482916042453],[126.94838252590472,37.5547512543002],[126.94834339166893,37.554718801035236],[126.9482686232724,37.55466560891747],[126.94824769839974,37.55464902125891],[126.94817621004785,37.554598713730556],[126.94809555866918,37.55454317626981],[126.94803750895507,37.5545333291987],[126.94794043016508,37.55450265152145],[126.947792211204,37.55445384060257],[126.94771775894807,37.55443407501697],[126.94763708707133,37.55440772931746],[126.947519289778,37.554388934909404],[126.94750754398366,37.55438708250736],[126.94748885031069,37.554384109697345],[126.9473824820079,37.554367158401824],[126.94719371980317,37.55435797170901],[126.94713657054585,37.554355242432266],[126.94699372537178,37.554341121111015],[126.94686565073802,37.55434016091243],[126.94684245146696,37.55433915908333],[126.94671400330938,37.554338288646335],[126.94663682062463,37.55433861319506],[126.94645518548813,37.55433330289213],[126.9464184053434,37.554332835240174],[126.94632662517158,37.55433108049602],[126.9462992377309,37.55433124788994],[126.94619816577745,37.554330128403535],[126.94605343292235,37.554328519815506],[126.94605478599762,37.55422833033054],[126.94605498960456,37.554213193789124],[126.9460554917612,37.55414643064321],[126.94605469796676,37.55405696193164],[126.94605674250835,37.55398578465574],[126.94606519144935,37.55347302599051],[126.94606574843806,37.55343915802224],[126.94606476923218,37.55338608922633],[126.9460660297405,37.553319146228986],[126.94607042289059,37.553087053150065],[126.9460646399977,37.55308700538496],[126.94602595911175,37.55308669889651],[126.94602469602656,37.55300443787195],[126.94604688994846,37.553002367011935],[126.94616314488297,37.55299151958235],[126.94626683680667,37.55298236903267],[126.94643005708082,37.55297097568207],[126.94645476278183,37.552969644729366],[126.94650148066188,37.55296712571201],[126.9465118656657,37.5529108096339],[126.94651380934057,37.552868454975524],[126.94651110531574,37.552867498666],[126.9465328689974,37.55280400699067],[126.94652870982456,37.552781219003556],[126.94654454017781,37.55267595464062],[126.94655573820886,37.55257573366469],[126.94656626242579,37.55249922644425],[126.94658153912339,37.552346371490735],[126.94657345255311,37.55229341651099],[126.94657375219161,37.55225522365877],[126.94657610156065,37.55195303249502],[126.94657223684692,37.551868319555076],[126.94657593394109,37.55176512180363],[126.94657539419202,37.55163708176545],[126.94653347725958,37.55119032401874],[126.9465171294008,37.551045419068174],[126.94666480319871,37.55105568697422],[126.94670818012878,37.551055022362874],[126.94670350338056,37.55104366770807],[126.94672569217212,37.55104778562295],[126.94673689406204,37.55104986400001],[126.94675284647516,37.551055277344204],[126.94682162859756,37.55108630330694],[126.94683957516271,37.5511503720629],[126.94686061717505,37.55115975210848],[126.94689946452444,37.55127176323549],[126.94690035354867,37.551294108217476],[126.94690140320003,37.55134446507601],[126.94690305451296,37.55142326648996],[126.94690352492319,37.55144547612911],[126.94690837023774,37.551474039776096],[126.94691543675945,37.551498297714204],[126.94694110656498,37.55158640845349],[126.94695886189118,37.55160263449119],[126.94703258254886,37.55169051512313],[126.94704786543004,37.55168313405014],[126.9470778651535,37.55166864193445],[126.94717432835654,37.55176229930012],[126.94721259292349,37.55174276540586],[126.9472277531551,37.55174844861821],[126.947245171172,37.55176179128715],[126.9472374722353,37.55176674319715],[126.9473057907335,37.551814076592564],[126.9473569687669,37.55177733965752],[126.9473764489731,37.551755905012506],[126.9474085895822,37.551754207862324],[126.94743008261479,37.5517662008852],[126.94749299432578,37.5517787534554],[126.94754729849056,37.55180085255947],[126.94759391259568,37.55181565010255],[126.94760795736036,37.551798898088755],[126.94762730169408,37.551808907915174],[126.94764712185044,37.551786752588214],[126.94767552193336,37.55179343287218],[126.94774693559344,37.55178598719026],[126.94779256226887,37.55175753665249],[126.94788512135277,37.5517734361645],[126.94796423882588,37.551754100772804],[126.9479894527927,37.551785196383875],[126.94804669378381,37.55181522530756],[126.94808064185747,37.55181803374631],[126.9481577014487,37.551827979490945],[126.94819683788083,37.551855116988946],[126.94824191379183,37.551805312550044],[126.94827478608606,37.55172955405966],[126.94828825402013,37.55172802844731],[126.94832989945219,37.55172795711377],[126.94838397715513,37.551750533256396],[126.94848591032628,37.55179307880979],[126.94852560287043,37.551834091705246],[126.94853741722275,37.55193041290931],[126.94858809071108,37.551966295062364],[126.94865109329734,37.55201092232329],[126.9486964506412,37.55204310798755],[126.94872541872154,37.55204699520186],[126.94876672082871,37.55205259980192],[126.94884115228874,37.55209894394808],[126.94885789376278,37.552109312807566],[126.94890732623107,37.55214014872165],[126.94897984401082,37.552172256275234],[126.94905168821616,37.55219670506455],[126.94927573993714,37.55222527570529],[126.94928467771865,37.55222879352263],[126.94942304359408,37.55228345467804],[126.94952431032327,37.552309808236394],[126.94953234003198,37.552317289993766],[126.94962854122028,37.55230480853724],[126.94968105131512,37.5523043811048],[126.94972429961827,37.55237612794437],[126.94982258441334,37.55239456924116],[126.94987379280752,37.55241102571697],[126.94992748141917,37.55242484335167],[126.94994383206338,37.55244432991075],[126.95004810039828,37.55246740472451],[126.9501763450682,37.55249633730219],[126.95016062544428,37.55253018969238],[126.95014118248307,37.5525707735629],[126.95013064954792,37.552592759456495],[126.95008653177088,37.55268216356227],[126.9500361238735,37.552784899567925],[126.95000034475201,37.55286024281159],[126.94996549445936,37.55293425298298],[126.94993608730373,37.55299214680084],[126.94990328623516,37.5530647162625],[126.94988043016086,37.55310972966557],[126.9498735390569,37.55312321357847],[126.94985443555602,37.553107672145856],[126.94978990591713,37.55314149410765],[126.94955517421374,37.55300633257123],[126.9494782638463,37.55294251758341],[126.94936089497016,37.55279877583142],[126.94933972864825,37.55277179983365],[126.94930613616684,37.55274524180379],[126.94922186015276,37.55271221023627],[126.94913496869904,37.55266490575791],[126.9490920781601,37.55262582337683],[126.94903568033479,37.55263134302002],[126.9489580357306,37.552753718862974],[126.94890240948196,37.55283990987401],[126.94881156371578,37.553104751558195],[126.94876463352111,37.55321581371715],[126.9487142279122,37.55330580734246],[126.94870692249926,37.5536896187878],[126.94870666407868,37.55370300738946],[126.94909268641435,37.5539612230475],[126.94909417993833,37.55396168321566],[126.94916815037922,37.55397441098672],[126.94922208061016,37.55398397637148],[126.9493202020914,37.55396357631567],[126.94940285059896,37.55394685440082],[126.94946243126991,37.55393549216355],[126.94957708837026,37.55391279264721],[126.9496645578333,37.55389603662991],[126.94977063477509,37.553875864940245],[126.94982273848474,37.553875545386035],[126.94986172289818,37.55387940967556],[126.94991947575622,37.55389266146479],[126.94996426662304,37.55391177301456],[126.95025709329802,37.55396274338411],[126.95043873126218,37.55392982782912],[126.95049549824112,37.553895389490016],[126.95055730331818,37.55385788993052],[126.95055716766376,37.553859332357575],[126.95055259430396,37.55390942454739],[126.95054214841615,37.55395969530063],[126.95053442142269,37.554005822670845],[126.95052395533676,37.55405248044162],[126.95051278749325,37.554049448290655],[126.95050836335281,37.55404824716141],[126.95050828867456,37.55404822640639],[126.95048358385444,37.55404120963067],[126.9504501931556,37.55404921400868],[126.95044588598365,37.55405903294058],[126.95042397649102,37.55410835268344],[126.95038683341083,37.5541919935578],[126.95039067726839,37.554197761560275],[126.95039768220825,37.554214793310166],[126.950357632037,37.55419693635628],[126.95028397198203,37.55417654203772],[126.95019379217295,37.55415163554233],[126.95011911113687,37.55413493473736],[126.95006287102125,37.55412680133057],[126.950034008755,37.55412246579839],[126.94992678401778,37.5542099042588],[126.94986122250003,37.55426336829185],[126.94981117061765,37.55430418647375],[126.94980646232722,37.55430802623458],[126.94979985204185,37.55431291751885],[126.9497135672445,37.5543767635116],[126.94963306285314,37.554434391543694],[126.94962525562589,37.55443213563723],[126.94960113648452,37.55445194682135]]]},"properties":{"OBJECTID":85165,"PRESENT_SN":"11000UQ181PS201912150653","LCLAS_CL":"UQ1200","MLSFC_CL":"UQ1220","SCLAS_CL":"UQ1221","ATRB_SE":"UQ1221","WTNNC_SN":"11000AGZ201708238635","NTFC_SN":"11000NTC201706018142","DGM_NM":"염리3 주택재개발사업구역","SIGNGU_SE":"11000","DRAWING_NO":" ","CREATE_DAT":1576368000000,"DGM_AR":88208.92944377,"DGM_LT":1885.09082499,"SHAPE.AREA":88208.92944377,"SHAPE.LEN":1885.09082498846}}]}