{"type":"FeatureCollection","features":[{"type":"Feature","id":85059,"geometry":{"type":"Polygon","coordinates":[[[127.06761354601687,37.49601445177772],[127.06838814249583,37.49624584298109],[127.06853236184295,37.49628891912383],[127.06863959286122,37.49632048332113],[127.06928490556015,37.49651238814934],[127.069372807839,37.496677671036785],[127.06928248927419,37.496841884915156],[127.06912578569428,37.49712687060319],[127.06909090239635,37.497193204090685],[127.06900058429733,37.497359309837265],[127.06894162070171,37.497307626158836],[127.06840361177913,37.49799512390005],[127.0682381293395,37.498206501717526],[127.06820209594899,37.49825265320531],[127.06815329867969,37.498315570460946],[127.06783679821363,37.49873047832497],[127.06776980775808,37.49880971370725],[127.06762803159558,37.49897746900464],[127.06749450169326,37.4991355788357],[127.06745495947172,37.49917920925167],[127.06711209190505,37.49958259704614],[127.06690673950061,37.49985976797607],[127.06669376054494,37.5000816214297],[127.06641661846871,37.49999554843399],[127.06623336163024,37.49993393055707],[127.0661409434514,37.499905149190674],[127.06601560769329,37.49986602424337],[127.06587873264394,37.49982176975754],[127.06529571512456,37.499633867320014],[127.06515793652451,37.49958997288429],[127.06504176322696,37.49955237366305],[127.06483215395237,37.49948464098285],[127.0616363700849,37.49845655895001],[127.06164517070924,37.49843993734879],[127.06138455974671,37.49835622544575],[127.06140228779806,37.498323059701164],[127.06145163298383,37.49823113278893],[127.06152943285275,37.49808567206704],[127.06154716084832,37.49805259639914],[127.06163354227725,37.49789145386154],[127.06169474292561,37.497777176033054],[127.06179365726071,37.49759251091223],[127.06180099670561,37.497578721882405],[127.0619405598927,37.49731817176358],[127.06196744047514,37.49727653185591],[127.06197997404527,37.49725318956633],[127.06202559141578,37.49716793169901],[127.06215984619949,37.49691738511229],[127.06223606264209,37.49677498810327],[127.06243783736025,37.49639817647731],[127.06246414569816,37.49634887825214],[127.06259365482815,37.496106622779564],[127.06271232375232,37.49588464525443],[127.06273897068291,37.49583498638876],[127.06292990058175,37.49547782126861],[127.06299979106026,37.49534704991277],[127.0630598583669,37.49523475411736],[127.06314600707059,37.49507352041997],[127.06341687393804,37.49484461506305],[127.06350661442366,37.4947892466457],[127.0638256945011,37.494884404536116],[127.06422429118955,37.49500321566931],[127.06441454128237,37.49505996759977],[127.0645935937372,37.49511330140443],[127.06522791444107,37.49530244120931],[127.06557923539756,37.495407217656165],[127.06564291665441,37.49542619419463],[127.065821631532,37.495479436217515],[127.06621209061166,37.49559590246074],[127.06639702744735,37.495651032302675],[127.06678138022347,37.49576560791511],[127.06708859187526,37.495857249633026],[127.06715317910631,37.495876855552346],[127.06761354601687,37.49601445177772]]]},"properties":{"OBJECTID":85059,"PRESENT_SN":"11680UQ181PS202303070001","LCLAS_CL":"UQ1200","MLSFC_CL":"UQ1240","SCLAS_CL":" ","ATRB_SE":"UQ1240","WTNNC_SN":"11680AGZ202212050001","NTFC_SN":"11680NTC202303030002","DGM_NM":"은마아파트 재건축정비구역","SIGNGU_SE":"11680","DRAWING_NO":" ","CREATE_DAT":1678147200000,"DGM_AR":243524.98921687,"DGM_LT":1972.72017707,"SHAPE.AREA":243524.989036,"SHAPE.LEN":1972.72016061717}}]}