{"type":"FeatureCollection","features":[{"type":"Feature","id":86756,"geometry":{"type":"Polygon","coordinates":[[[127.04224198055724,37.63741632786538],[127.04222978758179,37.63749525770805],[127.04218529682714,37.637559242456355],[127.04214883119133,37.6375885367886],[127.04209379389542,37.63763450558154],[127.04205142401942,37.63764037649729],[127.04198730654375,37.637656255709075],[127.04197742386543,37.637608597385835],[127.04192645055255,37.637627625478515],[127.04187025342212,37.63762422099473],[127.04183048688165,37.63762549595541],[127.04180759613455,37.63761667419335],[127.04177734279538,37.637611008360466],[127.04173542313346,37.637611383046114],[127.04170913645508,37.63760805838538],[127.04168306803192,37.63758923683058],[127.04160024811257,37.637589445187224],[127.0415369150622,37.63758928648752],[127.04146304130326,37.63758147301328],[127.04146846059649,37.63754606276065],[127.0414317178293,37.63748138500541],[127.04145453486211,37.63735262758921],[127.04150953040873,37.63701699480186],[127.0417389650201,37.637035837352215],[127.0417557864723,37.636925191562455],[127.04185764354796,37.63693272499814],[127.04227039622594,37.63696150455634],[127.04235684431767,37.636967511219616],[127.04235449611504,37.63702418352595],[127.04235270457838,37.63706292618425],[127.04231985117956,37.63706744243686],[127.04226179389423,37.637183958903904],[127.0422479868474,37.63721162368311],[127.04224554404207,37.63730271336186],[127.04224198055724,37.63741632786538]]]},"properties":{"OBJECTID":86756,"PRESENT_SN":"11320UQ181PS202505260001","LCLAS_CL":"UQ1800","MLSFC_CL":"UQ1810","SCLAS_CL":"UQ1813","ATRB_SE":"UQ1813","WTNNC_SN":"11320AGZ202504280001","NTFC_SN":"11320NTC202504280006","DGM_NM":"창동대신빌라소규모재건축사업","SIGNGU_SE":"11320","DRAWING_NO":" ","CREATE_DAT":1748217600000,"DGM_AR":4957.68215001,"DGM_LT":294.03033602,"SHAPE.AREA":4957.68215,"SHAPE.LEN":294.030336020618}}]}