{"type":"FeatureCollection","features":[{"type":"Feature","id":86293,"geometry":{"type":"Polygon","coordinates":[[[126.96287709215788,37.5561843619146],[126.96286017420523,37.55616394624918],[126.96285908615438,37.556162633150436],[126.96284495409932,37.55617811654192],[126.96283173095748,37.55616487666634],[126.96279006969685,37.55610986837778],[126.96274722098592,37.556053299169264],[126.96278214717148,37.55599472645475],[126.96276525128347,37.556003956960225],[126.96275033648436,37.55601210512362],[126.96271594601376,37.55598470372885],[126.96259012035662,37.555940513799534],[126.96258054276986,37.55593784100799],[126.96257880468204,37.555937356603145],[126.96257818679179,37.55593728882512],[126.96251509181486,37.555930397951435],[126.96247435949711,37.555911193400924],[126.96246158960281,37.55587541987069],[126.96245322138095,37.55586280324095],[126.96242325004941,37.55581675452884],[126.9623813010952,37.55575231803698],[126.96234092252966,37.55570617395226],[126.9623016062168,37.555667442652044],[126.96221027552329,37.55557746914091],[126.96220196131995,37.55557850161057],[126.96219363806162,37.5555795358786],[126.96215833798952,37.555552317818574],[126.96214488043407,37.555541948341215],[126.96208031730646,37.555431105005],[126.96206656032612,37.55540700162524],[126.96201021525721,37.55530827660874],[126.96198749420083,37.55525799375149],[126.9619793604212,37.555230330628994],[126.96199904660625,37.55524123920068],[126.96203153361795,37.55501420053357],[126.96205699933904,37.55479562881101],[126.96207243115857,37.554718779496504],[126.96208388054451,37.554682563511214],[126.96212704488404,37.55459500166179],[126.96216610242136,37.554569336461014],[126.96222703401239,37.5544825913844],[126.96224962763267,37.554452073348074],[126.96230993495736,37.55437060872366],[126.96246803168484,37.55415705341885],[126.96249978617503,37.554141884030145],[126.96255813778706,37.55411401584311],[126.96260433276197,37.55407276571627],[126.96262194571004,37.554063580516384],[126.96264558207824,37.55405125374147],[126.9626556128159,37.55404602319004],[126.9627024688237,37.55401090628345],[126.96272398971848,37.55399477571687],[126.96274980708571,37.55397541650641],[126.96283558859389,37.553978327808125],[126.96287246812001,37.55398344849933],[126.96296787265064,37.55391357183927],[126.96305272538392,37.553851818598034],[126.96306713716878,37.55384161507034],[126.96306751090746,37.55384107459782],[126.96313352426287,37.55379441576119],[126.9630588008469,37.55372311409419],[126.963073178919,37.55371239699],[126.9630254074293,37.55367327844173],[126.9629976010734,37.553652357385765],[126.96292995462905,37.55359602339552],[126.96282246498427,37.55351065541306],[126.96289502650617,37.55345021369843],[126.9628506103082,37.553422899150526],[126.96274899371426,37.55336086867563],[126.96269242288176,37.55335607483897],[126.96265787357035,37.55337543476964],[126.9626211210739,37.55334424839781],[126.9626207479432,37.553343617581554],[126.96264791262854,37.55333578790939],[126.96262290893563,37.55328585849537],[126.96261524062616,37.55327055444749],[126.96259729765777,37.55319438780668],[126.96256991967802,37.55306850139279],[126.96254016188637,37.552862146717125],[126.96247504631735,37.55279400130786],[126.96241953386598,37.55273540954223],[126.96234069885382,37.55265266346626],[126.96229694914912,37.55260732911554],[126.96229797945107,37.552606428467136],[126.96229772019835,37.55254614309912],[126.9622973934314,37.5524721626505],[126.96229829536854,37.55234907861896],[126.9622961813051,37.5522153528833],[126.96230651861633,37.55209757881504],[126.96231131990949,37.552048647604884],[126.96232194435,37.55200918413549],[126.96232694474959,37.5519906109709],[126.96229720989517,37.55191535035437],[126.96228849936152,37.55189171897937],[126.96228445147301,37.55188073906261],[126.9622931766574,37.55181594270828],[126.96229355511305,37.55180639233226],[126.96234447881497,37.551722599078396],[126.9623889600303,37.55166655418195],[126.96244381296061,37.551707945840874],[126.96253096278214,37.55177295409905],[126.96255354164134,37.55179072007902],[126.96264869872982,37.55186564178934],[126.9626890043266,37.55189611754602],[126.96275505661272,37.55194624334093],[126.9627556109916,37.55194651382012],[126.96283015914459,37.5520025979097],[126.96287130237775,37.55203297476895],[126.96293109902986,37.55207868356236],[126.9630012468615,37.552131603627444],[126.96303856498561,37.552162348586194],[126.96314086199689,37.55224099331329],[126.96317077063968,37.55226610462975],[126.9631744586557,37.55227075043424],[126.9632209960035,37.552329379483766],[126.96324748578067,37.55235695838597],[126.96324776842361,37.552357499071945],[126.96332949523567,37.55243645951927],[126.96333379010392,37.55244060726709],[126.96341273065357,37.552495602206],[126.96336650236695,37.55253838433384],[126.96334354949248,37.552520897697654],[126.96327649890821,37.55258449494981],[126.96326687570759,37.55259215025317],[126.963227762234,37.55259718312389],[126.96321870791012,37.552598892069724],[126.96321086494565,37.552599700417204],[126.96319637682898,37.552648979902514],[126.96316584641518,37.55266644920818],[126.96316490698062,37.55266671920024],[126.96274526427975,37.55263000193686],[126.96274269222216,37.55272344282731],[126.9627473034598,37.552822472216526],[126.96274749542613,37.55282328317108],[126.96274832237191,37.55284355573051],[126.96280607487317,37.552904130254205],[126.96282342589427,37.55292161515818],[126.96292020941262,37.552940216249056],[126.96293131253772,37.55295968127387],[126.96294950527405,37.552968967420156],[126.96305385041019,37.552983957898796],[126.96317387329336,37.5530135494241],[126.9632159667581,37.553023924476626],[126.96323356661124,37.552931299345275],[126.96324591485946,37.55288400134348],[126.96328188794236,37.552801653448874],[126.96332701060551,37.552730390686015],[126.96340267441937,37.55262030507204],[126.9634477828638,37.552556531290186],[126.96345576128982,37.55254525075666],[126.96346461060111,37.55253273974999],[126.9634651649869,37.55253301022585],[126.96347954002475,37.55252769901273],[126.96348670167724,37.55253140439099],[126.96358739917622,37.552619553662296],[126.96365308559591,37.55267949962902],[126.96377913197614,37.55279253321055],[126.96380404230463,37.552811101575195],[126.96380460841914,37.55281056116165],[126.96386991072468,37.55286987618981],[126.9639085354067,37.55291439743227],[126.96399792187461,37.55299291115585],[126.9640720036407,37.55305772490209],[126.96408692299003,37.553072956372525],[126.96404827605913,37.553095108482765],[126.96403229141384,37.55312808867294],[126.96400437646615,37.553143036250766],[126.96395553219534,37.55318924153734],[126.96389511296856,37.553253381837095],[126.96387811582964,37.5532629206128],[126.96378559428257,37.55331480795941],[126.96376570142868,37.55332596937839],[126.96371497935453,37.55339245525957],[126.96369042396216,37.553410196908466],[126.96365399345929,37.5534574872328],[126.96359348003126,37.55350558971453],[126.9635796679208,37.55351630706429],[126.96360831189367,37.5535371291437],[126.96363321741076,37.55356560843563],[126.96369470878894,37.55362023718006],[126.96371113953526,37.553600781048026],[126.96378430202498,37.553649007439596],[126.96383547912994,37.553600550495894],[126.96376969258691,37.5535577234267],[126.96382898243867,37.553512152247784],[126.96383794913585,37.55350485708656],[126.9638839803726,37.55353726868062],[126.96390195778226,37.553549927018025],[126.96396247176688,37.55350039180385],[126.96392627283782,37.55346991779727],[126.96393541873658,37.55346631674663],[126.96402610874009,37.55354203778606],[126.96407523693271,37.5534942107803],[126.96407655488231,37.55346122593675],[126.96409531904568,37.553459880399274],[126.9641125814022,37.55347448191462],[126.96414916444003,37.553483782709414],[126.96417062481517,37.55349955683229],[126.96421990293322,37.55351398825551],[126.9643455014506,37.55359909037119],[126.96437593276023,37.55359909994715],[126.96447828438006,37.5535056002764],[126.96452871023942,37.5534647922045],[126.96464198739297,37.55354475449961],[126.96471495582027,37.55359749421677],[126.96479053751364,37.55365238806842],[126.96487358768083,37.55370900508091],[126.96497791682425,37.553782837538435],[126.96525187481863,37.55397737374913],[126.96534332062177,37.5540387682556],[126.96538056274797,37.554064458786264],[126.96542786466364,37.55409708820419],[126.96546883185063,37.554121607656754],[126.9656233694864,37.554211220386215],[126.96563727315196,37.554219281267784],[126.96557152897739,37.55427346485248],[126.9655379210354,37.554289221948],[126.9655257715842,37.55430219250649],[126.96538158781556,37.55442829612828],[126.9653384509419,37.55446711560256],[126.96530295672733,37.55449836908631],[126.96529007459927,37.55450512256215],[126.96517745078518,37.55461348609966],[126.9650867696838,37.55470041273073],[126.96506706744664,37.55471950674359],[126.96506669493705,37.5547198679257],[126.96491083390052,37.5548617256778],[126.9648743245213,37.55488532930843],[126.96485938296254,37.55489127120645],[126.96477808603538,37.554879983561065],[126.96461305658356,37.55486244387677],[126.96454416876401,37.55486305301957],[126.96444083144108,37.55486383150812],[126.96441180097862,37.55486778674616],[126.96440470601704,37.55486598253586],[126.96430267641136,37.554876951514416],[126.96429968845848,37.55487740106781],[126.96428394434623,37.55488131541192],[126.96427497545774,37.5548882213768],[126.96426639602848,37.55489482473108],[126.96409816216092,37.554950949180835],[126.96403435549323,37.55497223646158],[126.9640021355726,37.55499694129268],[126.96390902612131,37.555068332269],[126.96385489199594,37.555134805390594],[126.96377675949601,37.55523073860441],[126.96364992297264,37.555396299994214],[126.9636288597273,37.55542458523003],[126.9635598975628,37.55551718847505],[126.96355279000868,37.555526741190704],[126.96350201899101,37.55559492080079],[126.96343602362103,37.5556258034971],[126.96339450366693,37.55564191782273],[126.96338459909512,37.55564576185241],[126.96339677149021,37.55567777706157],[126.96341239105034,37.55571885914453],[126.96341591602533,37.55572845582696],[126.96341798535316,37.55573408768298],[126.9634195705068,37.555732646610245],[126.9634527575355,37.55583456830625],[126.96337842390342,37.55588211659776],[126.96334499383238,37.555901837478416],[126.96333519005893,37.555907681734396],[126.9631572162035,37.556013787712345],[126.9631508595417,37.55601765359751],[126.96303115838825,37.55609033084898],[126.96297485999956,37.55612383832613],[126.96287709215788,37.5561843619146]]]},"properties":{"OBJECTID":86293,"PRESENT_SN":"11000UQ181PS201912150368","LCLAS_CL":"UQ1200","MLSFC_CL":"UQ1220","SCLAS_CL":"UQ1221","ATRB_SE":"UQ1221","WTNNC_SN":"11000AGZ201109288040","NTFC_SN":"11000NTC201107146172","DGM_NM":"만리제2주택재개발사업","SIGNGU_SE":"11000","DRAWING_NO":" ","CREATE_DAT":1576368000000,"DGM_AR":67112.51084979,"DGM_LT":1751.70485444,"SHAPE.AREA":67112.5108497,"SHAPE.LEN":1751.70485445145}},{"type":"Feature","id":85069,"geometry":{"type":"Polygon","coordinates":[[[126.96287709215788,37.5561843619146],[126.96286017420523,37.55616394624918],[126.96285908615438,37.556162633150436],[126.96284495409932,37.55617811654192],[126.96283173095748,37.55616487666634],[126.96279006969685,37.55610986837778],[126.96274722098592,37.556053299169264],[126.96278214717148,37.55599472645475],[126.96276525128347,37.556003956960225],[126.96275033648436,37.55601210512362],[126.96271594601376,37.55598470372885],[126.96259012035662,37.555940513799534],[126.96258054276986,37.55593784100799],[126.96257880468204,37.555937356603145],[126.96257818679179,37.55593728882512],[126.96251509181486,37.555930397951435],[126.96247435949711,37.555911193400924],[126.96246158960281,37.55587541987069],[126.96245322138095,37.55586280324095],[126.96242325004941,37.55581675452884],[126.9623813010952,37.55575231803698],[126.96234092252966,37.55570617395226],[126.9623016062168,37.555667442652044],[126.96221027552329,37.55557746914091],[126.96220196131995,37.55557850161057],[126.96219363806162,37.5555795358786],[126.96215833798952,37.555552317818574],[126.96214488043407,37.555541948341215],[126.96208031730646,37.555431105005],[126.96206656032612,37.55540700162524],[126.96201021525721,37.55530827660874],[126.96198749420083,37.55525799375149],[126.9619793604212,37.555230330628994],[126.96199904660625,37.55524123920068],[126.96203153361795,37.55501420053357],[126.96205699933904,37.55479562881101],[126.96207243115857,37.554718779496504],[126.96208388054451,37.554682563511214],[126.96212704488404,37.55459500166179],[126.96216610242136,37.554569336461014],[126.96222703401239,37.5544825913844],[126.96224962763267,37.554452073348074],[126.96230993495736,37.55437060872366],[126.96246803168484,37.55415705341885],[126.96249978617503,37.554141884030145],[126.96255813778706,37.55411401584311],[126.96260433276197,37.55407276571627],[126.96262194571004,37.554063580516384],[126.96264558207824,37.55405125374147],[126.9626556128159,37.55404602319004],[126.9627024688237,37.55401090628345],[126.96272398971848,37.55399477571687],[126.96274980708571,37.55397541650641],[126.96283558859389,37.553978327808125],[126.96287246812001,37.55398344849933],[126.96296787265064,37.55391357183927],[126.96305272538392,37.553851818598034],[126.96306713716878,37.55384161507034],[126.96306751090746,37.55384107459782],[126.96313352426287,37.55379441576119],[126.9630588008469,37.55372311409419],[126.963073178919,37.55371239699],[126.9630254074293,37.55367327844173],[126.9629976010734,37.553652357385765],[126.96292995462905,37.55359602339552],[126.96282246498427,37.55351065541306],[126.96289502650617,37.55345021369843],[126.9628506103082,37.553422899150526],[126.96274899371426,37.55336086867563],[126.96269242288176,37.55335607483897],[126.96265787357035,37.55337543476964],[126.9626211210739,37.55334424839781],[126.9626207479432,37.553343617581554],[126.96264791262854,37.55333578790939],[126.96262290893563,37.55328585849537],[126.96261524062616,37.55327055444749],[126.96259729765777,37.55319438780668],[126.96256991967802,37.55306850139279],[126.96254016188637,37.552862146717125],[126.96247504631735,37.55279400130786],[126.96241953386598,37.55273540954223],[126.96234069885382,37.55265266346626],[126.96229694914912,37.55260732911554],[126.96229797945107,37.552606428467136],[126.96229772019835,37.55254614309912],[126.9622973934314,37.5524721626505],[126.96229829536854,37.55234907861896],[126.9622961813051,37.5522153528833],[126.96230651861633,37.55209757881504],[126.96231131990949,37.552048647604884],[126.96232194435,37.55200918413549],[126.96232694474959,37.5519906109709],[126.96229720989517,37.55191535035437],[126.96228849936152,37.55189171897937],[126.96228445147301,37.55188073906261],[126.9622931766574,37.55181594270828],[126.96229355511305,37.55180639233226],[126.96234447881497,37.551722599078396],[126.9623889600303,37.55166655418195],[126.96244381296061,37.551707945840874],[126.96253096278214,37.55177295409905],[126.96255354164134,37.55179072007902],[126.96264869872982,37.55186564178934],[126.9626890043266,37.55189611754602],[126.96275505661272,37.55194624334093],[126.9627556109916,37.55194651382012],[126.96283015914459,37.5520025979097],[126.96287130237775,37.55203297476895],[126.96293109902986,37.55207868356236],[126.9630012468615,37.552131603627444],[126.96303856498561,37.552162348586194],[126.96314086199689,37.55224099331329],[126.96317077063968,37.55226610462975],[126.9631744586557,37.55227075043424],[126.9632209960035,37.552329379483766],[126.96324748578067,37.55235695838597],[126.96324776842361,37.552357499071945],[126.96332949523567,37.55243645951927],[126.96333379010392,37.55244060726709],[126.96341273065357,37.552495602206],[126.96336650236695,37.55253838433384],[126.96334354949248,37.552520897697654],[126.96327649890821,37.55258449494981],[126.96326687570759,37.55259215025317],[126.963227762234,37.55259718312389],[126.96321870791012,37.552598892069724],[126.96321086494565,37.552599700417204],[126.96319637682898,37.552648979902514],[126.96316584641518,37.55266644920818],[126.96316490698062,37.55266671920024],[126.96274526427975,37.55263000193686],[126.96274269222216,37.55272344282731],[126.9627473034598,37.552822472216526],[126.96274749542613,37.55282328317108],[126.96274832237191,37.55284355573051],[126.96280607487317,37.552904130254205],[126.96282342589427,37.55292161515818],[126.96292020941262,37.552940216249056],[126.96293131253772,37.55295968127387],[126.96294950527405,37.552968967420156],[126.96305385041019,37.552983957898796],[126.96317387329336,37.5530135494241],[126.9632159667581,37.553023924476626],[126.96323356661124,37.552931299345275],[126.96324591485946,37.55288400134348],[126.96328188794236,37.552801653448874],[126.96332701060551,37.552730390686015],[126.96340267441937,37.55262030507204],[126.9634477828638,37.552556531290186],[126.96345576128982,37.55254525075666],[126.96346461060111,37.55253273974999],[126.9634651649869,37.55253301022585],[126.96347954002475,37.55252769901273],[126.96348670167724,37.55253140439099],[126.96358739917622,37.552619553662296],[126.96365308559591,37.55267949962902],[126.96377913197614,37.55279253321055],[126.96380404230463,37.552811101575195],[126.96380460841914,37.55281056116165],[126.96386991072468,37.55286987618981],[126.9639085354067,37.55291439743227],[126.96399792187461,37.55299291115585],[126.9640720036407,37.55305772490209],[126.96408692299003,37.553072956372525],[126.96404827605913,37.553095108482765],[126.96403229141384,37.55312808867294],[126.96400437646615,37.553143036250766],[126.96395553219534,37.55318924153734],[126.96389511296856,37.553253381837095],[126.96387811582964,37.5532629206128],[126.96378559428257,37.55331480795941],[126.96376570142868,37.55332596937839],[126.96371497935453,37.55339245525957],[126.96369042396216,37.553410196908466],[126.96365399345929,37.5534574872328],[126.96359348003126,37.55350558971453],[126.9635796679208,37.55351630706429],[126.96360831189367,37.5535371291437],[126.96363321741076,37.55356560843563],[126.96369470878894,37.55362023718006],[126.96371113953526,37.553600781048026],[126.96378430202498,37.553649007439596],[126.96383547912994,37.553600550495894],[126.96376969258691,37.5535577234267],[126.96382898243867,37.553512152247784],[126.96383794913585,37.55350485708656],[126.9638839803726,37.55353726868062],[126.96390195778226,37.553549927018025],[126.96396247176688,37.55350039180385],[126.96392627283782,37.55346991779727],[126.96393541873658,37.55346631674663],[126.96402610874009,37.55354203778606],[126.96407523693271,37.5534942107803],[126.96407655488231,37.55346122593675],[126.96409531904568,37.553459880399274],[126.9641125814022,37.55347448191462],[126.96414916444003,37.553483782709414],[126.96417062481517,37.55349955683229],[126.96421990293322,37.55351398825551],[126.9643455014506,37.55359909037119],[126.96437593276023,37.55359909994715],[126.96447828438006,37.5535056002764],[126.96452871023942,37.5534647922045],[126.96464198739297,37.55354475449961],[126.96471495582027,37.55359749421677],[126.96479053751364,37.55365238806842],[126.96487358768083,37.55370900508091],[126.96497791682425,37.553782837538435],[126.96525187481863,37.55397737374913],[126.96534332062177,37.5540387682556],[126.96538056274797,37.554064458786264],[126.96542786466364,37.55409708820419],[126.96546883185063,37.554121607656754],[126.9656233694864,37.554211220386215],[126.96563727315196,37.554219281267784],[126.96557152897739,37.55427346485248],[126.9655379210354,37.554289221948],[126.9655257715842,37.55430219250649],[126.96538158781556,37.55442829612828],[126.9653384509419,37.55446711560256],[126.96530295672733,37.55449836908631],[126.96529007459927,37.55450512256215],[126.96517745078518,37.55461348609966],[126.9650867696838,37.55470041273073],[126.96506706744664,37.55471950674359],[126.96506669493705,37.5547198679257],[126.96491083390052,37.5548617256778],[126.9648743245213,37.55488532930843],[126.96485938296254,37.55489127120645],[126.96477808603538,37.554879983561065],[126.96461305658356,37.55486244387677],[126.96454416876401,37.55486305301957],[126.96444083144108,37.55486383150812],[126.96441180097862,37.55486778674616],[126.96440470601704,37.55486598253586],[126.96430267641136,37.554876951514416],[126.96429968845848,37.55487740106781],[126.96428394434623,37.55488131541192],[126.96427497545774,37.5548882213768],[126.96426639602848,37.55489482473108],[126.96409816216092,37.554950949180835],[126.96403435549323,37.55497223646158],[126.9640021355726,37.55499694129268],[126.96390902612131,37.555068332269],[126.96385489199594,37.555134805390594],[126.96377675949601,37.55523073860441],[126.96364992297264,37.555396299994214],[126.9636288597273,37.55542458523003],[126.9635598975628,37.55551718847505],[126.96355279000868,37.555526741190704],[126.96350201899101,37.55559492080079],[126.96343602362103,37.5556258034971],[126.96339450366693,37.55564191782273],[126.96338459909512,37.55564576185241],[126.96339677149021,37.55567777706157],[126.96341239105034,37.55571885914453],[126.96341591602533,37.55572845582696],[126.96341798535316,37.55573408768298],[126.9634195705068,37.555732646610245],[126.9634527575355,37.55583456830625],[126.96337842390342,37.55588211659776],[126.96334499383238,37.555901837478416],[126.96333519005893,37.555907681734396],[126.9631572162035,37.556013787712345],[126.9631508595417,37.55601765359751],[126.96303115838825,37.55609033084898],[126.96297485999956,37.55612383832613],[126.96287709215788,37.5561843619146]]]},"properties":{"OBJECTID":85069,"PRESENT_SN":"11000UQ181PS201912150368","LCLAS_CL":"UQ1200","MLSFC_CL":"UQ1220","SCLAS_CL":"UQ1221","ATRB_SE":"UQ1221","WTNNC_SN":"11000AGZ201109288040","NTFC_SN":"11000NTC201107146172","DGM_NM":"만리제2주택재개발사업","SIGNGU_SE":"11000","DRAWING_NO":" ","CREATE_DAT":1576368000000,"DGM_AR":67112.51084979,"DGM_LT":1751.70485444,"SHAPE.AREA":67112.5108497,"SHAPE.LEN":1751.70485445145}}]}