{"type":"FeatureCollection","features":[{"type":"Feature","id":85745,"geometry":{"type":"Polygon","coordinates":[[[127.05519766585077,37.47669209234392],[127.05509885812069,37.476658773977704],[127.05507307284996,37.47662705236772],[127.05504592921797,37.47659605847614],[127.05465121853462,37.47634624182584],[127.05511428809014,37.47635224960732],[127.05525880894066,37.476406784705816],[127.05564362818617,37.47670141700377],[127.05571802340206,37.47670967212305],[127.05603721306687,37.476608252627265],[127.05618566892981,37.47632076430797],[127.05621265651602,37.47596647770119],[127.05624804170837,37.475811128507665],[127.05626464842011,37.475794722571194],[127.05628522325824,37.47579381203432],[127.05675941625722,37.475864500185196],[127.05687291212172,37.47569947353358],[127.05714047736573,37.47550779477234],[127.05821252942835,37.47608266538312],[127.05824135476479,37.476228163424565],[127.05772520818594,37.4767515319938],[127.0574997874259,37.4766109925568],[127.05745205673131,37.47658128208616],[127.0574237949359,37.47658336776631],[127.05632733183309,37.47679543677848],[127.05572538566497,37.47688527408152],[127.05555910906125,37.47692084973292],[127.05543783555574,37.476946796335106],[127.05539386674805,37.47681626837682],[127.05519766585077,37.47669209234392]]]},"properties":{"OBJECTID":85745,"PRESENT_SN":"11000UQ181PS202203310001","LCLAS_CL":"UQ1200","MLSFC_CL":"UQ1240","SCLAS_CL":" ","ATRB_SE":"UQ1240","WTNNC_SN":"11000AGZ202203280001","NTFC_SN":"11680NTC202203280001","DGM_NM":"개포우성6차아파트 재건축사업","SIGNGU_SE":"11000","DRAWING_NO":" ","CREATE_DAT":1648684800000,"DGM_AR":20831.56845892,"DGM_LT":847.95564361,"SHAPE.AREA":20831.57108884,"SHAPE.LEN":847.955629005212}},{"type":"Feature","id":85568,"geometry":{"type":"Polygon","coordinates":[[[127.05519766585077,37.47669209234392],[127.05509885812069,37.476658773977704],[127.05507307284996,37.47662705236772],[127.05504592921797,37.47659605847614],[127.05465121853462,37.47634624182584],[127.05511428809014,37.47635224960732],[127.05525880894066,37.476406784705816],[127.05564362818617,37.47670141700377],[127.05571802340206,37.47670967212305],[127.05603721306687,37.476608252627265],[127.05618566892981,37.47632076430797],[127.05621265651602,37.47596647770119],[127.05624804170837,37.475811128507665],[127.05626464842011,37.475794722571194],[127.05628522325824,37.47579381203432],[127.05675941625722,37.475864500185196],[127.05687291212172,37.47569947353358],[127.05714047736573,37.47550779477234],[127.05821252942835,37.47608266538312],[127.05824135476479,37.476228163424565],[127.05772520818594,37.4767515319938],[127.0574997874259,37.4766109925568],[127.05745205673131,37.47658128208616],[127.0574237949359,37.47658336776631],[127.05632733183309,37.47679543677848],[127.05572538566497,37.47688527408152],[127.05555910906125,37.47692084973292],[127.05543783555574,37.476946796335106],[127.05539386674805,37.47681626837682],[127.05519766585077,37.47669209234392]]]},"properties":{"OBJECTID":85568,"PRESENT_SN":"11000UQ181PS202203310001","LCLAS_CL":"UQ1200","MLSFC_CL":"UQ1240","SCLAS_CL":" ","ATRB_SE":"UQ1240","WTNNC_SN":"11000AGZ202203280001","NTFC_SN":"11680NTC202203280001","DGM_NM":"개포우성6차아파트 재건축사업","SIGNGU_SE":"11000","DRAWING_NO":" ","CREATE_DAT":1648684800000,"DGM_AR":20831.56845892,"DGM_LT":847.95564361,"SHAPE.AREA":20831.57108884,"SHAPE.LEN":847.955629005212}}]}