{"type":"FeatureCollection","features":[{"type":"Feature","id":86071,"geometry":{"type":"Polygon","coordinates":[[[127.15044123582283,37.49174992056187],[127.15031063103702,37.492022637387876],[127.15035659270869,37.49205483526814],[127.15035736270049,37.49205537489767],[127.15042406891145,37.49210210676353],[127.1504420512411,37.492115076507034],[127.15063639209863,37.49225521606778],[127.15094829926278,37.492480134848684],[127.15128628714139,37.49264999572152],[127.15105916921227,37.49267749358129],[127.1509338892748,37.492682517479594],[127.15069768891182,37.49269191604801],[127.1504706472143,37.49270103229821],[127.15024371835885,37.49271005787016],[127.15001667654835,37.492719173248155],[127.14978963450311,37.49272819809026],[127.14963834855268,37.49273424434805],[127.14933227153259,37.492746520867684],[127.14924192979143,37.49275023785673],[127.14923851521102,37.492624102246616],[127.14923778369426,37.492597163286625],[127.14923436646716,37.49246967617762],[127.14922871811841,37.4924724763369],[127.14913438141724,37.492457097055635],[127.14898501341712,37.49251819112974],[127.14894817119433,37.492528868899306],[127.14891291097796,37.49253900408426],[127.14881357212936,37.49256759954663],[127.14880407895807,37.49257031437899],[127.14869097586546,37.49261485656149],[127.14868611729347,37.4926167727318],[127.14855696948672,37.4926676597846],[127.14853335452405,37.49267696946329],[127.14851889175448,37.49268266375367],[127.14848622133611,37.492629545448416],[127.14832916320493,37.492690648258176],[127.14830351404886,37.49270059111802],[127.14831204973875,37.49267084754108],[127.1482706784354,37.49267855742923],[127.14824094985661,37.492684090446744],[127.14808688147268,37.49271293345182],[127.14800860907094,37.49270131753891],[127.14798509343194,37.492697832796985],[127.14776598756976,37.492665397950596],[127.14777531536798,37.49280981656701],[127.14751050820705,37.49282059567251],[127.14742005320433,37.492824311408526],[127.14740545566437,37.49264449000396],[127.14739641713358,37.49253214656747],[127.14738778738882,37.49242590058598],[127.14738541129388,37.492396649877534],[127.14734782203028,37.492430303550314],[127.14726731738453,37.49243355638744],[127.14717041797509,37.49243755018175],[127.1470772495698,37.492441269000224],[127.1469774103137,37.49244535635806],[127.14688661650479,37.49244907210268],[127.14679356132181,37.492452880658085],[127.14681625087232,37.49243276047428],[127.14679467848528,37.49209554299072],[127.14676446352698,37.49208341664981],[127.14685302465517,37.49203645578121],[127.14694023015451,37.49199021731393],[127.14703127611699,37.491941901753734],[127.14711927222962,37.4918953017803],[127.1472191289678,37.49184238011997],[127.14728826041926,37.49180571427491],[127.14724306328425,37.49176468446226],[127.14724478498046,37.49171963237345],[127.14696764945636,37.49155193750063],[127.14690995648327,37.49155108048179],[127.14687604695709,37.49148205159601],[127.14679514504907,37.49145482379177],[127.14682929871313,37.491428112209995],[127.14680195522624,37.49141551382573],[127.14677392277187,37.491409160207745],[127.14677557645027,37.49139891381189],[127.14674859072299,37.49136083471328],[127.14672583153859,37.491344824898405],[127.14671247923644,37.4913399759114],[127.14669110190408,37.491336848682636],[127.14682088875071,37.49126614088646],[127.14687327759157,37.491225801772806],[127.14689506651521,37.49120793517654],[127.14705106029646,37.491123769985784],[127.1471758149249,37.491082350477036],[127.1472391240903,37.49107569511465],[127.14728679669608,37.49105248062222],[127.1473951795854,37.49102360497131],[127.14751373385904,37.49099201365436],[127.14756210477182,37.49097906958115],[127.14759397096964,37.490968308293866],[127.14762470602517,37.49095560854499],[127.14765350746308,37.490940573987295],[127.14768027263143,37.49092333179006],[127.14769370779798,37.49091268337538],[127.14769789823153,37.49091610198864],[127.14770500894083,37.490909425794925],[127.14777572456566,37.49085070123345],[127.14783551215196,37.49080105421752],[127.14784923268492,37.49079180198069],[127.1478845221292,37.49076801693294],[127.14792150059863,37.49073481433736],[127.14794389533442,37.490714694297154],[127.14793540156946,37.490707947327536],[127.14794464728487,37.49070021430398],[127.14802898761998,37.490629714659704],[127.14803722584702,37.4906214152485],[127.1481172626906,37.49055338060577],[127.14815891781355,37.49051791963327],[127.14819221387803,37.490486793820935],[127.14820958780703,37.49046658986257],[127.14824905760078,37.490412300681584],[127.14826382321982,37.49038822565642],[127.14826889444579,37.490379479662494],[127.14831199926034,37.490333745440054],[127.14833480716672,37.49029374876194],[127.14835076366204,37.49026576190772],[127.1484121842684,37.49020742693084],[127.1484527136849,37.49016893088408],[127.14847491399594,37.490147846913835],[127.14857155586343,37.490100541323336],[127.14858198328363,37.49009580710692],[127.14859116009012,37.49009913839227],[127.14873355393607,37.49015107486741],[127.14875559745103,37.490159606894515],[127.14890394999338,37.49021703183478],[127.14894398407712,37.49023156005967],[127.14919596280687,37.49032020105582],[127.14940590870393,37.49039546023044],[127.14963181913251,37.490475447285604],[127.14965064809044,37.490493686939146],[127.1496533520442,37.490500161735156],[127.1496630648437,37.490505744763574],[127.14966678921374,37.49050788447235],[127.14973640897274,37.490547900641026],[127.14975693376684,37.49056025462347],[127.14979026722165,37.49062274215829],[127.14979161782664,37.49062528128178],[127.14978799838782,37.49062703556495],[127.14981373150242,37.49065201321132],[127.14986381098511,37.49062852435746],[127.14987871996173,37.49064858891479],[127.14996938034247,37.49077061271856],[127.14998589830606,37.49079461440963],[127.1500367360176,37.490868513557274],[127.15006558030704,37.49089650738671],[127.15008276682494,37.490913199315926],[127.1501106821517,37.49094029330282],[127.15011814814025,37.49094753695796],[127.15023634675369,37.49106229268792],[127.15027037959757,37.491043788367264],[127.15039105813034,37.491182939880595],[127.15037146044111,37.49119346121555],[127.15038325431532,37.491204916077834],[127.15041701581984,37.49123768793047],[127.15042769642059,37.49124654931314],[127.1506130048456,37.49140037748861],[127.15064651922854,37.49142819409001],[127.15057183966185,37.49147720358083],[127.15044123582283,37.49174992056187]]]},"properties":{"OBJECTID":86071,"PRESENT_SN":"11000UQ181PS202305090006","LCLAS_CL":"UQ1200","MLSFC_CL":"UQ1220","SCLAS_CL":"UQ1221","ATRB_SE":"UQ1221","WTNNC_SN":"11000AGZ202304250003","NTFC_SN":"11000NTC202304250002","DGM_NM":"거여새마을 재정비촉진구역(주택재개발사업)","SIGNGU_SE":"11000","DRAWING_NO":" ","CREATE_DAT":1683590400000,"DGM_AR":71922.45498571,"DGM_LT":1353.01024757,"SHAPE.AREA":71922.4560211,"SHAPE.LEN":1353.0103082831602}}]}