{"type":"FeatureCollection","features":[{"type":"Feature","id":84554,"geometry":{"type":"Polygon","coordinates":[[[127.07493106015394,37.50518851288293],[127.07486206479598,37.505482470221224],[127.07480581830201,37.50572198131489],[127.07454087893247,37.50685078005489],[127.07432410090577,37.507774299308586],[127.07427214708127,37.50799570817522],[127.07406672090717,37.50887090110785],[127.07289164940264,37.50869759111622],[127.07137757591696,37.50847426322164],[127.07152996373763,37.507548398204065],[127.07153292152283,37.507530466601885],[127.07161604234065,37.50702628218515],[127.07163096603324,37.506935840206516],[127.0716357905969,37.50690655492293],[127.07166795659131,37.50671381244886],[127.07168938530948,37.50664964869446],[127.07171248853605,37.506562058003134],[127.0717667230309,37.50638497973429],[127.07177051303458,37.50637420154888],[127.07180112626902,37.506287110928426],[127.0718305725423,37.506209968007376],[127.07186521415575,37.50612525360395],[127.07190392424882,37.50603738327328],[127.07197661794784,37.505887053524326],[127.07198666516372,37.50586740578151],[127.07205892284372,37.505734825892866],[127.07207868264337,37.5057005761785],[127.07212159204752,37.50562883112148],[127.0721797505283,37.505536984677875],[127.07224310911121,37.505442792496936],[127.07228964308918,37.50537717199064],[127.07238723628028,37.50524764010212],[127.07240813426341,37.5052213184277],[127.07253511117594,37.50506969433069],[127.07259510182965,37.50500271411293],[127.07267023476498,37.50492257017618],[127.07272932674545,37.50486225781403],[127.07281327915796,37.50478030647203],[127.07288164296081,37.504718096340746],[127.07289168850194,37.504708982985356],[127.07293362211439,37.504670942740084],[127.07296390539405,37.504643263793966],[127.07310098147923,37.50452911447906],[127.07312211354909,37.50451153221312],[127.0732820267178,37.50438934995989],[127.07334656059518,37.50434390044372],[127.07345924092006,37.504265084657845],[127.07354977456997,37.50420727552168],[127.07363736900008,37.50415090970674],[127.07378916996215,37.504062158737],[127.07382183592296,37.50404303759134],[127.07401727614526,37.503938942643856],[127.07403027609396,37.50393280787872],[127.07410692244572,37.50389996448047],[127.074161982007,37.503881910675744],[127.07422089007264,37.5038672782693],[127.07428115935787,37.503856879685635],[127.07432717294128,37.50385217515559],[127.07434233740719,37.50385062510177],[127.07439820412499,37.50384860845366],[127.07446549758336,37.50385090951407],[127.07452657497583,37.50385744906853],[127.0745347191788,37.50385888563181],[127.07460077906237,37.50387190925373],[127.07464557553827,37.50388323410692],[127.07479740319786,37.50392772140512],[127.07512991784,37.504025164836335],[127.07518570524444,37.50410346282348],[127.07500235251443,37.504884742194584],[127.07500225071391,37.504884727841954],[127.07493106015394,37.50518851288293]]]},"properties":{"OBJECTID":84554,"PRESENT_SN":"11000UQ181PS201912151030","LCLAS_CL":"UQ1200","MLSFC_CL":"UQ1240","SCLAS_CL":" ","ATRB_SE":"UQ1240","WTNNC_SN":"11000AGZ201607250294","NTFC_SN":"11000NTC201512177681","DGM_NM":"잠실우성아파트 주택재건축 정비사업","SIGNGU_SE":"11000","DRAWING_NO":" ","CREATE_DAT":1576368000000,"DGM_AR":120353.7262218,"DGM_LT":1472.70962388,"SHAPE.AREA":120353.7262218,"SHAPE.LEN":1472.70962388079}}]}