{"type":"FeatureCollection","features":[{"type":"Feature","id":86447,"geometry":{"type":"Polygon","coordinates":[[[127.06781182532616,37.58425237863233],[127.06780416467801,37.58426974492784],[127.06774604649677,37.58440537588795],[127.06768087670939,37.584543254222964],[127.06766375676594,37.58457981680335],[127.06760695546079,37.58470722996148],[127.06761763327961,37.58470890882625],[127.067614619221,37.58471889343428],[127.06760780096607,37.5847415570393],[127.06759772030777,37.584775043306955],[127.0675586054322,37.5849049422663],[127.06753704408159,37.58497639347153],[127.06751916910876,37.58506843914052],[127.0674955740904,37.58518328293625],[127.06747022100883,37.58530742587766],[127.06742133836744,37.58554396186785],[127.0673839022221,37.58572958576514],[127.06735181509475,37.585882645048905],[127.06734108931033,37.58595526144435],[127.06731548580831,37.586091333522525],[127.06729546052526,37.58619782313433],[127.06728497927001,37.58629111699849],[127.0672723411315,37.58640368413811],[127.06726017480017,37.58651207043959],[127.06725725498413,37.586539236772985],[127.06725758959601,37.58671374843023],[127.06728403942616,37.58702455559506],[127.067104107246,37.58704736953783],[127.06688128908188,37.58707243239353],[127.0668101674894,37.58707630994911],[127.06676532325065,37.58706599143321],[127.06663558157875,37.58699805670591],[127.0664528366352,37.58683289865257],[127.06640426018691,37.586787885108755],[127.06636445405347,37.586750993614565],[127.06633374996531,37.586700050748725],[127.06631852427014,37.586650522935685],[127.06630409124932,37.58657500125893],[127.0662932677261,37.58652303836519],[127.06628088229097,37.5864716529575],[127.06627391889268,37.58644504167069],[127.06623916799646,37.58636208898794],[127.06620588155828,37.58630975998367],[127.06605939932709,37.58615316781507],[127.06585381762231,37.58595716254243],[127.0658219873721,37.58592560034645],[127.0657431628231,37.585818074607246],[127.06567573383684,37.58567747645451],[127.06566724992261,37.58565976769092],[127.06559378828359,37.58544175108252],[127.06557661475664,37.585390782643316],[127.06556652621275,37.585336936213636],[127.0655506083493,37.58525825277388],[127.0655267605581,37.58512113570886],[127.0655280880509,37.5849525605915],[127.06553063157321,37.584630700128606],[127.06550881408486,37.58462993710939],[127.06552308846915,37.584389294126936],[127.06551649845547,37.584388324635235],[127.06540130928023,37.58437156562363],[127.06544284833492,37.584225952863115],[127.0654509327211,37.5842003695016],[127.06548886182442,37.58405688500194],[127.06552570879691,37.58391910431305],[127.06553295457934,37.583892647443115],[127.06553789799979,37.58387464306744],[127.06556308529899,37.58377846719732],[127.06563517887548,37.58378942909939],[127.06568142238787,37.58379686413626],[127.06579696290794,37.58381501921305],[127.06591629658524,37.58383362260043],[127.06603118045321,37.583851642658196],[127.0660755667823,37.58385846588514],[127.06619675866308,37.58387860865823],[127.06632540077709,37.583899431966216],[127.06645702156194,37.58392144279658],[127.06665029440198,37.58395047419929],[127.06686006664158,37.584022644359685],[127.06688117167427,37.584037462900774],[127.06686730543397,37.584092340606574],[127.067010769305,37.5841145965381],[127.067155287212,37.58413804101023],[127.06728248221499,37.58416038674448],[127.0673825596206,37.584115678100034],[127.06739409136979,37.58407152336661],[127.06760265383642,37.58410592356063],[127.06767863252203,37.58411823351748],[127.067842659722,37.584143918676865],[127.06782526599605,37.58420349261111],[127.06781182532616,37.58425237863233]]]},"properties":{"OBJECTID":86447,"PRESENT_SN":"11230UQ181PS202308280001","LCLAS_CL":"UQ1200","MLSFC_CL":"UQ1220","SCLAS_CL":"UQ1221","ATRB_SE":"UQ1221","WTNNC_SN":"11230AGZ202304040001","NTFC_SN":"11230NTC202304040005","DGM_NM":"휘경 제5 주택정비형재개발사업","SIGNGU_SE":"11230","DRAWING_NO":" ","CREATE_DAT":1693180800000,"DGM_AR":49792.072307,"DGM_LT":1003.99255772,"SHAPE.AREA":49792.072307,"SHAPE.LEN":1003.99255771569}},{"type":"Feature","id":84579,"geometry":{"type":"Polygon","coordinates":[[[127.06781182532616,37.58425237863233],[127.06780416467801,37.58426974492784],[127.06774604649677,37.58440537588795],[127.06768087670939,37.584543254222964],[127.06766375676594,37.58457981680335],[127.06760695546079,37.58470722996148],[127.06761763327961,37.58470890882625],[127.067614619221,37.58471889343428],[127.06760780096607,37.5847415570393],[127.06759772030777,37.584775043306955],[127.0675586054322,37.5849049422663],[127.06753704408159,37.58497639347153],[127.06751916910876,37.58506843914052],[127.0674955740904,37.58518328293625],[127.06747022100883,37.58530742587766],[127.06742133836744,37.58554396186785],[127.0673839022221,37.58572958576514],[127.06735181509475,37.585882645048905],[127.06734108931033,37.58595526144435],[127.06731548580831,37.586091333522525],[127.06729546052526,37.58619782313433],[127.06728497927001,37.58629111699849],[127.0672723411315,37.58640368413811],[127.06726017480017,37.58651207043959],[127.06725725498413,37.586539236772985],[127.06725758959601,37.58671374843023],[127.06728403942616,37.58702455559506],[127.067104107246,37.58704736953783],[127.06688128908188,37.58707243239353],[127.0668101674894,37.58707630994911],[127.06676532325065,37.58706599143321],[127.06663558157875,37.58699805670591],[127.0664528366352,37.58683289865257],[127.06640426018691,37.586787885108755],[127.06636445405347,37.586750993614565],[127.06633374996531,37.586700050748725],[127.06631852427014,37.586650522935685],[127.06630409124932,37.58657500125893],[127.0662932677261,37.58652303836519],[127.06628088229097,37.5864716529575],[127.06627391889268,37.58644504167069],[127.06623916799646,37.58636208898794],[127.06620588155828,37.58630975998367],[127.06605939932709,37.58615316781507],[127.06585381762231,37.58595716254243],[127.0658219873721,37.58592560034645],[127.0657431628231,37.585818074607246],[127.06567573383684,37.58567747645451],[127.06566724992261,37.58565976769092],[127.06559378828359,37.58544175108252],[127.06557661475664,37.585390782643316],[127.06556652621275,37.585336936213636],[127.0655506083493,37.58525825277388],[127.0655267605581,37.58512113570886],[127.0655280880509,37.5849525605915],[127.06553063157321,37.584630700128606],[127.06550881408486,37.58462993710939],[127.06552308846915,37.584389294126936],[127.06551649845547,37.584388324635235],[127.06540130928023,37.58437156562363],[127.06544284833492,37.584225952863115],[127.0654509327211,37.5842003695016],[127.06548886182442,37.58405688500194],[127.06552570879691,37.58391910431305],[127.06553295457934,37.583892647443115],[127.06553789799979,37.58387464306744],[127.06556308529899,37.58377846719732],[127.06563517887548,37.58378942909939],[127.06568142238787,37.58379686413626],[127.06579696290794,37.58381501921305],[127.06591629658524,37.58383362260043],[127.06603118045321,37.583851642658196],[127.0660755667823,37.58385846588514],[127.06619675866308,37.58387860865823],[127.06632540077709,37.583899431966216],[127.06645702156194,37.58392144279658],[127.06665029440198,37.58395047419929],[127.06686006664158,37.584022644359685],[127.06688117167427,37.584037462900774],[127.06686730543397,37.584092340606574],[127.067010769305,37.5841145965381],[127.067155287212,37.58413804101023],[127.06728248221499,37.58416038674448],[127.0673825596206,37.584115678100034],[127.06739409136979,37.58407152336661],[127.06760265383642,37.58410592356063],[127.06767863252203,37.58411823351748],[127.067842659722,37.584143918676865],[127.06782526599605,37.58420349261111],[127.06781182532616,37.58425237863233]]]},"properties":{"OBJECTID":84579,"PRESENT_SN":"11230UQ181PS202308280001","LCLAS_CL":"UQ1200","MLSFC_CL":"UQ1220","SCLAS_CL":"UQ1221","ATRB_SE":"UQ1221","WTNNC_SN":"11230AGZ202304040001","NTFC_SN":"11230NTC202304040005","DGM_NM":"휘경 제5 주택정비형재개발사업","SIGNGU_SE":"11230","DRAWING_NO":" ","CREATE_DAT":1693180800000,"DGM_AR":49792.072307,"DGM_LT":1003.99255772,"SHAPE.AREA":49792.072307,"SHAPE.LEN":1003.99255771569}}]}