{"type":"FeatureCollection","features":[{"type":"Feature","id":86886,"geometry":{"type":"Polygon","coordinates":[[[127.0528011080563,37.641546428179645],[127.05272464902589,37.64163562566391],[127.05261083801275,37.64177736622907],[127.05254100332053,37.6418681518475],[127.05244452284765,37.641997087276415],[127.05238706722764,37.64208110112097],[127.05232761123426,37.6421228870142],[127.05232216357288,37.642076272818876],[127.05234905862682,37.64200498495826],[127.0523345507448,37.6419976122069],[127.05230831188878,37.64198428003716],[127.05234552609076,37.64184238718711],[127.05237020501743,37.64181127663426],[127.05242019617779,37.641697577024075],[127.05239333907029,37.6416547651753],[127.05236210937356,37.64163651583464],[127.05238492638911,37.641563463802974],[127.05240737407887,37.64150382747162],[127.05228357192078,37.64152281032556],[127.05227772162252,37.64148714316619],[127.05236011933378,37.641462947094],[127.05228731993876,37.64143616356426],[127.05231731288741,37.641372116422815],[127.052337242826,37.64137545046536],[127.05234893826145,37.641276157768225],[127.05236080086456,37.641162845794554],[127.05234716363918,37.64113600255607],[127.05188172801618,37.64102009142863],[127.05204557921924,37.64078994068116],[127.0520546220712,37.64069159696685],[127.0520599231582,37.64063930919625],[127.05202884432008,37.64053854822009],[127.05207779064875,37.6405053082328],[127.0521648065589,37.64042257923918],[127.0524625350353,37.64016721326741],[127.05254505753923,37.64004275266764],[127.05257118086794,37.64000408944827],[127.05261292345449,37.63988884541158],[127.05262549605773,37.63978744399552],[127.05262492609481,37.6397823897604],[127.05257535360927,37.63966116672011],[127.05264940242299,37.63967173014778],[127.05282236084741,37.63956165476595],[127.05294156043723,37.63955369229855],[127.05300424203398,37.63954979076293],[127.05307316001795,37.639694007122145],[127.05318126399287,37.639749396966344],[127.05325018548602,37.63976717908883],[127.05325912702443,37.639770283539626],[127.05326930698251,37.63977509029345],[127.05335795344055,37.63982781260486],[127.05336462106087,37.639832557825066],[127.05337330381889,37.63984150972272],[127.05344318745271,37.63993919897379],[127.05352995213975,37.6399380435488],[127.05354775293868,37.64000489721536],[127.05354357330353,37.6400715533471],[127.05415627294556,37.640173101036886],[127.05419144756584,37.64021055697838],[127.05419338544863,37.64021438706796],[127.05420558457246,37.64027378124011],[127.0542221374865,37.64028931570273],[127.05418780655607,37.64033643411456],[127.05413749066092,37.640376562657465],[127.05402996382703,37.64046093841011],[127.05396082160622,37.64051717210995],[127.05392661746417,37.64050322216235],[127.05378586480786,37.640618681736306],[127.05364983917356,37.64073163073177],[127.053541404063,37.640821360041095],[127.05341415948911,37.640932340759456],[127.0533723313207,37.6409691460396],[127.05315972551033,37.64115707496146],[127.05303253107152,37.64129308978581],[127.05291958482852,37.64141223557981],[127.05289961110806,37.64143422271037],[127.0528011080563,37.641546428179645]]]},"properties":{"OBJECTID":86886,"PRESENT_SN":"11000UQ181PS201912150379","LCLAS_CL":"UQ1200","MLSFC_CL":"UQ1220","SCLAS_CL":"UQ1221","ATRB_SE":"UQ1221","WTNNC_SN":"11000AGZ201211148211","NTFC_SN":"11000NTC201110136271","DGM_NM":"월계4주택재개발사업구역","SIGNGU_SE":"11000","DRAWING_NO":" ","CREATE_DAT":1576368000000,"DGM_AR":24005.6947996,"DGM_LT":821.47766189,"SHAPE.AREA":24005.69479962,"SHAPE.LEN":821.4776618837451}}]}