{"type":"FeatureCollection","features":[{"type":"Feature","id":84854,"geometry":{"type":"Polygon","coordinates":[[[126.94257866458825,37.50867998784027],[126.94256403179506,37.50869109343929],[126.94252281134048,37.50872766686591],[126.94237817878722,37.50884257982049],[126.94228742339435,37.508907083597244],[126.94222888632713,37.50894418252762],[126.9421224655204,37.508990755676194],[126.94206187059713,37.50906968859184],[126.94200034132619,37.509171407224066],[126.94203283013401,37.50919265108226],[126.94217170650144,37.50928122588586],[126.94218089613376,37.50928832134998],[126.94217526035744,37.50931530338488],[126.94216779442067,37.50935105120253],[126.9421400131043,37.50934090102358],[126.9421282780658,37.50933455210435],[126.94199367126926,37.50927732329233],[126.94199009083046,37.50927682954372],[126.94197830560715,37.509275309929215],[126.94196649994211,37.509273895719886],[126.94195467496704,37.50927258601532],[126.9419528123171,37.50927239586673],[126.94195272402689,37.50927248411995],[126.94192537698747,37.509285219438084],[126.94190085947959,37.509309696171194],[126.9417981649043,37.50924951174804],[126.94178381676672,37.50926504669537],[126.94177799311448,37.50926504194848],[126.94176668285506,37.50926503352536],[126.94175537259639,37.50926502420012],[126.94174406233698,37.50926501577482],[126.94173275207831,37.509265006447436],[126.94172144181891,37.509264998019944],[126.94171691884603,37.50926499482943],[126.9416829880614,37.50926497764818],[126.94162968958499,37.509264950640194],[126.94158758662222,37.50929669844928],[126.94157287048965,37.50928439237104],[126.9415543121805,37.50926794876365],[126.94154907915112,37.50926483226097],[126.94150728435774,37.50926479121497],[126.94150728557156,37.50926327483733],[126.94150729278392,37.50925426486906],[126.9415072999963,37.50924525490077],[126.94150730424079,37.50923995253443],[126.94144679154581,37.509203914326875],[126.94151012731425,37.5091494812353],[126.94150737908478,37.50914645429062],[126.94150737933215,37.5091461452487],[126.94150738654449,37.50913713528026],[126.94150739375681,37.50912812531181],[126.94150740096916,37.509119115343324],[126.94150740818147,37.50911010537482],[126.9415074153938,37.509101095406315],[126.9415074226061,37.50909208543778],[126.9415074298184,37.50908307546925],[126.94150743703072,37.509074065500705],[126.941507444243,37.50906505553213],[126.94150745145534,37.509056045563575],[126.94150745866763,37.50904703559497],[126.94150746587994,37.509038025626374],[126.94150747309222,37.50902901565775],[126.9415074803045,37.50902000568912],[126.94150748751679,37.50901099572048],[126.94150749472907,37.50900198575182],[126.94150750194135,37.50899297578315],[126.94150750915362,37.50898396581445],[126.9415075163659,37.50897495584576],[126.94150752357817,37.50896594587704],[126.94150753079045,37.5089569359083],[126.9415075380027,37.50894792593955],[126.94150754521495,37.5089389159708],[126.9415075524272,37.50892990600205],[126.94150755963946,37.50892089603325],[126.94150756685171,37.50891188606447],[126.94150757406396,37.50890287609565],[126.94150758127618,37.50889386612682],[126.94150758848843,37.50888485615798],[126.94150759570068,37.50887584618913],[126.9415076029129,37.50886683622025],[126.94150761012514,37.50885782625137],[126.94150761733736,37.50884881628247],[126.94150762454959,37.50883980631357],[126.94150763176184,37.508830796344654],[126.94150763897404,37.5088217863757],[126.94150764618624,37.50881277640677],[126.94150765339846,37.508803766437794],[126.94150766061067,37.50879475646883],[126.94150766782286,37.508785746499825],[126.9415076750351,37.50877673653083],[126.94150768224726,37.5087677265618],[126.94150768945947,37.50875871659277],[126.94150769667166,37.50874970662373],[126.94150770388384,37.50874069665467],[126.94150771109602,37.508731686685586],[126.94150771830819,37.50872267671649],[126.94150772552037,37.508713666747404],[126.94150773273257,37.508704656778264],[126.94150773994471,37.508695646809144],[126.94150774715689,37.50868663684],[126.94150775436907,37.50867762687084],[126.94150776158122,37.508668616901666],[126.94150776879339,37.50865960693249],[126.94150777600554,37.508650596963285],[126.94150778321769,37.50864158699407],[126.94150779042984,37.508632577024834],[126.94150779764199,37.5086235670556],[126.94150780485411,37.50861455708635],[126.94150781206626,37.50860554711708],[126.94150781927839,37.50859653714779],[126.94150782649054,37.5085875271785],[126.94150783370269,37.50857851720918],[126.94150784091481,37.50856950723986],[126.94150784812693,37.50856049727052],[126.94150785533905,37.508551487301176],[126.94150786255116,37.508542477331815],[126.94150786976329,37.50853346736242],[126.94150787697541,37.50852445739303],[126.94150788418747,37.50851544742362],[126.94150789139958,37.50850643745421],[126.9415078986117,37.50849742748477],[126.9415079058238,37.50848841751532],[126.94150791303588,37.508479407545856],[126.94150792024797,37.508470397576374],[126.94150792746005,37.508461387606886],[126.94150793467215,37.50845237763737],[126.94150794188424,37.50844336766786],[126.94150794909629,37.508434357698334],[126.94150795630839,37.508425347728775],[126.94150796352044,37.508416337759236],[126.94150797073253,37.50840732778964],[126.94150797794458,37.50839831782007],[126.94150798515666,37.508389307850464],[126.9415079923687,37.50838029788084],[126.94150799958075,37.50837128791121],[126.94150800679283,37.50836227794157],[126.94150801400484,37.50835326797193],[126.94150802121692,37.508344258002246],[126.94150802842897,37.50833524803256],[126.941508035641,37.50832623806287],[126.94150804285302,37.50831722809314],[126.94150805006505,37.50830821812343],[126.94150812283574,37.50821730572613],[126.94150820602951,37.508113371217725],[126.94148499886043,37.50811335942668],[126.94139919159971,37.508182285336574],[126.94130949214313,37.50812474701258],[126.94129631136758,37.50811628893879],[126.94129159070526,37.508113260983066],[126.94119582706186,37.50811321212272],[126.94115644307456,37.508113192005794],[126.94113007971887,37.50813928763398],[126.9411152624974,37.50815456097406],[126.9410490820676,37.50811313710017],[126.94089197477167,37.50811305657788],[126.9409323908369,37.508081546909374],[126.94093248906202,37.50807756184835],[126.94093344710285,37.50804107825298],[126.9408821658025,37.508009236824044],[126.94087555383425,37.50800376437595],[126.94092050068207,37.50794704262465],[126.94093043680766,37.507925763459546],[126.94092714178518,37.507843692619225],[126.94092332245606,37.50774844352044],[126.94090008593308,37.50748552865457],[126.94090007587428,37.507485379984814],[126.94090059504012,37.50748533430034],[126.9408982641182,37.50745867258927],[126.94089646355782,37.50743350680599],[126.94088780745565,37.507312534442036],[126.94088626418967,37.50729088268025],[126.94087664477107,37.507158404079874],[126.94086773201077,37.50715904822266],[126.94085884056959,37.50706344782053],[126.94085004510026,37.50697506445579],[126.94084154135375,37.50688959146102],[126.94085373402699,37.50688885890476],[126.94084737698067,37.50683403894868],[126.94084656828973,37.50682709184214],[126.94098153614661,37.50681861962402],[126.94101486809342,37.50681653737531],[126.94115360227303,37.506807859659986],[126.9412747034126,37.506800281018094],[126.94138665435837,37.50679328324335],[126.9413998989098,37.50679245205636],[126.94144048084003,37.506789913868005],[126.94145190440449,37.5067891988788],[126.94155383459925,37.506754111755654],[126.94157668682926,37.50674628467399],[126.94161138016071,37.506781351077784],[126.94163537266488,37.50676190169427],[126.94174322097264,37.50682214295083],[126.94186808534583,37.506818241674814],[126.94198040953509,37.506796944694365],[126.94199170919484,37.50680983465388],[126.94203220010662,37.506807962954575],[126.94208999364936,37.50680799204163],[126.94209003433353,37.50680803170598],[126.94210729766101,37.50680529955438],[126.94217103577465,37.50679521068542],[126.942261212461,37.50687596280957],[126.94235388838142,37.50695872083509],[126.94246340479958,37.50705608336651],[126.94249459764598,37.50708475067691],[126.94256963184255,37.507165877919334],[126.94267632446486,37.50725927445202],[126.94276617347128,37.5073424812397],[126.94286970035752,37.507435155222645],[126.94290349241965,37.507466887105124],[126.9429406749043,37.5075019543496],[126.94300475427117,37.50756388463188],[126.9430515290703,37.50762625681451],[126.94307062248473,37.507652575388065],[126.94313816729316,37.50776703546134],[126.94315962823755,37.50780317606179],[126.94318097645267,37.50783886610376],[126.94325267242755,37.507944548839205],[126.94307385944231,37.50809069238796],[126.9430808374228,37.50813466451193],[126.9431188989503,37.508203339333036],[126.94310970977652,37.50838443525721],[126.94310789531224,37.50839065124171],[126.94307047263037,37.508517943654454],[126.94306739971667,37.50868759992594],[126.9431085210309,37.5088940387401],[126.94312280805971,37.508891171622],[126.94314234727096,37.508955476442836],[126.94319041538253,37.50911579660409],[126.94320636352427,37.509173062850536],[126.94321211604067,37.50923689233222],[126.94322661778757,37.509336153340044],[126.94322537982552,37.509342766048555],[126.9432150336174,37.50936838530276],[126.94317549775414,37.50946384445457],[126.94314628550119,37.50953359423428],[126.94307509437995,37.50962583916413],[126.94298304000856,37.50973985261624],[126.94292254909807,37.509704907186624],[126.94293046038129,37.50969515331153],[126.94291270079633,37.50968371084875],[126.9428145483336,37.50962775524234],[126.9426613816199,37.50952990281952],[126.9426762596077,37.50950920531647],[126.94256781165764,37.50945773134083],[126.94256279089471,37.50945644941929],[126.94254032951501,37.50948410152361],[126.94253922161013,37.5094834603615],[126.94253006556046,37.50947817144154],[126.9425209095128,37.50947288161987],[126.94251175346571,37.50946759269849],[126.94250259742061,37.50946230287539],[126.94249344137687,37.5094570130516],[126.94248428533363,37.50945172412807],[126.94247512929245,37.509446434302845],[126.94246964403399,37.509443265457136],[126.94244059804312,37.509480616188505],[126.94232908134705,37.50940538116338],[126.94231851226604,37.509397735411376],[126.94234107439506,37.50937577409752],[126.94233750275055,37.50937416042433],[126.94232705341959,37.50936956010351],[126.94232343761578,37.50936800947759],[126.9423674286666,37.50932680638648],[126.94248954488846,37.50921293637288],[126.94249857589023,37.50920605726648],[126.94251175550384,37.50921640729822],[126.94263261022182,37.509311342606956],[126.94271613508815,37.50935651516091],[126.94290319007052,37.50919026601865],[126.94307199733956,37.50904299156035],[126.94304426894195,37.508906981314546],[126.94298900670042,37.508704860260295],[126.94300009855093,37.50869477458561],[126.94298033170311,37.50866151799238],[126.9430024902755,37.508524271942235],[126.94300272433125,37.508511313013805],[126.94300684424627,37.5084973000412],[126.94300968551903,37.5084797004658],[126.94290326368677,37.50843068030774],[126.94286319404515,37.508485711355966],[126.94286189209559,37.50848735052464],[126.94285601567832,37.50847824843481],[126.94278114186042,37.508580118531796],[126.94278592571206,37.508583449194276],[126.94271343128943,37.50857870091444],[126.94261597337345,37.508648443612415],[126.94260127283997,37.50865941042877],[126.94259253724559,37.5086646769059],[126.94257866458825,37.50867998784027]]]},"properties":{"OBJECTID":84854,"PRESENT_SN":"11000UQ181PS202408270002","LCLAS_CL":"UQ1200","MLSFC_CL":"UQ1220","SCLAS_CL":"UQ1221","ATRB_SE":"UQ1221","WTNNC_SN":"11000AGZ202408070002","NTFC_SN":"11000NTC202408070004","DGM_NM":"노량진4재정비촉진구역","SIGNGU_SE":"11000","DRAWING_NO":" ","CREATE_DAT":1724716800000,"DGM_AR":40723.50626357,"DGM_LT":1322.68085331,"SHAPE.AREA":40723.51037436,"SHAPE.LEN":1322.6807311750301}}]}