{"type":"FeatureCollection","features":[{"type":"Feature","id":86558,"geometry":{"type":"Polygon","coordinates":[[[126.91490585064169,37.45339828211673],[126.91490585632066,37.453398257793744],[126.91494381270073,37.45340980315645],[126.91500627287517,37.45338875454588],[126.91504088964356,37.453324639989724],[126.9150468881793,37.4533142557833],[126.91505321771268,37.45330399705846],[126.91505985563576,37.45329386740265],[126.9150668087192,37.45328387583082],[126.91507407810246,37.45327401423471],[126.91508165357847,37.453264313241],[126.91508525711441,37.453259937889726],[126.91519528144586,37.453197060525135],[126.91518513933812,37.45320480356829],[126.91517693680804,37.4532114001462],[126.91516767163624,37.45321921410686],[126.91515865488483,37.453227217459464],[126.91514989786606,37.453235401202285],[126.91514140059024,37.453243756325364],[126.91513316306778,37.45325227381867],[126.9151251966006,37.45326095369054],[126.91511750119898,37.45326978693094],[126.91511009946673,37.45327877355649],[126.91510296881056,37.453287904540645],[126.91509613183419,37.453297179899984],[126.91508958855843,37.453306581614484],[126.91508333897295,37.45331611869423],[126.91507738309862,37.45332577311914],[126.91507174354953,37.453335535895775],[126.91506640901358,37.45334541602593],[126.91506137951157,37.45335539548961],[126.91505721042012,37.45336409615442],[126.91505317727116,37.453372517606795],[126.91504914413167,37.45338093004893],[126.91504511098091,37.45338935150101],[126.91504108914145,37.45339776395113],[126.91504076512999,37.4533984403693],[126.91503705598892,37.45340618540288],[126.91503302283543,37.453414606854494],[126.91502898969142,37.4534230192959],[126.91502495653616,37.45343144074721],[126.91502092339033,37.45343985318831],[126.91501689023323,37.45344827463931],[126.91501286838746,37.45345668708838],[126.91500883522856,37.45346510853909],[126.91500480207911,37.4534735209796],[126.9150007689184,37.453481942429974],[126.91499673576716,37.45349035487018],[126.91499270260464,37.453498776320274],[126.91498866945156,37.4535071887602],[126.91498464758908,37.45351561021825],[126.91498061442384,37.4535240316679],[126.91497658126805,37.453532444107346],[126.91497254810103,37.453540865556704],[126.91496851494345,37.453549277995855],[126.91496448177455,37.45355769944488],[126.91496044861516,37.45356611188374],[126.91495641544451,37.45357453333247],[126.91495239358517,37.453582945779296],[126.91494836041267,37.453591367227716],[126.91494432724969,37.453599779665964],[126.91494029407536,37.453608201114115],[126.91493626091054,37.45361661355204],[126.91493222773444,37.453625034999874],[126.91492819455739,37.45363345644756],[126.91492417269176,37.45364186889333],[126.91492013951293,37.453650290340725],[126.9149161063436,37.4536587027779],[126.91491207316294,37.45366712422497],[126.9149080399918,37.453675536661855],[126.91490400680934,37.45368395810864],[126.91490305969384,37.45368593331984],[126.91490000864104,37.453692397601046],[126.91489598675865,37.453700819055804],[126.91489195358388,37.45370923149209],[126.91488792039782,37.45371765293826],[126.91488402319717,37.45372575913201],[126.91488030752211,37.45373326178494],[126.9148764675775,37.45374071929637],[126.91487249205102,37.453748140668054],[126.91486839225492,37.45375551689821],[126.91486417949105,37.45376284799512],[126.9148598311556,37.45377013394219],[126.9148553698627,37.45377736574593],[126.91485077298782,37.45378456140986],[126.9148503008744,37.453785275561096],[126.91487102116511,37.45367705385344],[126.91493615698637,37.453541063255166],[126.91490855498846,37.45349254820765],[126.91488942087194,37.45348672450115],[126.91487863546453,37.4534799013893],[126.91481754517015,37.453517418616435],[126.9146824623429,37.453832824577624],[126.91465906553888,37.453893066637846],[126.91461702931339,37.45397500922352],[126.91452932795258,37.454002866871726],[126.91435255727094,37.454000339966186],[126.9141695391476,37.454005367615835],[126.91403345674637,37.45398231835921],[126.91388436044326,37.453973639345996],[126.91387364002202,37.45393050927201],[126.91382301088835,37.45385974278321],[126.91377632982939,37.45381491014284],[126.91368062799306,37.453744912018664],[126.91361503542338,37.45372247326673],[126.91355639969848,37.45372374511247],[126.91355016125611,37.45371391950891],[126.9135432296018,37.4537073370091],[126.91353980894041,37.45370408183287],[126.91342630958759,37.45362224004951],[126.91327777131731,37.45351440502132],[126.9132107034199,37.45347818856717],[126.91319774075214,37.45345848289912],[126.91331037509885,37.45338144092923],[126.91331477504595,37.45337843485396],[126.91332240999344,37.453373151648265],[126.91343156141177,37.45329756659181],[126.91347547074557,37.45326717234698],[126.91352263844709,37.45324345696337],[126.91354298239709,37.453233236683275],[126.91354769802783,37.45323087054823],[126.91354822953272,37.453230597939125],[126.91355291124393,37.4532282434917],[126.9135861655752,37.453218714872996],[126.91358990320548,37.45321764815984],[126.91366585428608,37.45319588227985],[126.91385796781536,37.453162327305165],[126.9139277393871,37.45314792689975],[126.91398210386036,37.453194044603855],[126.91407099541408,37.453230502021675],[126.91409542153609,37.45321831146415],[126.91428558403894,37.4531713023369],[126.91446617156446,37.453106608120315],[126.91446850319576,37.45307436284446],[126.91453164162823,37.453049154138725],[126.91460793387252,37.453064257056084],[126.91469963552215,37.45303589771966],[126.91474432889464,37.453118687911214],[126.91478542701296,37.453192879852566],[126.91483792210411,37.453282631494865],[126.91490585064169,37.45339828211673]]]},"properties":{"OBJECTID":86558,"PRESENT_SN":"11000UQ181PS202001280002","LCLAS_CL":"UQ1200","MLSFC_CL":"UQ1240","SCLAS_CL":" ","ATRB_SE":"UQ1240","WTNNC_SN":"11000AGZ202001280002","NTFC_SN":"11000NTC202001280012","DGM_NM":"시흥동 현대아파트 재건축정비사업","SIGNGU_SE":"11000","DRAWING_NO":"17","CREATE_DAT":1580169600000,"DGM_AR":10573.46507268,"DGM_LT":558.93829105,"SHAPE.AREA":10573.465072665002,"SHAPE.LEN":558.9382910498921}},{"type":"Feature","id":84538,"geometry":{"type":"Polygon","coordinates":[[[126.91490585064169,37.45339828211673],[126.91490585632066,37.453398257793744],[126.91494381270073,37.45340980315645],[126.91500627287517,37.45338875454588],[126.91504088964356,37.453324639989724],[126.9150468881793,37.4533142557833],[126.91505321771268,37.45330399705846],[126.91505985563576,37.45329386740265],[126.9150668087192,37.45328387583082],[126.91507407810246,37.45327401423471],[126.91508165357847,37.453264313241],[126.91508525711441,37.453259937889726],[126.91519528144586,37.453197060525135],[126.91518513933812,37.45320480356829],[126.91517693680804,37.4532114001462],[126.91516767163624,37.45321921410686],[126.91515865488483,37.453227217459464],[126.91514989786606,37.453235401202285],[126.91514140059024,37.453243756325364],[126.91513316306778,37.45325227381867],[126.9151251966006,37.45326095369054],[126.91511750119898,37.45326978693094],[126.91511009946673,37.45327877355649],[126.91510296881056,37.453287904540645],[126.91509613183419,37.453297179899984],[126.91508958855843,37.453306581614484],[126.91508333897295,37.45331611869423],[126.91507738309862,37.45332577311914],[126.91507174354953,37.453335535895775],[126.91506640901358,37.45334541602593],[126.91506137951157,37.45335539548961],[126.91505721042012,37.45336409615442],[126.91505317727116,37.453372517606795],[126.91504914413167,37.45338093004893],[126.91504511098091,37.45338935150101],[126.91504108914145,37.45339776395113],[126.91504076512999,37.4533984403693],[126.91503705598892,37.45340618540288],[126.91503302283543,37.453414606854494],[126.91502898969142,37.4534230192959],[126.91502495653616,37.45343144074721],[126.91502092339033,37.45343985318831],[126.91501689023323,37.45344827463931],[126.91501286838746,37.45345668708838],[126.91500883522856,37.45346510853909],[126.91500480207911,37.4534735209796],[126.9150007689184,37.453481942429974],[126.91499673576716,37.45349035487018],[126.91499270260464,37.453498776320274],[126.91498866945156,37.4535071887602],[126.91498464758908,37.45351561021825],[126.91498061442384,37.4535240316679],[126.91497658126805,37.453532444107346],[126.91497254810103,37.453540865556704],[126.91496851494345,37.453549277995855],[126.91496448177455,37.45355769944488],[126.91496044861516,37.45356611188374],[126.91495641544451,37.45357453333247],[126.91495239358517,37.453582945779296],[126.91494836041267,37.453591367227716],[126.91494432724969,37.453599779665964],[126.91494029407536,37.453608201114115],[126.91493626091054,37.45361661355204],[126.91493222773444,37.453625034999874],[126.91492819455739,37.45363345644756],[126.91492417269176,37.45364186889333],[126.91492013951293,37.453650290340725],[126.9149161063436,37.4536587027779],[126.91491207316294,37.45366712422497],[126.9149080399918,37.453675536661855],[126.91490400680934,37.45368395810864],[126.91490305969384,37.45368593331984],[126.91490000864104,37.453692397601046],[126.91489598675865,37.453700819055804],[126.91489195358388,37.45370923149209],[126.91488792039782,37.45371765293826],[126.91488402319717,37.45372575913201],[126.91488030752211,37.45373326178494],[126.9148764675775,37.45374071929637],[126.91487249205102,37.453748140668054],[126.91486839225492,37.45375551689821],[126.91486417949105,37.45376284799512],[126.9148598311556,37.45377013394219],[126.9148553698627,37.45377736574593],[126.91485077298782,37.45378456140986],[126.9148503008744,37.453785275561096],[126.91487102116511,37.45367705385344],[126.91493615698637,37.453541063255166],[126.91490855498846,37.45349254820765],[126.91488942087194,37.45348672450115],[126.91487863546453,37.4534799013893],[126.91481754517015,37.453517418616435],[126.9146824623429,37.453832824577624],[126.91465906553888,37.453893066637846],[126.91461702931339,37.45397500922352],[126.91452932795258,37.454002866871726],[126.91435255727094,37.454000339966186],[126.9141695391476,37.454005367615835],[126.91403345674637,37.45398231835921],[126.91388436044326,37.453973639345996],[126.91387364002202,37.45393050927201],[126.91382301088835,37.45385974278321],[126.91377632982939,37.45381491014284],[126.91368062799306,37.453744912018664],[126.91361503542338,37.45372247326673],[126.91355639969848,37.45372374511247],[126.91355016125611,37.45371391950891],[126.9135432296018,37.4537073370091],[126.91353980894041,37.45370408183287],[126.91342630958759,37.45362224004951],[126.91327777131731,37.45351440502132],[126.9132107034199,37.45347818856717],[126.91319774075214,37.45345848289912],[126.91331037509885,37.45338144092923],[126.91331477504595,37.45337843485396],[126.91332240999344,37.453373151648265],[126.91343156141177,37.45329756659181],[126.91347547074557,37.45326717234698],[126.91352263844709,37.45324345696337],[126.91354298239709,37.453233236683275],[126.91354769802783,37.45323087054823],[126.91354822953272,37.453230597939125],[126.91355291124393,37.4532282434917],[126.9135861655752,37.453218714872996],[126.91358990320548,37.45321764815984],[126.91366585428608,37.45319588227985],[126.91385796781536,37.453162327305165],[126.9139277393871,37.45314792689975],[126.91398210386036,37.453194044603855],[126.91407099541408,37.453230502021675],[126.91409542153609,37.45321831146415],[126.91428558403894,37.4531713023369],[126.91446617156446,37.453106608120315],[126.91446850319576,37.45307436284446],[126.91453164162823,37.453049154138725],[126.91460793387252,37.453064257056084],[126.91469963552215,37.45303589771966],[126.91474432889464,37.453118687911214],[126.91478542701296,37.453192879852566],[126.91483792210411,37.453282631494865],[126.91490585064169,37.45339828211673]]]},"properties":{"OBJECTID":84538,"PRESENT_SN":"11000UQ181PS202001280002","LCLAS_CL":"UQ1200","MLSFC_CL":"UQ1240","SCLAS_CL":" ","ATRB_SE":"UQ1240","WTNNC_SN":"11000AGZ202001280002","NTFC_SN":"11000NTC202001280012","DGM_NM":"시흥동 현대아파트 재건축정비사업","SIGNGU_SE":"11000","DRAWING_NO":"17","CREATE_DAT":1580169600000,"DGM_AR":10573.46507268,"DGM_LT":558.93829105,"SHAPE.AREA":10573.465072665002,"SHAPE.LEN":558.9382910498921}}]}