{"type":"FeatureCollection","features":[{"type":"Feature","id":86435,"geometry":{"type":"Polygon","coordinates":[[[127.05077562686024,37.577332032840914],[127.05079772970657,37.57735527177918],[127.05079315657086,37.57735755048161],[127.05071665500382,37.57739616264117],[127.05069867269502,37.57740538722839],[127.0506975551531,37.5774102440127],[127.05061176227136,37.57745339193753],[127.05053065282009,37.57749167252695],[127.05050553026263,37.57750560319964],[127.0504312036211,37.57754677307325],[127.05038000799377,37.577575400602825],[127.05037377222772,37.57757827733126],[127.05036950522538,37.577579594537646],[127.05028090522201,37.57762392367509],[127.05018080756264,37.577674681521046],[127.05007267490693,37.577729713263714],[127.04997244222626,37.57778218286247],[127.04988348126459,37.5778292598579],[127.04982524339917,37.57782572210152],[127.04979966003911,37.577824167553],[127.04979558892865,37.577818577694245],[127.04977398474604,37.577788913429956],[127.0497545980208,37.577762342244014],[127.04967508244137,37.57767514116958],[127.0496504614018,37.57764194984836],[127.04961578105676,37.57759843731221],[127.04960465515767,37.5775843233819],[127.04951505785192,37.57747069135082],[127.04948510301553,37.577432699902694],[127.04945726319056,37.57741106950801],[127.0494858662788,37.577334266785435],[127.0494823337872,37.57733352040161],[127.04946764082543,37.57728229626033],[127.04946012971907,37.57725592742677],[127.04943949680244,37.577174513624875],[127.04942053322014,37.57715419505804],[127.04938151978956,37.57711429716461],[127.0493005047685,37.577070451922815],[127.04923351897394,37.57699585928441],[127.04916844655031,37.576921382963064],[127.04913772202299,37.576884707174635],[127.04904783717187,37.576795347477685],[127.04896245073236,37.576730096312616],[127.04885398335601,37.57666692661139],[127.04884943548883,37.57667159554693],[127.04883545365895,37.57665201369622],[127.04880353788229,37.576610788312585],[127.04877718232513,37.5765724889019],[127.04874483172141,37.57652379449424],[127.04866938991826,37.57641218335738],[127.0486665911125,37.57640795884635],[127.04862474594725,37.57634623992442],[127.04860679645844,37.57631770381817],[127.04857274713882,37.57626761350893],[127.04848718776911,37.576159718349054],[127.04841673060439,37.57607082795255],[127.04836765253643,37.576009760519455],[127.04834517644755,37.575983397546665],[127.04832614283025,37.57595874507999],[127.04828394538404,37.5759121177047],[127.0482288116648,37.57585187070701],[127.04821971523297,37.57584193101276],[127.04821368870631,37.575835345379346],[127.04822107291645,37.57580446563272],[127.04834284687676,37.57573414040849],[127.0483639855727,37.57572193265797],[127.04843335394433,37.575681874257704],[127.04851126596768,37.57563688401677],[127.04856519890811,37.57560573343368],[127.04858534170899,37.57559410267186],[127.04861818125146,37.57557514181702],[127.04873191999926,37.575509459477736],[127.0487500937377,37.57549896471879],[127.04884978893291,37.57544138775663],[127.04891483402682,37.575403826539095],[127.04893506724669,37.57539214162173],[127.04903314395679,37.57533550218035],[127.04918206366064,37.57524950600085],[127.04934507149616,37.57515536801216],[127.04932384828271,37.575211949589864],[127.04942281520671,37.57537951109732],[127.04950371656024,37.57549594884426],[127.04951598665042,37.575564806298836],[127.0495130711599,37.575608099912785],[127.04955243281132,37.57566252154288],[127.04963250142701,37.57576829184805],[127.0496779536064,37.57582274699196],[127.04971262085932,37.57589986634454],[127.04979946210206,37.5760096251396],[127.0498395823988,37.57606367695518],[127.04989782282347,37.57614678717271],[127.04994372386957,37.57621197278155],[127.04993182132706,37.576239502815035],[127.0499826680326,37.57633740121581],[127.05003695923318,37.57642240505441],[127.05008090688096,37.57647746431647],[127.05012150087701,37.57652811010639],[127.05013883385645,37.576547672405326],[127.05014131485876,37.57655048246272],[127.05020917427238,37.57663250106635],[127.05023123141834,37.57665916117969],[127.05025253404366,37.57668490980148],[127.05028947917229,37.57672956457415],[127.05032186652538,37.576768710783334],[127.05035306432333,37.576806418599375],[127.05039552473897,37.57685773926025],[127.0503994526532,37.5768624867358],[127.05045723961453,37.5769323316239],[127.05053232679802,37.57702308661232],[127.05056137580627,37.57706023214693],[127.05056172363248,37.57706066898105],[127.0505643023036,37.57706390515551],[127.0506026742107,37.577112038845605],[127.05060587098082,37.577116992043024],[127.05060196700862,37.5771211661362],[127.05063256191306,37.57716607661538],[127.0506771823187,37.57720995412197],[127.0506783362134,37.57720873730929],[127.05069596479034,37.57723148078542],[127.05069674770827,37.57723249767341],[127.05069730512122,37.57723317047835],[127.05077562686024,37.577332032840914]]]},"properties":{"OBJECTID":86435,"PRESENT_SN":"11000UQ181PS201912151201","LCLAS_CL":"UQ1200","MLSFC_CL":"UQ1220","SCLAS_CL":"UQ1221","ATRB_SE":"UQ1221","WTNNC_SN":"11000AGZ201808060051","NTFC_SN":"11000NTC201808260001","DGM_NM":"전농 제11 주택재개발정비사업","SIGNGU_SE":"11000","DRAWING_NO":" ","CREATE_DAT":1576368000000,"DGM_AR":28242.03114506,"DGM_LT":780.32359126,"SHAPE.AREA":28242.031145035,"SHAPE.LEN":780.3235912577471}}]}