{"type":"FeatureCollection","features":[{"type":"Feature","id":86154,"geometry":{"type":"Polygon","coordinates":[[[126.94617825419242,37.481342946368805],[126.94619343802727,37.481450569097476],[126.94619828876601,37.48148065580809],[126.94621426237704,37.48159059447508],[126.94623958028833,37.48175458858628],[126.9459359986443,37.48178653985026],[126.94577646865183,37.48180255658921],[126.94564732063613,37.4818152447665],[126.94562347404143,37.481817891443214],[126.94552646045105,37.481827288008965],[126.945513197142,37.48182892154611],[126.94548514535221,37.48183063817027],[126.94546546049844,37.48183181815614],[126.94536020408307,37.481842039596316],[126.94534382035741,37.48184356351126],[126.94529501867417,37.481849459880856],[126.94524098342765,37.48185377698538],[126.94522470139815,37.48185537301236],[126.94511951271343,37.48186564833043],[126.94507808389073,37.4818698272164],[126.94490360502199,37.48188823229925],[126.94483591006964,37.48189498438697],[126.94480279220579,37.48189786972072],[126.94453152730655,37.481923273591384],[126.94435059289482,37.48194098998285],[126.94428545317821,37.48194755378102],[126.94426740767973,37.48194871634123],[126.94425796632109,37.48194966682803],[126.94414961132854,37.4819603632187],[126.94412387664676,37.4819628284757],[126.94403452892695,37.48197134455796],[126.94400917874331,37.48197368383683],[126.94396738824479,37.481977546806746],[126.94388497157448,37.481985525550485],[126.94384292090382,37.481989541519724],[126.94368136629807,37.482005473350846],[126.94357921872265,37.48201552353542],[126.94348472613244,37.482024613319936],[126.94347791735089,37.48198395679304],[126.94347657803077,37.48197605435294],[126.94347259383717,37.481952545269436],[126.94346062037374,37.48187980154378],[126.94345747175628,37.481857698432115],[126.94344323758345,37.481769717658594],[126.94343028270731,37.481679575107485],[126.94342575158247,37.48164697464777],[126.94342057976695,37.48160952648489],[126.94344755556475,37.48158101403877],[126.94353635024497,37.481570741175446],[126.9435677950737,37.481567386855225],[126.94361380322229,37.48156263410167],[126.94368705020861,37.48155466907902],[126.94371788458562,37.481551197289896],[126.94383755690036,37.48153990314811],[126.94387224706725,37.48153587457985],[126.94398801911697,37.481524082832046],[126.944017021869,37.4815206280931],[126.9441371235353,37.48150957712714],[126.94416909971116,37.48150620488484],[126.94422721851807,37.48149893496527],[126.9442583129077,37.4814954361311],[126.9442874737908,37.481492152592644],[126.94431242844766,37.48148934454157],[126.94445959921832,37.481475071753884],[126.94448212222223,37.48147336171457],[126.94462253138063,37.48145977022111],[126.94464953157305,37.48145807131553],[126.94472692743669,37.48145042299516],[126.94487486694699,37.481436041939354],[126.94491624994335,37.481432358653116],[126.94493544937565,37.48143007029434],[126.945015728038,37.48142267544554],[126.9450373468201,37.481420577437376],[126.94510065422176,37.481414291659554],[126.94525912136992,37.481397464424354],[126.94529159444882,37.4813947138058],[126.94543526038866,37.481379879513874],[126.94547040190525,37.48137683278211],[126.94560841425803,37.481362653328965],[126.9456454104088,37.48135899474162],[126.94580041683741,37.4813432823857],[126.94599134556331,37.481323478145],[126.94608900376775,37.48131289217691],[126.94612456384307,37.481309449006204],[126.94617825419242,37.481342946368805]]]},"properties":{"OBJECTID":86154,"PRESENT_SN":"11000UQ181PS201912150541","LCLAS_CL":"UQ1200","MLSFC_CL":"UQ1220","SCLAS_CL":"UQ1221","ATRB_SE":"UQ1221","WTNNC_SN":"11000AGZ200912297814","NTFC_SN":"11000NTC200912244313","DGM_NM":"봉천13구역주택재개발사업","SIGNGU_SE":"11000","DRAWING_NO":" ","CREATE_DAT":1576368000000,"DGM_AR":12272.38135156,"DGM_LT":586.63265815,"SHAPE.AREA":12272.3813515,"SHAPE.LEN":586.632658151746}},{"type":"Feature","id":85884,"geometry":{"type":"Polygon","coordinates":[[[126.94617825419242,37.481342946368805],[126.94619343802727,37.481450569097476],[126.94619828876601,37.48148065580809],[126.94621426237704,37.48159059447508],[126.94623958028833,37.48175458858628],[126.9459359986443,37.48178653985026],[126.94577646865183,37.48180255658921],[126.94564732063613,37.4818152447665],[126.94562347404143,37.481817891443214],[126.94552646045105,37.481827288008965],[126.945513197142,37.48182892154611],[126.94548514535221,37.48183063817027],[126.94546546049844,37.48183181815614],[126.94536020408307,37.481842039596316],[126.94534382035741,37.48184356351126],[126.94529501867417,37.481849459880856],[126.94524098342765,37.48185377698538],[126.94522470139815,37.48185537301236],[126.94511951271343,37.48186564833043],[126.94507808389073,37.4818698272164],[126.94490360502199,37.48188823229925],[126.94483591006964,37.48189498438697],[126.94480279220579,37.48189786972072],[126.94453152730655,37.481923273591384],[126.94435059289482,37.48194098998285],[126.94428545317821,37.48194755378102],[126.94426740767973,37.48194871634123],[126.94425796632109,37.48194966682803],[126.94414961132854,37.4819603632187],[126.94412387664676,37.4819628284757],[126.94403452892695,37.48197134455796],[126.94400917874331,37.48197368383683],[126.94396738824479,37.481977546806746],[126.94388497157448,37.481985525550485],[126.94384292090382,37.481989541519724],[126.94368136629807,37.482005473350846],[126.94357921872265,37.48201552353542],[126.94348472613244,37.482024613319936],[126.94347791735089,37.48198395679304],[126.94347657803077,37.48197605435294],[126.94347259383717,37.481952545269436],[126.94346062037374,37.48187980154378],[126.94345747175628,37.481857698432115],[126.94344323758345,37.481769717658594],[126.94343028270731,37.481679575107485],[126.94342575158247,37.48164697464777],[126.94342057976695,37.48160952648489],[126.94344755556475,37.48158101403877],[126.94353635024497,37.481570741175446],[126.9435677950737,37.481567386855225],[126.94361380322229,37.48156263410167],[126.94368705020861,37.48155466907902],[126.94371788458562,37.481551197289896],[126.94383755690036,37.48153990314811],[126.94387224706725,37.48153587457985],[126.94398801911697,37.481524082832046],[126.944017021869,37.4815206280931],[126.9441371235353,37.48150957712714],[126.94416909971116,37.48150620488484],[126.94422721851807,37.48149893496527],[126.9442583129077,37.4814954361311],[126.9442874737908,37.481492152592644],[126.94431242844766,37.48148934454157],[126.94445959921832,37.481475071753884],[126.94448212222223,37.48147336171457],[126.94462253138063,37.48145977022111],[126.94464953157305,37.48145807131553],[126.94472692743669,37.48145042299516],[126.94487486694699,37.481436041939354],[126.94491624994335,37.481432358653116],[126.94493544937565,37.48143007029434],[126.945015728038,37.48142267544554],[126.9450373468201,37.481420577437376],[126.94510065422176,37.481414291659554],[126.94525912136992,37.481397464424354],[126.94529159444882,37.4813947138058],[126.94543526038866,37.481379879513874],[126.94547040190525,37.48137683278211],[126.94560841425803,37.481362653328965],[126.9456454104088,37.48135899474162],[126.94580041683741,37.4813432823857],[126.94599134556331,37.481323478145],[126.94608900376775,37.48131289217691],[126.94612456384307,37.481309449006204],[126.94617825419242,37.481342946368805]]]},"properties":{"OBJECTID":85884,"PRESENT_SN":"11000UQ181PS201912150541","LCLAS_CL":"UQ1200","MLSFC_CL":"UQ1220","SCLAS_CL":"UQ1221","ATRB_SE":"UQ1221","WTNNC_SN":"11000AGZ200912297814","NTFC_SN":"11000NTC200912244313","DGM_NM":"봉천13구역주택재개발사업","SIGNGU_SE":"11000","DRAWING_NO":" ","CREATE_DAT":1576368000000,"DGM_AR":12272.38135156,"DGM_LT":586.63265815,"SHAPE.AREA":12272.3813515,"SHAPE.LEN":586.632658151746}}]}