{"type":"FeatureCollection","features":[{"type":"Feature","id":86112,"geometry":{"type":"Polygon","coordinates":[[[127.06198930432828,37.478106382737096],[127.06317489687758,37.478767060417944],[127.0643605102928,37.47942772611038],[127.06312754630605,37.48044416477051],[127.06204481986488,37.481336806029105],[127.06129675753651,37.481953488085495],[127.06124058023286,37.481999809946835],[127.06107528157835,37.48213605992263],[127.0609539290993,37.48223610605383],[127.06010572263776,37.48293530396701],[127.05913614304507,37.483734541765585],[127.05844870187069,37.48430118483359],[127.05839796059746,37.484343010315335],[127.0581665427967,37.48453376971368],[127.05794175420517,37.484514325552155],[127.05713607219765,37.48347278895532],[127.0570064880221,37.483305264557174],[127.05601255481051,37.482588050795584],[127.05501863833445,37.481870826770134],[127.05402474085598,37.4811535942824],[127.05402162392672,37.48106169350639],[127.05490513825005,37.4801958188487],[127.05578863218811,37.479329935670464],[127.0562627979135,37.47886520631442],[127.05667210348204,37.47846404577534],[127.05755555891761,37.47759815096276],[127.05761197121889,37.47759533108919],[127.05810924658411,37.47797450594613],[127.0581180689187,37.47797981763253],[127.05813062126941,37.477984046328714],[127.05813944122741,37.477986204507516],[127.05815074813437,37.47798800109285],[127.05817889949152,37.477988708398506],[127.05819065630837,37.47798744135733],[127.05819653396813,37.47798581673441],[127.05820150670752,37.47798356184391],[127.05821416163654,37.47797391505056],[127.0583449282411,37.4780722416555],[127.05878940266082,37.477696849800736],[127.05883934497706,37.477660154798485],[127.058968147231,37.47755503539966],[127.05887436935326,37.477482550287604],[127.05868376187578,37.47733785161445],[127.05858930580662,37.47726482600012],[127.05846287698081,37.4773690428453],[127.05834952994401,37.47728142990739],[127.05833066193017,37.477297386718845],[127.05819832250955,37.47721041346641],[127.0577624772494,37.477635264037296],[127.05765252516917,37.47755152312765],[127.05764898684306,37.47750656480299],[127.05825451182955,37.47691305577846],[127.0583996672422,37.476905417572546],[127.05833396788536,37.47688553703251],[127.05836638716697,37.47684966155159],[127.05843914342451,37.47678322266169],[127.05852185415173,37.476724527543645],[127.0586131634629,37.47667456793446],[127.05871160229601,37.47663415542749],[127.0588155883424,37.476603831373765],[127.05892353930365,37.47658413712881],[127.05903375969862,37.476575433908145],[127.0591368659395,37.4765774559808],[127.0600876673367,37.47708710713913],[127.0610384793788,37.477596748791065],[127.06198930432828,37.478106382737096]]]},"properties":{"OBJECTID":86112,"PRESENT_SN":"11000UQ181PS201912150495","LCLAS_CL":"UQ1200","MLSFC_CL":"UQ1240","SCLAS_CL":" ","ATRB_SE":"UQ1240","WTNNC_SN":"11000AGZ201303260090","NTFC_SN":"11000NTC201303076767","DGM_NM":"개포주공1단지 주택재건축 정비구역","SIGNGU_SE":"11000","DRAWING_NO":" ","CREATE_DAT":1576368000000,"DGM_AR":399736.73800989,"DGM_LT":2918.89766864,"SHAPE.AREA":399736.73800983,"SHAPE.LEN":2918.8976686445503}}]}