{"type":"FeatureCollection","features":[{"type":"Feature","id":86227,"geometry":{"type":"Polygon","coordinates":[[[127.05454360778052,37.59012213749532],[127.0544638003509,37.59012892169363],[127.05432188519295,37.590178350217705],[127.05423056923574,37.59021045707874],[127.0541298592497,37.59024786584678],[127.05402991753645,37.590283057764346],[127.0539371395459,37.59031348921654],[127.05384048122299,37.590348733574395],[127.05367325320292,37.590405542589444],[127.05363046439807,37.59042041872566],[127.05340718028926,37.59049663227863],[127.05321190165131,37.590564048546376],[127.05321615412727,37.5905734709846],[127.05310423337284,37.59061025309548],[127.05300566969852,37.590642037819414],[127.0529136162883,37.59067363041981],[127.05272530905077,37.590737538014736],[127.05245070347715,37.590828807639554],[127.05234236296558,37.590680256726074],[127.05228888325608,37.59060888570843],[127.05226696489402,37.59057865808509],[127.05226252683185,37.590562541375704],[127.05229525191334,37.590550129753304],[127.05241610449401,37.59046056487046],[127.05248548950149,37.59041144027277],[127.05258239603498,37.59034069811663],[127.05266549519334,37.59027912487884],[127.05277735015306,37.590196338926226],[127.05291985141686,37.590092105096915],[127.05294776441401,37.590080109841026],[127.05294512251952,37.59007465102393],[127.05317730265504,37.58989630781439],[127.05321133808536,37.58989649113163],[127.05326872143395,37.58994720044612],[127.05334956763656,37.59001800941417],[127.05338184318342,37.589994731809774],[127.05349991862343,37.59009919411458],[127.05363199039942,37.59002701204701],[127.05365509574501,37.59002152385663],[127.0537146552699,37.589993828291796],[127.05385085175436,37.58992696897473],[127.05386803221532,37.58991692438574],[127.05385880992576,37.589908630404715],[127.05399812452194,37.589800117003946],[127.05407687415679,37.589738625789664],[127.05406767330119,37.58972861093404],[127.05414794629264,37.58967282943568],[127.05411346099181,37.58964140403688],[127.05409045978513,37.58963375951513],[127.05404026934606,37.589588026239916],[127.05402882726095,37.58956917191429],[127.05403199521929,37.58951752605013],[127.05404987147803,37.58949884067915],[127.05401140645388,37.589478666718186],[127.05401395918125,37.58943768878882],[127.05385382959538,37.589393359353295],[127.05389696768455,37.58936078763459],[127.05389775620995,37.58935502098114],[127.05398939245809,37.58928045982014],[127.05412212511828,37.589168687621665],[127.0542172344371,37.58909067396141],[127.05427288940133,37.589178954639394],[127.05431715167275,37.58926365446584],[127.05435484719662,37.58933251789863],[127.0544182914262,37.589403559176],[127.05444835774804,37.589395193568286],[127.0545175508861,37.589366177837675],[127.05461072186863,37.589364982709164],[127.05467001051616,37.589435268892366],[127.05471411871069,37.58942989717344],[127.05471572389737,37.589489893035775],[127.0547587227226,37.58954838361051],[127.05480882812725,37.58956955216653],[127.05484027815521,37.58959622513729],[127.05478234538947,37.589665410891875],[127.05476175502022,37.589736174523445],[127.0547542438098,37.58979353460796],[127.05472266337995,37.58987006048016],[127.05465342653926,37.58991778079378],[127.05455057876634,37.589909501943175],[127.05456252114514,37.58995340156898],[127.05457458317022,37.589974425134436],[127.05456441587583,37.59002268645153],[127.05456073269079,37.590033878338204],[127.05454360778052,37.59012213749532]]]},"properties":{"OBJECTID":86227,"PRESENT_SN":"11000UQ181PS201912151235","LCLAS_CL":"UQ1200","MLSFC_CL":"UQ1220","SCLAS_CL":"UQ1221","ATRB_SE":"UQ1221","WTNNC_SN":"11000AGZ201108098012","NTFC_SN":"11000NTC201103256029","DGM_NM":"회기제1주택재개발구역","SIGNGU_SE":"11000","DRAWING_NO":" ","CREATE_DAT":1576368000000,"DGM_AR":13936.60425154,"DGM_LT":726.49908369,"SHAPE.AREA":13936.60425156,"SHAPE.LEN":726.49908369979}},{"type":"Feature","id":86113,"geometry":{"type":"Polygon","coordinates":[[[127.05454360778052,37.59012213749532],[127.0544638003509,37.59012892169363],[127.05432188519295,37.590178350217705],[127.05423056923574,37.59021045707874],[127.0541298592497,37.59024786584678],[127.05402991753645,37.590283057764346],[127.0539371395459,37.59031348921654],[127.05384048122299,37.590348733574395],[127.05367325320292,37.590405542589444],[127.05363046439807,37.59042041872566],[127.05340718028926,37.59049663227863],[127.05321190165131,37.590564048546376],[127.05321615412727,37.5905734709846],[127.05310423337284,37.59061025309548],[127.05300566969852,37.590642037819414],[127.0529136162883,37.59067363041981],[127.05272530905077,37.590737538014736],[127.05245070347715,37.590828807639554],[127.05234236296558,37.590680256726074],[127.05228888325608,37.59060888570843],[127.05226696489402,37.59057865808509],[127.05226252683185,37.590562541375704],[127.05229525191334,37.590550129753304],[127.05241610449401,37.59046056487046],[127.05248548950149,37.59041144027277],[127.05258239603498,37.59034069811663],[127.05266549519334,37.59027912487884],[127.05277735015306,37.590196338926226],[127.05291985141686,37.590092105096915],[127.05294776441401,37.590080109841026],[127.05294512251952,37.59007465102393],[127.05317730265504,37.58989630781439],[127.05321133808536,37.58989649113163],[127.05326872143395,37.58994720044612],[127.05334956763656,37.59001800941417],[127.05338184318342,37.589994731809774],[127.05349991862343,37.59009919411458],[127.05363199039942,37.59002701204701],[127.05365509574501,37.59002152385663],[127.0537146552699,37.589993828291796],[127.05385085175436,37.58992696897473],[127.05386803221532,37.58991692438574],[127.05385880992576,37.589908630404715],[127.05399812452194,37.589800117003946],[127.05407687415679,37.589738625789664],[127.05406767330119,37.58972861093404],[127.05414794629264,37.58967282943568],[127.05411346099181,37.58964140403688],[127.05409045978513,37.58963375951513],[127.05404026934606,37.589588026239916],[127.05402882726095,37.58956917191429],[127.05403199521929,37.58951752605013],[127.05404987147803,37.58949884067915],[127.05401140645388,37.589478666718186],[127.05401395918125,37.58943768878882],[127.05385382959538,37.589393359353295],[127.05389696768455,37.58936078763459],[127.05389775620995,37.58935502098114],[127.05398939245809,37.58928045982014],[127.05412212511828,37.589168687621665],[127.0542172344371,37.58909067396141],[127.05427288940133,37.589178954639394],[127.05431715167275,37.58926365446584],[127.05435484719662,37.58933251789863],[127.0544182914262,37.589403559176],[127.05444835774804,37.589395193568286],[127.0545175508861,37.589366177837675],[127.05461072186863,37.589364982709164],[127.05467001051616,37.589435268892366],[127.05471411871069,37.58942989717344],[127.05471572389737,37.589489893035775],[127.0547587227226,37.58954838361051],[127.05480882812725,37.58956955216653],[127.05484027815521,37.58959622513729],[127.05478234538947,37.589665410891875],[127.05476175502022,37.589736174523445],[127.0547542438098,37.58979353460796],[127.05472266337995,37.58987006048016],[127.05465342653926,37.58991778079378],[127.05455057876634,37.589909501943175],[127.05456252114514,37.58995340156898],[127.05457458317022,37.589974425134436],[127.05456441587583,37.59002268645153],[127.05456073269079,37.590033878338204],[127.05454360778052,37.59012213749532]]]},"properties":{"OBJECTID":86113,"PRESENT_SN":"11000UQ181PS201912151235","LCLAS_CL":"UQ1200","MLSFC_CL":"UQ1220","SCLAS_CL":"UQ1221","ATRB_SE":"UQ1221","WTNNC_SN":"11000AGZ201108098012","NTFC_SN":"11000NTC201103256029","DGM_NM":"회기제1주택재개발구역","SIGNGU_SE":"11000","DRAWING_NO":" ","CREATE_DAT":1576368000000,"DGM_AR":13936.60425154,"DGM_LT":726.49908369,"SHAPE.AREA":13936.60425156,"SHAPE.LEN":726.49908369979}}]}