{"type":"FeatureCollection","features":[{"type":"Feature","id":86099,"geometry":{"type":"Polygon","coordinates":[[[127.04627592631552,37.54329932728099],[127.04611813922314,37.54338580112409],[127.04604981115692,37.543414496476096],[127.04586553175577,37.543477869521936],[127.04547254632102,37.5436506014648],[127.04537233555563,37.54368743523394],[127.04529992216638,37.54352283284453],[127.04528482459646,37.54347937458598],[127.04524786282246,37.5433729721103],[127.04522639823759,37.543316127458915],[127.04519867076321,37.54326924108196],[127.04516062642323,37.5432852928063],[127.04481579553756,37.54343274094721],[127.04480334033397,37.543438070376034],[127.04479861826329,37.54341237581408],[127.04478902658869,37.543360220900055],[127.04480190049225,37.54335496339858],[127.04490424683951,37.543313182880546],[127.0450616071285,37.543249487894585],[127.04509264856928,37.54323571829613],[127.04518106760256,37.54319780793151],[127.04521242529974,37.543183128182534],[127.04526209893831,37.543162188757115],[127.0454314239239,37.54308766792943],[127.04558106551835,37.543022794819386],[127.04572822885501,37.54295803056592],[127.04585338940579,37.54290308619492],[127.04578215148966,37.542794173961326],[127.04576015712732,37.54276034093901],[127.04568563556202,37.5426472222413],[127.04571590736259,37.54263373207309],[127.0456654241734,37.542451498261535],[127.04564637925658,37.542391688508715],[127.04563787496988,37.54234221820508],[127.04562530669713,37.542266606228594],[127.04610374759153,37.542115308547025],[127.04614070642184,37.54213982860597],[127.04619988099898,37.54226571989347],[127.04624460837503,37.542262693648084],[127.04650249803043,37.54275870000015],[127.04652752177243,37.542824417840684],[127.04656325625149,37.542975969107566],[127.04657159383292,37.54304813539324],[127.04656625415267,37.543087699992434],[127.04655920839046,37.54311268719013],[127.04654531824416,37.54314004660632],[127.04647071592767,37.543196585249795],[127.04637555394079,37.54325399660939],[127.04627592631552,37.54329932728099]]]},"properties":{"OBJECTID":86099,"PRESENT_SN":"11000UQ181PS201912151452","LCLAS_CL":"UQ1200","MLSFC_CL":"UQ1240","SCLAS_CL":" ","ATRB_SE":"UQ1240","WTNNC_SN":"11000AGZ201612050316","NTFC_SN":"11000NTC201609087874","DGM_NM":"장미아파트 주택재건축정비사업","SIGNGU_SE":"11000","DRAWING_NO":" ","CREATE_DAT":1576368000000,"DGM_AR":11382.54022718,"DGM_LT":573.12963998,"SHAPE.AREA":11382.5402272,"SHAPE.LEN":573.129639980718}},{"type":"Feature","id":85222,"geometry":{"type":"Polygon","coordinates":[[[127.04627592631552,37.54329932728099],[127.04611813922314,37.54338580112409],[127.04604981115692,37.543414496476096],[127.04586553175577,37.543477869521936],[127.04547254632102,37.5436506014648],[127.04537233555563,37.54368743523394],[127.04529992216638,37.54352283284453],[127.04528482459646,37.54347937458598],[127.04524786282246,37.5433729721103],[127.04522639823759,37.543316127458915],[127.04519867076321,37.54326924108196],[127.04516062642323,37.5432852928063],[127.04481579553756,37.54343274094721],[127.04480334033397,37.543438070376034],[127.04479861826329,37.54341237581408],[127.04478902658869,37.543360220900055],[127.04480190049225,37.54335496339858],[127.04490424683951,37.543313182880546],[127.0450616071285,37.543249487894585],[127.04509264856928,37.54323571829613],[127.04518106760256,37.54319780793151],[127.04521242529974,37.543183128182534],[127.04526209893831,37.543162188757115],[127.0454314239239,37.54308766792943],[127.04558106551835,37.543022794819386],[127.04572822885501,37.54295803056592],[127.04585338940579,37.54290308619492],[127.04578215148966,37.542794173961326],[127.04576015712732,37.54276034093901],[127.04568563556202,37.5426472222413],[127.04571590736259,37.54263373207309],[127.0456654241734,37.542451498261535],[127.04564637925658,37.542391688508715],[127.04563787496988,37.54234221820508],[127.04562530669713,37.542266606228594],[127.04610374759153,37.542115308547025],[127.04614070642184,37.54213982860597],[127.04619988099898,37.54226571989347],[127.04624460837503,37.542262693648084],[127.04650249803043,37.54275870000015],[127.04652752177243,37.542824417840684],[127.04656325625149,37.542975969107566],[127.04657159383292,37.54304813539324],[127.04656625415267,37.543087699992434],[127.04655920839046,37.54311268719013],[127.04654531824416,37.54314004660632],[127.04647071592767,37.543196585249795],[127.04637555394079,37.54325399660939],[127.04627592631552,37.54329932728099]]]},"properties":{"OBJECTID":85222,"PRESENT_SN":"11000UQ181PS201912151452","LCLAS_CL":"UQ1200","MLSFC_CL":"UQ1240","SCLAS_CL":" ","ATRB_SE":"UQ1240","WTNNC_SN":"11000AGZ201612050316","NTFC_SN":"11000NTC201609087874","DGM_NM":"장미아파트 주택재건축정비사업","SIGNGU_SE":"11000","DRAWING_NO":" ","CREATE_DAT":1576368000000,"DGM_AR":11382.54022718,"DGM_LT":573.12963998,"SHAPE.AREA":11382.5402272,"SHAPE.LEN":573.129639980718}}]}