{"type":"FeatureCollection","features":[{"type":"Feature","id":86193,"geometry":{"type":"Polygon","coordinates":[[[127.01430750077955,37.598340812392344],[127.01429573075586,37.59837977940708],[127.01427865377758,37.59844156170146],[127.01426435839319,37.598479755941405],[127.01425386604673,37.59850778667403],[127.01423086513348,37.59856052372374],[127.01421988465864,37.59858159891213],[127.01420993402763,37.59859906104452],[127.01417630104804,37.598657853835086],[127.014159841208,37.59868707449656],[127.01414673236515,37.598711366416985],[127.01409060318886,37.598795704470646],[127.01405865620931,37.59884814511208],[127.01403669315046,37.598878825933284],[127.01401516072687,37.59891158797664],[127.01397512980228,37.5989722644395],[127.01397385055762,37.5989743548563],[127.01396357131307,37.59899114126375],[127.01396575698284,37.598992159144714],[127.01392477407951,37.599048664136305],[127.01390988662676,37.5990691810949],[127.01386744409437,37.599133146362554],[127.01382484212581,37.59919207513312],[127.01378247853165,37.59925490512146],[127.01376985567542,37.59927481816742],[127.01375879476721,37.5992902081129],[127.01370692097684,37.59936519332598],[127.01366465885302,37.59942650059766],[127.01361965673169,37.59949063722253],[127.01360987533654,37.59950586484529],[127.01355869157814,37.59957819201862],[127.0135498495547,37.59959037421634],[127.01348235272974,37.59969294903083],[127.01342863777494,37.599800540892836],[127.01341317801841,37.59985563758703],[127.01339598632406,37.59991484293723],[127.01337996275745,37.60005663230348],[127.01337684121766,37.600081103325444],[127.01337185856039,37.600080491157186],[127.01330685769369,37.60007348801566],[127.0132865747172,37.60006273229799],[127.01320406122568,37.60001896171283],[127.01313739261894,37.59999148830056],[127.01306343053197,37.60010488431494],[127.0128133570057,37.59999327666737],[127.01278586038198,37.5999801249377],[127.01279103237691,37.59995979825873],[127.01279275259859,37.59995301368954],[127.01276790713624,37.59994870935925],[127.0127052105035,37.599901431708915],[127.01267343184416,37.59987737845942],[127.01262580641082,37.59989879031582],[127.01259402766466,37.59987397120905],[127.01262818489515,37.59974947912147],[127.01258183447914,37.59973942849958],[127.01257729811702,37.59969359589778],[127.01258369880689,37.59963510345348],[127.0126098480582,37.599574239567886],[127.01235377092651,37.599510464712274],[127.01234967279798,37.59951824958543],[127.0123856868661,37.59954587943805],[127.01230092478227,37.59960670359337],[127.01228120762994,37.5995914787725],[127.01220482211558,37.59963128215073],[127.01202915510743,37.59971999073155],[127.01200991185199,37.59969241334065],[127.0120084511154,37.59969278287365],[127.01196148596235,37.599739701244744],[127.01195273379055,37.59974858571523],[127.01195478397536,37.59975252283155],[127.01196690386385,37.599775848220126],[127.0118811519241,37.59980732712958],[127.01184640030584,37.59981898890045],[127.0118093874858,37.5997745736506],[127.01171540442361,37.59973376725733],[127.0117131025599,37.59971102663451],[127.01171308821473,37.59968888046307],[127.01162881571624,37.599690878884154],[127.01144552715375,37.59969653459608],[127.01134042986567,37.599698201196794],[127.01133991528884,37.59966016171911],[127.01134892522163,37.59963035643705],[127.01136361587139,37.59957104347269],[127.01136893556537,37.59955169891421],[127.01137766229714,37.59952129900397],[127.01136347150128,37.59942069637476],[127.01136127220467,37.599402019170746],[127.01133830132838,37.599270090072146],[127.01133610135827,37.599246205182624],[127.01135845708646,37.599178440351984],[127.01136828242124,37.599149770237254],[127.01137335144195,37.5991189201386],[127.01137461896741,37.59911326185631],[127.01137732436878,37.599105684359],[127.01137911185646,37.59909294430272],[127.01137899540218,37.59906857270812],[127.01138313112084,37.59900183651247],[127.01137455072141,37.59893924590257],[127.01137075486365,37.5989212265485],[127.01135698584694,37.598840941052316],[127.01135410710958,37.598822029647216],[127.01135024996036,37.598768412436414],[127.01135525162472,37.59874215735839],[127.01144115389316,37.598741708687115],[127.0114536893272,37.59874163555407],[127.01154055139612,37.598720896579515],[127.01157391022205,37.59871292904787],[127.01158078366974,37.598712225694996],[127.0115823649713,37.5986823038954],[127.01158856952827,37.59867578024511],[127.01181651877879,37.59868600476321],[127.0118983528451,37.59866471636368],[127.01211133253894,37.59867833833587],[127.01217611650142,37.598682350891586],[127.01228022833752,37.598688774468975],[127.01228701915632,37.59866479867649],[127.01230688110496,37.59858655544772],[127.01235959290071,37.59858399182516],[127.01247164081838,37.598578386373696],[127.01256638608929,37.59857341312496],[127.01267733550922,37.598567402138414],[127.01277313361344,37.598560770814366],[127.01307564034309,37.59851042165113],[127.01348696466938,37.59843959939155],[127.01355581116994,37.598427744456615],[127.01361859961271,37.59841693524364],[127.01362837411968,37.5982902108931],[127.01362930977021,37.59827815203201],[127.0139176851743,37.59830367759425],[127.0139185016277,37.598303752290136],[127.0139471545181,37.59830648015826],[127.0141928947881,37.59832990663338],[127.01430750077955,37.598340812392344]]]},"properties":{"OBJECTID":86193,"PRESENT_SN":"11000UQ181PS201912150140","LCLAS_CL":"UQ1200","MLSFC_CL":"UQ1220","SCLAS_CL":"UQ1221","ATRB_SE":"UQ1221","WTNNC_SN":"11000AGZ201603258556","NTFC_SN":"11000NTC201511267653","DGM_NM":"돈암정릉주택재개발정비구역","SIGNGU_SE":"11000","DRAWING_NO":" ","CREATE_DAT":1576368000000,"DGM_AR":31033.21367636,"DGM_LT":887.15072902,"SHAPE.AREA":31033.2136764,"SHAPE.LEN":887.150729019829}},{"type":"Feature","id":86775,"geometry":{"type":"Polygon","coordinates":[[[127.01430750077955,37.598340812392344],[127.01429573075586,37.59837977940708],[127.01427865377758,37.59844156170146],[127.01426435839319,37.598479755941405],[127.01425386604673,37.59850778667403],[127.01423086513348,37.59856052372374],[127.01421988465864,37.59858159891213],[127.01420993402763,37.59859906104452],[127.01417630104804,37.598657853835086],[127.014159841208,37.59868707449656],[127.01414673236515,37.598711366416985],[127.01409060318886,37.598795704470646],[127.01405865620931,37.59884814511208],[127.01403669315046,37.598878825933284],[127.01401516072687,37.59891158797664],[127.01397512980228,37.5989722644395],[127.01397385055762,37.5989743548563],[127.01396357131307,37.59899114126375],[127.01396575698284,37.598992159144714],[127.01392477407951,37.599048664136305],[127.01390988662676,37.5990691810949],[127.01386744409437,37.599133146362554],[127.01382484212581,37.59919207513312],[127.01378247853165,37.59925490512146],[127.01376985567542,37.59927481816742],[127.01375879476721,37.5992902081129],[127.01370692097684,37.59936519332598],[127.01366465885302,37.59942650059766],[127.01361965673169,37.59949063722253],[127.01360987533654,37.59950586484529],[127.01355869157814,37.59957819201862],[127.0135498495547,37.59959037421634],[127.01348235272974,37.59969294903083],[127.01342863777494,37.599800540892836],[127.01341317801841,37.59985563758703],[127.01339598632406,37.59991484293723],[127.01337996275745,37.60005663230348],[127.01337684121766,37.600081103325444],[127.01337185856039,37.600080491157186],[127.01330685769369,37.60007348801566],[127.0132865747172,37.60006273229799],[127.01320406122568,37.60001896171283],[127.01313739261894,37.59999148830056],[127.01306343053197,37.60010488431494],[127.0128133570057,37.59999327666737],[127.01278586038198,37.5999801249377],[127.01279103237691,37.59995979825873],[127.01279275259859,37.59995301368954],[127.01276790713624,37.59994870935925],[127.0127052105035,37.599901431708915],[127.01267343184416,37.59987737845942],[127.01262580641082,37.59989879031582],[127.01259402766466,37.59987397120905],[127.01262818489515,37.59974947912147],[127.01258183447914,37.59973942849958],[127.01257729811702,37.59969359589778],[127.01258369880689,37.59963510345348],[127.0126098480582,37.599574239567886],[127.01235377092651,37.599510464712274],[127.01234967279798,37.59951824958543],[127.0123856868661,37.59954587943805],[127.01230092478227,37.59960670359337],[127.01228120762994,37.5995914787725],[127.01220482211558,37.59963128215073],[127.01202915510743,37.59971999073155],[127.01200991185199,37.59969241334065],[127.0120084511154,37.59969278287365],[127.01196148596235,37.599739701244744],[127.01195273379055,37.59974858571523],[127.01195478397536,37.59975252283155],[127.01196690386385,37.599775848220126],[127.0118811519241,37.59980732712958],[127.01184640030584,37.59981898890045],[127.0118093874858,37.5997745736506],[127.01171540442361,37.59973376725733],[127.0117131025599,37.59971102663451],[127.01171308821473,37.59968888046307],[127.01162881571624,37.599690878884154],[127.01144552715375,37.59969653459608],[127.01134042986567,37.599698201196794],[127.01133991528884,37.59966016171911],[127.01134892522163,37.59963035643705],[127.01136361587139,37.59957104347269],[127.01136893556537,37.59955169891421],[127.01137766229714,37.59952129900397],[127.01136347150128,37.59942069637476],[127.01136127220467,37.599402019170746],[127.01133830132838,37.599270090072146],[127.01133610135827,37.599246205182624],[127.01135845708646,37.599178440351984],[127.01136828242124,37.599149770237254],[127.01137335144195,37.5991189201386],[127.01137461896741,37.59911326185631],[127.01137732436878,37.599105684359],[127.01137911185646,37.59909294430272],[127.01137899540218,37.59906857270812],[127.01138313112084,37.59900183651247],[127.01137455072141,37.59893924590257],[127.01137075486365,37.5989212265485],[127.01135698584694,37.598840941052316],[127.01135410710958,37.598822029647216],[127.01135024996036,37.598768412436414],[127.01135525162472,37.59874215735839],[127.01144115389316,37.598741708687115],[127.0114536893272,37.59874163555407],[127.01154055139612,37.598720896579515],[127.01157391022205,37.59871292904787],[127.01158078366974,37.598712225694996],[127.0115823649713,37.5986823038954],[127.01158856952827,37.59867578024511],[127.01181651877879,37.59868600476321],[127.0118983528451,37.59866471636368],[127.01211133253894,37.59867833833587],[127.01217611650142,37.598682350891586],[127.01228022833752,37.598688774468975],[127.01228701915632,37.59866479867649],[127.01230688110496,37.59858655544772],[127.01235959290071,37.59858399182516],[127.01247164081838,37.598578386373696],[127.01256638608929,37.59857341312496],[127.01267733550922,37.598567402138414],[127.01277313361344,37.598560770814366],[127.01307564034309,37.59851042165113],[127.01348696466938,37.59843959939155],[127.01355581116994,37.598427744456615],[127.01361859961271,37.59841693524364],[127.01362837411968,37.5982902108931],[127.01362930977021,37.59827815203201],[127.0139176851743,37.59830367759425],[127.0139185016277,37.598303752290136],[127.0139471545181,37.59830648015826],[127.0141928947881,37.59832990663338],[127.01430750077955,37.598340812392344]]]},"properties":{"OBJECTID":86775,"PRESENT_SN":"11000UQ181PS201912150140","LCLAS_CL":"UQ1200","MLSFC_CL":"UQ1220","SCLAS_CL":"UQ1221","ATRB_SE":"UQ1221","WTNNC_SN":"11000AGZ201603258556","NTFC_SN":"11000NTC201511267653","DGM_NM":"돈암정릉주택재개발정비구역","SIGNGU_SE":"11000","DRAWING_NO":" ","CREATE_DAT":1576368000000,"DGM_AR":31033.21367636,"DGM_LT":887.15072902,"SHAPE.AREA":31033.2136764,"SHAPE.LEN":887.150729019829}}]}