{"type":"FeatureCollection","features":[{"type":"Feature","id":84434,"geometry":{"type":"Polygon","coordinates":[[[126.81681863714834,37.5645362467871],[126.81676578127545,37.56464131474667],[126.81675800114444,37.56465678153852],[126.8167532132161,37.564551430579954],[126.81676200078172,37.56451759422786],[126.81677095231922,37.56451360785007],[126.81694869909,37.564472521501486],[126.81695095919399,37.56446939860758],[126.8170207028121,37.564387409620586],[126.81688785368645,37.56431522205461],[126.81689264270766,37.56430094888961],[126.81680527993763,37.564252978816135],[126.81684741760087,37.564226006091594],[126.81689698323031,37.56416569941463],[126.8169953428015,37.5640641677086],[126.8170792382218,37.56396674885831],[126.81717764452696,37.563873605264746],[126.81727137817988,37.5637841933949],[126.81732877974544,37.56375437016316],[126.8173861834037,37.56372827699569],[126.81744145899738,37.56369304446703],[126.81747174431901,37.56367122470718],[126.81749756573699,37.56364659591047],[126.81752439851005,37.563620328886365],[126.81756211604132,37.563581708253544],[126.81760872738258,37.56359934111634],[126.81765888407749,37.563579047898],[126.81767010051041,37.5635745063657],[126.81776349930048,37.56351505142075],[126.81781594251989,37.56347158828884],[126.81783913949629,37.56345091066935],[126.81785438622686,37.56342292267773],[126.81788086613116,37.5633743285456],[126.81789254398163,37.56331550319618],[126.81790571864101,37.563306270540316],[126.81795818930703,37.56325614007649],[126.81801067264749,37.5632192721489],[126.81812431061878,37.5631541361056],[126.81821161357648,37.56312008819872],[126.81825663808456,37.56308775856906],[126.81834135002833,37.56302555067451],[126.81842621104197,37.56296249602095],[126.81843843445975,37.5629534149978],[126.81848601407464,37.56291753934931],[126.81852986300093,37.56288448700144],[126.8185359824758,37.56287676600947],[126.818631436385,37.56280012270558],[126.81871802760227,37.56273284488614],[126.8187882382966,37.56268708787701],[126.81885026849538,37.56474582008959],[126.81769296361861,37.56523295381542],[126.81757389160995,37.565274060624795],[126.81748900353489,37.56530074173103],[126.81749902943845,37.565287945315745],[126.8175244280345,37.56526057685964],[126.81759911522757,37.56516131430587],[126.81762794754256,37.56512301318734],[126.81733983755633,37.565124645392025],[126.81705122942893,37.56512632116474],[126.81684362979095,37.56512774455204],[126.81676095826676,37.56520145384174],[126.81676002236318,37.56497360345256],[126.8167599183359,37.56494835311479],[126.81678197896696,37.56491604218201],[126.81694402178901,37.56491406116041],[126.81695012274528,37.56491398059894],[126.81694382035985,37.56481678122216],[126.81708198500225,37.56481302377458],[126.81708129225947,37.564791002557],[126.81704282445443,37.56479203085301],[126.81704098367146,37.56469349057273],[126.81703870096808,37.56457128335975],[126.81703821499373,37.564545283702934],[126.81702349161193,37.564544882282476],[126.81702249183952,37.56449131881043],[126.8169693565659,37.56449458203739],[126.8169702694545,37.564543432307964],[126.81693393691656,37.56454244209006],[126.81686296852486,37.564538159548],[126.81687129589264,37.56451649481012],[126.81684025107019,37.564524816430364],[126.81681863714834,37.5645362467871]]]},"properties":{"OBJECTID":84434,"PRESENT_SN":"11500UQ181PS202403290001","LCLAS_CL":"UQ1200","MLSFC_CL":"UQ1206","SCLAS_CL":" ","ATRB_SE":"UQ1206","WTNNC_SN":"11500AGZ202301200003","NTFC_SN":"11000NTC202401260006","DGM_NM":"긴등마을 재정비촉진구역","SIGNGU_SE":"11500","DRAWING_NO":" ","CREATE_DAT":1711670400000,"DGM_AR":31428.53462099,"DGM_LT":942.89555534,"SHAPE.AREA":31428.53549327,"SHAPE.LEN":942.895466359251}},{"type":"Feature","id":84450,"geometry":{"type":"Polygon","coordinates":[[[126.81681863714834,37.5645362467871],[126.81676578127545,37.56464131474667],[126.81675800114444,37.56465678153852],[126.8167532132161,37.564551430579954],[126.81676200078172,37.56451759422786],[126.81677095231922,37.56451360785007],[126.81694869909,37.564472521501486],[126.81695095919399,37.56446939860758],[126.8170207028121,37.564387409620586],[126.81688785368645,37.56431522205461],[126.81689264270766,37.56430094888961],[126.81680527993763,37.564252978816135],[126.81684741760087,37.564226006091594],[126.81689698323031,37.56416569941463],[126.8169953428015,37.5640641677086],[126.8170792382218,37.56396674885831],[126.81717764452696,37.563873605264746],[126.81727137817988,37.5637841933949],[126.81732877974544,37.56375437016316],[126.8173861834037,37.56372827699569],[126.81744145899738,37.56369304446703],[126.81747174431901,37.56367122470718],[126.81749756573699,37.56364659591047],[126.81752439851005,37.563620328886365],[126.81756211604132,37.563581708253544],[126.81760872738258,37.56359934111634],[126.81765888407749,37.563579047898],[126.81767010051041,37.5635745063657],[126.81776349930048,37.56351505142075],[126.81781594251989,37.56347158828884],[126.81783913949629,37.56345091066935],[126.81785438622686,37.56342292267773],[126.81788086613116,37.5633743285456],[126.81789254398163,37.56331550319618],[126.81790571864101,37.563306270540316],[126.81795818930703,37.56325614007649],[126.81801067264749,37.5632192721489],[126.81812431061878,37.5631541361056],[126.81821161357648,37.56312008819872],[126.81825663808456,37.56308775856906],[126.81834135002833,37.56302555067451],[126.81842621104197,37.56296249602095],[126.81843843445975,37.5629534149978],[126.81848601407464,37.56291753934931],[126.81852986300093,37.56288448700144],[126.8185359824758,37.56287676600947],[126.818631436385,37.56280012270558],[126.81871802760227,37.56273284488614],[126.8187882382966,37.56268708787701],[126.81885026849538,37.56474582008959],[126.81769296361861,37.56523295381542],[126.81757389160995,37.565274060624795],[126.81748900353489,37.56530074173103],[126.81749902943845,37.565287945315745],[126.8175244280345,37.56526057685964],[126.81759911522757,37.56516131430587],[126.81762794754256,37.56512301318734],[126.81733983755633,37.565124645392025],[126.81705122942893,37.56512632116474],[126.81684362979095,37.56512774455204],[126.81676095826676,37.56520145384174],[126.81676002236318,37.56497360345256],[126.8167599183359,37.56494835311479],[126.81678197896696,37.56491604218201],[126.81694402178901,37.56491406116041],[126.81695012274528,37.56491398059894],[126.81694382035985,37.56481678122216],[126.81708198500225,37.56481302377458],[126.81708129225947,37.564791002557],[126.81704282445443,37.56479203085301],[126.81704098367146,37.56469349057273],[126.81703870096808,37.56457128335975],[126.81703821499373,37.564545283702934],[126.81702349161193,37.564544882282476],[126.81702249183952,37.56449131881043],[126.8169693565659,37.56449458203739],[126.8169702694545,37.564543432307964],[126.81693393691656,37.56454244209006],[126.81686296852486,37.564538159548],[126.81687129589264,37.56451649481012],[126.81684025107019,37.564524816430364],[126.81681863714834,37.5645362467871]]]},"properties":{"OBJECTID":84450,"PRESENT_SN":"11500UQ181PS202403290001","LCLAS_CL":"UQ1200","MLSFC_CL":"UQ1206","SCLAS_CL":" ","ATRB_SE":"UQ1206","WTNNC_SN":"11500AGZ202301200003","NTFC_SN":"11000NTC202401260006","DGM_NM":"긴등마을 재정비촉진구역","SIGNGU_SE":"11500","DRAWING_NO":" ","CREATE_DAT":1711670400000,"DGM_AR":31428.53462099,"DGM_LT":942.89555534,"SHAPE.AREA":31428.53549327,"SHAPE.LEN":942.895466359251}}]}