{"type":"FeatureCollection","features":[{"type":"Feature","id":84203,"geometry":{"type":"Polygon","coordinates":[[[126.8433352091313,37.52239535033495],[126.84362714789827,37.52246331551965],[126.84369317916939,37.522478630572635],[126.84397482957482,37.52254414846531],[126.84416014693761,37.52258728282716],[126.844327826112,37.52262624885241],[126.84455577048479,37.52267926015251],[126.84474041016085,37.52272221250416],[126.8449460806913,37.522770057816395],[126.84489192293142,37.52297307013509],[126.84486079604717,37.523089887816596],[126.84483001126134,37.523205354449885],[126.84479455156901,37.523338384257876],[126.84475225079208,37.523496993208795],[126.8447048004712,37.523521527364395],[126.84407888118393,37.52341563879155],[126.84403500475449,37.52340819214666],[126.84379888614554,37.52336823334813],[126.84325710334268,37.5232765983468],[126.84323218834385,37.52323620041868],[126.84323585649932,37.523106281961724],[126.84308801165442,37.52304923100966],[126.84296605122059,37.52300212555793],[126.84272687796307,37.52290981274658],[126.8427786425445,37.52282464826468],[126.84282030379592,37.52275613857956],[126.84287218128699,37.52267097420592],[126.8429368843888,37.52256555465542],[126.84304416017909,37.52238829284266],[126.84314763123469,37.5223517611502],[126.8433352091313,37.52239535033495]]]},"properties":{"OBJECTID":84203,"PRESENT_SN":"11000UQ181PS201912150489","LCLAS_CL":"UQ1200","MLSFC_CL":"UQ1240","SCLAS_CL":" ","ATRB_SE":"UQ1240","WTNNC_SN":"11000AGZ201612160320","NTFC_SN":"11000NTC201608257855","DGM_NM":"신월4 주택재건축 정비구역","SIGNGU_SE":"11000","DRAWING_NO":" ","CREATE_DAT":1576368000000,"DGM_AR":15735.08849993,"DGM_LT":527.67748626,"SHAPE.AREA":15735.0885,"SHAPE.LEN":527.6774862560051}}]}