{"type":"FeatureCollection","features":[{"type":"Feature","id":84567,"geometry":{"type":"Polygon","coordinates":[[[127.11387606754714,37.5198521697195],[127.11377151627934,37.51996073093785],[127.10838056078111,37.51912942731417],[127.10807468204074,37.51908254554658],[127.108738657426,37.516420334176495],[127.10898502873579,37.51650400831472],[127.11202398969421,37.51753670976175],[127.11283376403642,37.518149905836026],[127.11387606754714,37.5198521697195]]]},"properties":{"OBJECTID":84567,"PRESENT_SN":"11710UQ181PS202107290001","LCLAS_CL":"UQ1200","MLSFC_CL":"UQ1240","SCLAS_CL":" ","ATRB_SE":"UQ1240","WTNNC_SN":"11710AGZ202107260001","NTFC_SN":"11000NTC202107260002","DGM_NM":"잠실진주아파트재건축사업","SIGNGU_SE":"11710","DRAWING_NO":" ","CREATE_DAT":1627516800000,"DGM_AR":112558.53755369,"DGM_LT":1454.1469939,"SHAPE.AREA":112558.530310065,"SHAPE.LEN":1454.14694077066}}]}