{"type":"FeatureCollection","features":[{"type":"Feature","id":86223,"geometry":{"type":"Polygon","coordinates":[[[127.09400331584071,37.57864126377419],[127.0940879061739,37.57867738289119],[127.0941019490704,37.57868337965629],[127.0942892071515,37.578812307961094],[127.09446350378113,37.57893229937652],[127.09450099639238,37.57895811915076],[127.09473605940298,37.57911995814776],[127.09486137538131,37.579206227677744],[127.09494690994649,37.57926512056001],[127.09503170814946,37.57932350040073],[127.09512101607415,37.57938498500699],[127.09504238518751,37.57946045086521],[127.09502213222534,37.579478621781014],[127.09499320404511,37.579504928260505],[127.0949782455091,37.579518308937544],[127.09490384855197,37.579584869605995],[127.09483374858867,37.57964757060937],[127.09481638355147,37.5796630704854],[127.09478312200446,37.579693344676585],[127.09473667924058,37.57973522315776],[127.09467392997959,37.57979180957383],[127.09465205982137,37.57981148634828],[127.09461021904082,37.57984895532581],[127.09457715395074,37.57987893918561],[127.09448885829597,37.57995793514341],[127.09440156019794,37.58003813757077],[127.09437010090501,37.5800668226882],[127.09427579031538,37.580152481502694],[127.09422657680682,37.58019715501425],[127.09408593222493,37.58034025187878],[127.09406632628591,37.580360197063456],[127.09396018828366,37.580403122112045],[127.09394366045139,37.58040381079251],[127.09379367607961,37.58041010888553],[127.09368289432025,37.580414745404326],[127.09363777105068,37.58041661863494],[127.09350557070039,37.58042190238889],[127.09336057800039,37.580427529312374],[127.09327023999644,37.58043057281192],[127.0932636061944,37.580430830243614],[127.09326295881854,37.580429136892825],[127.09325327162007,37.58041361142001],[127.09323209713591,37.580391742918984],[127.09320092592002,37.58036040380401],[127.09318227985881,37.580341641732346],[127.09317476353539,37.580333079190076],[127.09316162639129,37.580319944001175],[127.09313353841841,37.58029176493586],[127.09311700101948,37.58027538883049],[127.09310996118481,37.58026763680181],[127.09300693888176,37.580164842086965],[127.0929637308976,37.58012198862248],[127.09293443026615,37.58009261213644],[127.09291542156146,37.58007343584887],[127.09287782514811,37.580036794812315],[127.09287355093056,37.58003170754801],[127.09284979501679,37.58000945355039],[127.09284307224337,37.58000171927982],[127.09280048904586,37.57996046001654],[127.09277256083789,37.579933100637355],[127.09276349090804,37.57992230482337],[127.09275412942888,37.57991379773894],[127.09271924198613,37.57987970434815],[127.09271320050428,37.57987361834848],[127.09265532611639,37.57981644140667],[127.0926350146494,37.579796446181234],[127.09261997267477,37.57978076260993],[127.09260476282446,37.57976666490196],[127.09257727684636,37.57973977364724],[127.09255957181745,37.5797219027256],[127.09263134958151,37.579659472073345],[127.09272617663116,37.57960637580881],[127.0928076436111,37.579561497784255],[127.09282520067588,37.57955088860813],[127.09294968175325,37.57948329938491],[127.09295300762008,37.57948127859983],[127.09299033642164,37.579456679786986],[127.09302368388389,37.579435048293085],[127.09304135250883,37.57942314157791],[127.09308952709364,37.57938966861977],[127.09320179019247,37.57929252724527],[127.09322025830286,37.57927716910466],[127.093251856076,37.579250538430884],[127.0933039356608,37.57920744882606],[127.09337239908606,37.579157309748474],[127.0934675800551,37.579079958057285],[127.0934987142133,37.57905390430894],[127.09354815637259,37.57901130318259],[127.0935677678977,37.578996070233664],[127.09359107466793,37.578975437491394],[127.09360951965668,37.578959818021104],[127.09367424226281,37.578906005660286],[127.09369187275419,37.578890900374994],[127.09369985710318,37.57888430793063],[127.09376309008985,37.57882525294294],[127.09383883927075,37.57875340313718],[127.09386216569482,37.57873047281],[127.09390757312914,37.578684541037255],[127.09396814308191,37.57862360496039],[127.09400331584071,37.57864126377419]]]},"properties":{"OBJECTID":86223,"PRESENT_SN":"11000UQ181PS201912151599","LCLAS_CL":"UQ1200","MLSFC_CL":"UQ1240","SCLAS_CL":" ","ATRB_SE":"UQ1240","WTNNC_SN":"11000AGZ201909270092","NTFC_SN":"11000NTC201909191123","DGM_NM":"면목1 주택재건축 정비구역","SIGNGU_SE":"11000","DRAWING_NO":" ","CREATE_DAT":1576368000000,"DGM_AR":24533.39859497,"DGM_LT":622.94210688,"SHAPE.AREA":24533.398595,"SHAPE.LEN":622.942106877569}},{"type":"Feature","id":85257,"geometry":{"type":"Polygon","coordinates":[[[127.09400331584071,37.57864126377419],[127.0940879061739,37.57867738289119],[127.0941019490704,37.57868337965629],[127.0942892071515,37.578812307961094],[127.09446350378113,37.57893229937652],[127.09450099639238,37.57895811915076],[127.09473605940298,37.57911995814776],[127.09486137538131,37.579206227677744],[127.09494690994649,37.57926512056001],[127.09503170814946,37.57932350040073],[127.09512101607415,37.57938498500699],[127.09504238518751,37.57946045086521],[127.09502213222534,37.579478621781014],[127.09499320404511,37.579504928260505],[127.0949782455091,37.579518308937544],[127.09490384855197,37.579584869605995],[127.09483374858867,37.57964757060937],[127.09481638355147,37.5796630704854],[127.09478312200446,37.579693344676585],[127.09473667924058,37.57973522315776],[127.09467392997959,37.57979180957383],[127.09465205982137,37.57981148634828],[127.09461021904082,37.57984895532581],[127.09457715395074,37.57987893918561],[127.09448885829597,37.57995793514341],[127.09440156019794,37.58003813757077],[127.09437010090501,37.5800668226882],[127.09427579031538,37.580152481502694],[127.09422657680682,37.58019715501425],[127.09408593222493,37.58034025187878],[127.09406632628591,37.580360197063456],[127.09396018828366,37.580403122112045],[127.09394366045139,37.58040381079251],[127.09379367607961,37.58041010888553],[127.09368289432025,37.580414745404326],[127.09363777105068,37.58041661863494],[127.09350557070039,37.58042190238889],[127.09336057800039,37.580427529312374],[127.09327023999644,37.58043057281192],[127.0932636061944,37.580430830243614],[127.09326295881854,37.580429136892825],[127.09325327162007,37.58041361142001],[127.09323209713591,37.580391742918984],[127.09320092592002,37.58036040380401],[127.09318227985881,37.580341641732346],[127.09317476353539,37.580333079190076],[127.09316162639129,37.580319944001175],[127.09313353841841,37.58029176493586],[127.09311700101948,37.58027538883049],[127.09310996118481,37.58026763680181],[127.09300693888176,37.580164842086965],[127.0929637308976,37.58012198862248],[127.09293443026615,37.58009261213644],[127.09291542156146,37.58007343584887],[127.09287782514811,37.580036794812315],[127.09287355093056,37.58003170754801],[127.09284979501679,37.58000945355039],[127.09284307224337,37.58000171927982],[127.09280048904586,37.57996046001654],[127.09277256083789,37.579933100637355],[127.09276349090804,37.57992230482337],[127.09275412942888,37.57991379773894],[127.09271924198613,37.57987970434815],[127.09271320050428,37.57987361834848],[127.09265532611639,37.57981644140667],[127.0926350146494,37.579796446181234],[127.09261997267477,37.57978076260993],[127.09260476282446,37.57976666490196],[127.09257727684636,37.57973977364724],[127.09255957181745,37.5797219027256],[127.09263134958151,37.579659472073345],[127.09272617663116,37.57960637580881],[127.0928076436111,37.579561497784255],[127.09282520067588,37.57955088860813],[127.09294968175325,37.57948329938491],[127.09295300762008,37.57948127859983],[127.09299033642164,37.579456679786986],[127.09302368388389,37.579435048293085],[127.09304135250883,37.57942314157791],[127.09308952709364,37.57938966861977],[127.09320179019247,37.57929252724527],[127.09322025830286,37.57927716910466],[127.093251856076,37.579250538430884],[127.0933039356608,37.57920744882606],[127.09337239908606,37.579157309748474],[127.0934675800551,37.579079958057285],[127.0934987142133,37.57905390430894],[127.09354815637259,37.57901130318259],[127.0935677678977,37.578996070233664],[127.09359107466793,37.578975437491394],[127.09360951965668,37.578959818021104],[127.09367424226281,37.578906005660286],[127.09369187275419,37.578890900374994],[127.09369985710318,37.57888430793063],[127.09376309008985,37.57882525294294],[127.09383883927075,37.57875340313718],[127.09386216569482,37.57873047281],[127.09390757312914,37.578684541037255],[127.09396814308191,37.57862360496039],[127.09400331584071,37.57864126377419]]]},"properties":{"OBJECTID":85257,"PRESENT_SN":"11000UQ181PS201912151599","LCLAS_CL":"UQ1200","MLSFC_CL":"UQ1240","SCLAS_CL":" ","ATRB_SE":"UQ1240","WTNNC_SN":"11000AGZ201909270092","NTFC_SN":"11000NTC201909191123","DGM_NM":"면목1 주택재건축 정비구역","SIGNGU_SE":"11000","DRAWING_NO":" ","CREATE_DAT":1576368000000,"DGM_AR":24533.39859497,"DGM_LT":622.94210688,"SHAPE.AREA":24533.398595,"SHAPE.LEN":622.942106877569}}]}