{"type":"FeatureCollection","features":[{"type":"Feature","id":85737,"geometry":{"type":"Polygon","coordinates":[[[127.137808183367,37.49859479438028],[127.13820401270215,37.498919597470106],[127.13645754013687,37.5000119031473],[127.1362883428698,37.500002635804286],[127.13564550569592,37.49947367055317],[127.13742309940619,37.49851892343527],[127.13756940377135,37.498440368183246],[127.13762561603477,37.49844498862712],[127.137808183367,37.49859479438028]]]},"properties":{"OBJECTID":85737,"PRESENT_SN":"11710UQ181PS202511180001","LCLAS_CL":"UQ1200","MLSFC_CL":"UQ1240","SCLAS_CL":" ","ATRB_SE":"UQ1240","WTNNC_SN":"11710AGZ202508070001","NTFC_SN":"11710NTC202508070001","DGM_NM":"가락우창아파트 재건축정비사업","SIGNGU_SE":"11710","DRAWING_NO":" ","CREATE_DAT":1763424000000,"DGM_AR":17235.63325006,"DGM_LT":576.64091937,"SHAPE.AREA":17235.63325,"SHAPE.LEN":576.640919370774}}]}