{"type":"FeatureCollection","features":[{"type":"Feature","id":86991,"geometry":{"type":"Polygon","coordinates":[[[127.04652723191859,37.67539869083312],[127.04658134922379,37.67547687451679],[127.04657501853376,37.67550525754374],[127.04650827008882,37.67553402401733],[127.04648979813834,37.675542049709094],[127.04640265106451,37.67557956332314],[127.04635596105535,37.67559967274806],[127.0463038314048,37.67562212674621],[127.04628218629108,37.67563150506755],[127.04614823563989,37.675689308107465],[127.04612874363477,37.67569769451708],[127.04606754783126,37.67572411611406],[127.04603762985396,37.675737011303895],[127.045982132783,37.675625491941965],[127.0458417125427,37.675669602302776],[127.0458033533438,37.6755933945051],[127.04583848315126,37.675576352946514],[127.04580206773416,37.67552825473404],[127.04576633297228,37.67548096712913],[127.04565006203184,37.67553290665571],[127.04561659424019,37.67548525776864],[127.04560717782422,37.67547174671279],[127.04560128472556,37.6754740013445],[127.04557927734282,37.675445899249226],[127.04558392338168,37.67544337479296],[127.04557417405108,37.675441936879736],[127.04550290370122,37.67549205750305],[127.04547239476787,37.675463958557586],[127.0452804134172,37.67553394534034],[127.04511665105602,37.67559374040348],[127.0450976587672,37.6754876129549],[127.04508446687989,37.675414458924365],[127.04506627084733,37.67531292612926],[127.0450538749217,37.67524391626929],[127.04505319237599,37.67523977205114],[127.04508287597926,37.67521381310608],[127.04518896845505,37.67520197114756],[127.04530140835134,37.675189496057655],[127.04532827150487,37.675186512877254],[127.04535989520643,37.67518298733847],[127.04541507928889,37.675150171443995],[127.04549167971467,37.675104643840136],[127.04550527739472,37.67509653002457],[127.04558051789077,37.675051723647115],[127.04565587165003,37.67500691717899],[127.04566924269363,37.674998983623546],[127.04574436969236,37.67495426728054],[127.04582901498087,37.67490396128921],[127.04595116684239,37.67483129701433],[127.04600704622973,37.67482478895605],[127.04608774823437,37.67481529828831],[127.04613502616789,37.67483122761702],[127.04615998557297,37.67486734714345],[127.04617813790244,37.67489364864909],[127.0461861929177,37.674905178038244],[127.04621557700086,37.67494769277663],[127.04627695467737,37.67503650532183],[127.04628784611221,37.675052268194854],[127.04635693869665,37.67515215972119],[127.04638711715805,37.675195845376344],[127.04639823556462,37.67521196854109],[127.04642001854154,37.67524349426265],[127.04643204460982,37.675260968536186],[127.04652723191859,37.67539869083312]]]},"properties":{"OBJECTID":86991,"PRESENT_SN":"11320UQ181PS202410070001","LCLAS_CL":"UQ1800","MLSFC_CL":"UQ1810","SCLAS_CL":"UQ1812","ATRB_SE":"UQ1812","WTNNC_SN":"11320AGZ202410040001","NTFC_SN":"11320NTC202410040001","DGM_NM":"도봉동 625-80번지 일대 가로주택정비사업","SIGNGU_SE":"11320","DRAWING_NO":" ","CREATE_DAT":1728259200000,"DGM_AR":7474.44859998,"DGM_LT":412.9461345,"SHAPE.AREA":7474.448600000001,"SHAPE.LEN":412.946134499817}}]}