{"type":"FeatureCollection","features":[{"type":"Feature","id":84714,"geometry":{"type":"Polygon","coordinates":[[[126.93266434898348,37.61109015789112],[126.93265571581223,37.61111799318202],[126.9326314073394,37.61119555350115],[126.93255156231564,37.6111944256906],[126.93254812184726,37.61124073412762],[126.93254594558866,37.611267131612735],[126.93255557292241,37.61126659664995],[126.93266701752316,37.61126684191582],[126.93267848568411,37.6113580279293],[126.93268196584373,37.611391456370974],[126.93268342489945,37.61140587292512],[126.93268970753789,37.61142156267628],[126.9327524026371,37.611524392195776],[126.9327966091949,37.61159582973308],[126.93284753251963,37.611666712553074],[126.93290025034271,37.611719901119045],[126.93293123045805,37.611777041347914],[126.93294151926854,37.61188259729553],[126.93282668943354,37.611892387250656],[126.93272464754902,37.611900914165275],[126.93270522230218,37.61190256064611],[126.93263001359405,37.611908481265985],[126.93253571967654,37.61191574215586],[126.93250910715946,37.611912392966346],[126.93241940226964,37.611917385973555],[126.93233048808641,37.61192463182954],[126.93223659145849,37.61193088361419],[126.93221994004168,37.61193357678184],[126.93210746767484,37.61194134922304],[126.93201764736992,37.61194859431033],[126.93200099443177,37.611952909212626],[126.93195403423393,37.611956602594454],[126.93190551095445,37.61196042117296],[126.93188887043901,37.61195140154269],[126.9318817857627,37.611897158284705],[126.93186625818899,37.61178776998297],[126.93184831191066,37.61172162735622],[126.93182382313093,37.61162719004648],[126.93180962493173,37.611549787357745],[126.93179748128749,37.61145535733106],[126.93179601886928,37.61144472488619],[126.9318011716716,37.61138570193337],[126.93179952818525,37.6113130395117],[126.93179543921241,37.61113148032068],[126.93179607836599,37.611017023613755],[126.93180063472124,37.61086773907515],[126.93180239369643,37.610803319935115],[126.93181537519398,37.610728005546385],[126.93184722186638,37.610583326713574],[126.93185279232793,37.61056089556091],[126.93186847985402,37.61049846679707],[126.93189245004794,37.610419915346775],[126.93205766439992,37.61044749263946],[126.93219571039016,37.61046117862904],[126.93223681676047,37.61046705914768],[126.93243068828848,37.61049113890937],[126.93244246463149,37.610493578452925],[126.93258424572244,37.61050996911886],[126.93268084073615,37.610523179831404],[126.93277879692639,37.61053413880378],[126.93283390766058,37.61058291399335],[126.93287159121626,37.61061627223656],[126.93287089561579,37.6106337508743],[126.93283385745077,37.61063751344704],[126.93277427927903,37.61064351533491],[126.93275831077317,37.61064287534526],[126.93274239288496,37.610710259490375],[126.9327420631648,37.61071164680983],[126.93272100630685,37.61081277872475],[126.93270535138565,37.610840519829004],[126.93270488084545,37.6108595302649],[126.93276974019201,37.610899211252246],[126.93270669571719,37.61097945196318],[126.93269501668787,37.61099422124971],[126.93266434898348,37.61109015789112]]]},"properties":{"OBJECTID":84714,"PRESENT_SN":"11380UQ181PS202501060001","LCLAS_CL":"UQ1200","MLSFC_CL":"UQ1220","SCLAS_CL":"UQ1221","ATRB_SE":"UQ1221","WTNNC_SN":"11000AGZ202411130001","NTFC_SN":"11380NTC202411130006","DGM_NM":"불광8 주택정비형 재개발사업","SIGNGU_SE":"11380","DRAWING_NO":" ","CREATE_DAT":1736121600000,"DGM_AR":13221.62467869,"DGM_LT":535.97560635,"SHAPE.AREA":13221.62479715,"SHAPE.LEN":535.975607610775}},{"type":"Feature","id":85045,"geometry":{"type":"Polygon","coordinates":[[[126.93266434898348,37.61109015789112],[126.93265571581223,37.61111799318202],[126.9326314073394,37.61119555350115],[126.93255156231564,37.6111944256906],[126.93254812184726,37.61124073412762],[126.93254594558866,37.611267131612735],[126.93255557292241,37.61126659664995],[126.93266701752316,37.61126684191582],[126.93267848568411,37.6113580279293],[126.93268196584373,37.611391456370974],[126.93268342489945,37.61140587292512],[126.93268970753789,37.61142156267628],[126.9327524026371,37.611524392195776],[126.9327966091949,37.61159582973308],[126.93284753251963,37.611666712553074],[126.93290025034271,37.611719901119045],[126.93293123045805,37.611777041347914],[126.93294151926854,37.61188259729553],[126.93282668943354,37.611892387250656],[126.93272464754902,37.611900914165275],[126.93270522230218,37.61190256064611],[126.93263001359405,37.611908481265985],[126.93253571967654,37.61191574215586],[126.93250910715946,37.611912392966346],[126.93241940226964,37.611917385973555],[126.93233048808641,37.61192463182954],[126.93223659145849,37.61193088361419],[126.93221994004168,37.61193357678184],[126.93210746767484,37.61194134922304],[126.93201764736992,37.61194859431033],[126.93200099443177,37.611952909212626],[126.93195403423393,37.611956602594454],[126.93190551095445,37.61196042117296],[126.93188887043901,37.61195140154269],[126.9318817857627,37.611897158284705],[126.93186625818899,37.61178776998297],[126.93184831191066,37.61172162735622],[126.93182382313093,37.61162719004648],[126.93180962493173,37.611549787357745],[126.93179748128749,37.61145535733106],[126.93179601886928,37.61144472488619],[126.9318011716716,37.61138570193337],[126.93179952818525,37.6113130395117],[126.93179543921241,37.61113148032068],[126.93179607836599,37.611017023613755],[126.93180063472124,37.61086773907515],[126.93180239369643,37.610803319935115],[126.93181537519398,37.610728005546385],[126.93184722186638,37.610583326713574],[126.93185279232793,37.61056089556091],[126.93186847985402,37.61049846679707],[126.93189245004794,37.610419915346775],[126.93205766439992,37.61044749263946],[126.93219571039016,37.61046117862904],[126.93223681676047,37.61046705914768],[126.93243068828848,37.61049113890937],[126.93244246463149,37.610493578452925],[126.93258424572244,37.61050996911886],[126.93268084073615,37.610523179831404],[126.93277879692639,37.61053413880378],[126.93283390766058,37.61058291399335],[126.93287159121626,37.61061627223656],[126.93287089561579,37.6106337508743],[126.93283385745077,37.61063751344704],[126.93277427927903,37.61064351533491],[126.93275831077317,37.61064287534526],[126.93274239288496,37.610710259490375],[126.9327420631648,37.61071164680983],[126.93272100630685,37.61081277872475],[126.93270535138565,37.610840519829004],[126.93270488084545,37.6108595302649],[126.93276974019201,37.610899211252246],[126.93270669571719,37.61097945196318],[126.93269501668787,37.61099422124971],[126.93266434898348,37.61109015789112]]]},"properties":{"OBJECTID":85045,"PRESENT_SN":"11380UQ181PS202501060001","LCLAS_CL":"UQ1200","MLSFC_CL":"UQ1220","SCLAS_CL":"UQ1221","ATRB_SE":"UQ1221","WTNNC_SN":"11000AGZ202411130001","NTFC_SN":"11380NTC202411130006","DGM_NM":"불광8 주택정비형 재개발사업","SIGNGU_SE":"11380","DRAWING_NO":" ","CREATE_DAT":1736121600000,"DGM_AR":13221.62467869,"DGM_LT":535.97560635,"SHAPE.AREA":13221.62479715,"SHAPE.LEN":535.975607610775}}]}