{"type":"FeatureCollection","features":[{"type":"Feature","id":86382,"geometry":{"type":"Polygon","coordinates":[[[127.06672724153256,37.55883281515434],[127.06766896827824,37.55984320154039],[127.06787595467894,37.56006526938401],[127.0678343788605,37.56014899465541],[127.06476544662719,37.560589225969345],[127.06469825136143,37.5602673024112],[127.064646659349,37.56002025168589],[127.06666012046095,37.558825013594095],[127.06672724153256,37.55883281515434]]]},"properties":{"OBJECTID":86382,"PRESENT_SN":"11000UQ181PS201912151435","LCLAS_CL":"UQ1200","MLSFC_CL":"UQ1220","SCLAS_CL":"UQ1222","ATRB_SE":"UQ1222","WTNNC_SN":"11000AGZ201809170026","NTFC_SN":"11000NTC201801110002","DGM_NM":"장안평 중고차매매센터 도시환경정비","SIGNGU_SE":"11000","DRAWING_NO":" ","CREATE_DAT":1576368000000,"DGM_AR":29884.64778192,"DGM_LT":747.77248988,"SHAPE.AREA":29884.647782,"SHAPE.LEN":747.7724898763121}},{"type":"Feature","id":84106,"geometry":{"type":"Polygon","coordinates":[[[127.06672724153256,37.55883281515434],[127.06766896827824,37.55984320154039],[127.06787595467894,37.56006526938401],[127.0678343788605,37.56014899465541],[127.06476544662719,37.560589225969345],[127.06469825136143,37.5602673024112],[127.064646659349,37.56002025168589],[127.06666012046095,37.558825013594095],[127.06672724153256,37.55883281515434]]]},"properties":{"OBJECTID":84106,"PRESENT_SN":"11000UQ181PS201912151435","LCLAS_CL":"UQ1200","MLSFC_CL":"UQ1220","SCLAS_CL":"UQ1222","ATRB_SE":"UQ1222","WTNNC_SN":"11000AGZ201809170026","NTFC_SN":"11000NTC201801110002","DGM_NM":"장안평 중고차매매센터 도시환경정비","SIGNGU_SE":"11000","DRAWING_NO":" ","CREATE_DAT":1576368000000,"DGM_AR":29884.64778192,"DGM_LT":747.77248988,"SHAPE.AREA":29884.647782,"SHAPE.LEN":747.7724898763121}}]}