{"type":"FeatureCollection","features":[{"type":"Feature","id":86666,"geometry":{"type":"Polygon","coordinates":[[[127.149745179468,37.500799981448836],[127.14969631018985,37.500821270264815],[127.14959381227129,37.500865908076655],[127.14950285306493,37.50090552179785],[127.14941229150062,37.50094496376144],[127.14931707225658,37.500986429717805],[127.1492089038975,37.501033543022935],[127.14911701774423,37.50107356305413],[127.14904994351461,37.50105725768519],[127.14901454905016,37.50102301891231],[127.1489506763621,37.500961218107264],[127.14888092551375,37.500893739302725],[127.14884761359703,37.500861435026486],[127.14875518880616,37.50078838922379],[127.14862418255784,37.500877931416866],[127.14851270987847,37.50095411979776],[127.14853951931912,37.501014267688625],[127.1483793573,37.50105969699271],[127.148338808634,37.50096892680794],[127.14833392181322,37.50095785060723],[127.14828303487104,37.50084411780275],[127.14827326822555,37.5008220554871],[127.14823941962524,37.5007465038058],[127.1482076127236,37.500675184268914],[127.14819591532088,37.50064888965333],[127.14814207526845,37.50052840296363],[127.14809084788256,37.500413769492106],[127.14807494343492,37.50037810970396],[127.14785058763799,37.500441637872584],[127.1477899308218,37.50030584249526],[127.14772587115989,37.50016239281178],[127.14765226636082,37.499997691343715],[127.14762179451593,37.49992971809655],[127.1478242581686,37.499872419942335],[127.14773895634973,37.499681423861446],[127.14768023109869,37.49954986070985],[127.14767034945082,37.49952779848148],[127.1476269607395,37.49943072455384],[127.14757857662413,37.49932239430793],[127.14766644075691,37.499262999968046],[127.14763998627276,37.49920906290221],[127.1475805825001,37.49907605893219],[127.1475409510159,37.499049888876975],[127.14749733551405,37.49895226916881],[127.14764867718135,37.49890793315583],[127.1476714599376,37.49887673043529],[127.14757208387937,37.498832704421076],[127.14748525772373,37.49878605352676],[127.14744887625415,37.498776009093824],[127.14731489829641,37.498739017344846],[127.14729583295039,37.49873375201219],[127.1473068790982,37.49870341979091],[127.14726266724975,37.49865364012874],[127.14717559397877,37.49856339541039],[127.14725751771441,37.498506053957335],[127.14728919790664,37.498485201812166],[127.14732933497905,37.49845868996191],[127.14744908334256,37.49837799285986],[127.14757017901056,37.49828662615011],[127.14759930511097,37.49826671411684],[127.14768788871712,37.49820460685684],[127.14777921616113,37.49813928857898],[127.14780914039639,37.498123943566945],[127.14790628323408,37.498048571857574],[127.14802337001021,37.49796759815731],[127.14807018241324,37.49793031084512],[127.14816866702589,37.49785434259457],[127.14815929515458,37.4978384786366],[127.14819310749778,37.49784301373435],[127.1482486871725,37.4977970208315],[127.14826939950069,37.49778180427274],[127.14837690680203,37.49770064930431],[127.14829245466674,37.49762198897567],[127.14825505261204,37.49758715058074],[127.14811821491827,37.49745969763924],[127.14806880418867,37.49741367467457],[127.14794942282249,37.49730473882204],[127.14806694916965,37.49727456281715],[127.14827789093205,37.49724256780152],[127.14830664395446,37.49723456545183],[127.14806332870664,37.49700976025466],[127.14817390966411,37.49693254261585],[127.14824601396718,37.496881519642024],[127.14858031478775,37.49665194401812],[127.14869260074741,37.4967756554503],[127.1488241989885,37.49689217074681],[127.14885316414333,37.49687597071493],[127.14889390194152,37.49694871157222],[127.14897832997566,37.497073845011315],[127.14898341363867,37.49708274053084],[127.14899471126029,37.497102551998815],[127.14902636689125,37.49717785036593],[127.14945788937521,37.49717982457904],[127.14953988859325,37.497169252267646],[127.14958886447937,37.49716190181755],[127.1497322801337,37.497145801341155],[127.14981166744529,37.497136583615514],[127.14985171967243,37.49712859553833],[127.14993563299025,37.49721101259841],[127.1500184158861,37.49729469241628],[127.15016715869459,37.497448972525575],[127.15018036999845,37.497463038506964],[127.1501761955696,37.497467936181025],[127.15020352284944,37.497486930877955],[127.15027862512233,37.497568079359674],[127.15027799033273,37.49761862616783],[127.1502193719287,37.49765073946554],[127.15018248764622,37.49766990507023],[127.15016755484672,37.49767736610658],[127.15008856950651,37.49771965020526],[127.1500019987742,37.49776444856012],[127.14996873186907,37.49778298786245],[127.14987864896422,37.497829133027246],[127.14978665961928,37.497877713211224],[127.14974889264401,37.49789896289593],[127.14965467312392,37.49794756379485],[127.14966240043748,37.49795509726335],[127.1496078160439,37.49798359399644],[127.14963804811892,37.49801211053547],[127.14966997514239,37.49804222871815],[127.14971729923371,37.49808686788918],[127.14979862388788,37.49816360298036],[127.14982799275298,37.49819128983281],[127.14990999247794,37.49826731220966],[127.14993314727519,37.49829210562604],[127.15001876715604,37.498367582779075],[127.15008462823258,37.49842565941191],[127.15014223659404,37.49847814218072],[127.15019860787135,37.498527202684535],[127.15025169268023,37.49857499689102],[127.15031675760854,37.49862946139156],[127.1503770895416,37.49868086842551],[127.15047051005858,37.49876040792801],[127.15046718800467,37.49876176541573],[127.15049907832865,37.49879015890565],[127.15051387589435,37.498803330857726],[127.150577362655,37.498860139797856],[127.1505987152797,37.49887925906626],[127.15067756855143,37.49895432260453],[127.15075809490297,37.49890398305184],[127.1507581358964,37.49890298829807],[127.15082104828971,37.49886429202599],[127.15094848823918,37.49878032906105],[127.15097881581316,37.4987621536037],[127.15109549891542,37.49868854754643],[127.15119056882182,37.49863087137531],[127.15124461853645,37.49863370410151],[127.15126663654772,37.49865525510168],[127.15128607253435,37.498671574571425],[127.15130256902893,37.49868600566859],[127.1513851372644,37.49876254887154],[127.15146087978474,37.49883458667816],[127.15153027229553,37.49890250592691],[127.15162526209441,37.49899241300798],[127.15171732976229,37.4990777106158],[127.15183526041574,37.499186554366794],[127.1519266297818,37.499275285499515],[127.1519527269281,37.499300624377746],[127.15204659164411,37.4993872799426],[127.15212350956944,37.49946283872039],[127.15216688345079,37.49950458972927],[127.15215258453426,37.499548459537515],[127.15200595350237,37.49960420194903],[127.15189100746558,37.49964763225913],[127.15174110790537,37.499697783303816],[127.15169777191018,37.49971441676463],[127.15165047588967,37.49973574043178],[127.15151410470321,37.49982149044706],[127.15144358288202,37.49987243229233],[127.15134671480038,37.49994774346752],[127.15135098686166,37.499950927582375],[127.15122579642393,37.500046510989556],[127.15110080665052,37.500153275393565],[127.15103333639858,37.50020926772637],[127.15101473814576,37.50025142192733],[127.1508688934046,37.50031014423106],[127.15081775063996,37.500330913807446],[127.15078947279108,37.500345158278265],[127.15036476054028,37.500530137437465],[127.15029758467573,37.500559396368146],[127.15012240197527,37.50063568811113],[127.14996289095164,37.50070515736858],[127.149745179468,37.500799981448836]],[[127.14885708826242,37.49932924546872],[127.14872118406082,37.49942370433747],[127.14862396658522,37.49948688088269],[127.14861495959879,37.49954419197269],[127.14863960319849,37.499568136845284],[127.14877989641812,37.49970446326068],[127.14899312448978,37.499911652078126],[127.14907052567196,37.49991914183509],[127.14916174164802,37.499861093700204],[127.14915671253938,37.49981108558388],[127.14918036012936,37.49973684081966],[127.1491863087361,37.499690981593076],[127.14919015769557,37.49963556540082],[127.14918558274806,37.49956924865084],[127.1491919150517,37.49951150477826],[127.14919320724229,37.49947282331483],[127.14936001366179,37.49946804662797],[127.14939999090811,37.499467257774576],[127.14939625299142,37.49944241292593],[127.14933223576773,37.49944215967111],[127.14932629251366,37.49932428952437],[127.14921652175639,37.49932714782511],[127.14922050717735,37.4993180697914],[127.149272790003,37.499238950838475],[127.1492199275352,37.49921324839378],[127.14918387464814,37.499195705978934],[127.14911348543806,37.499182378076675],[127.14907362616924,37.49917867971493],[127.14885708826242,37.49932924546872]]]},"properties":{"OBJECTID":86666,"PRESENT_SN":"11710UQ181PS202410280001","LCLAS_CL":"UQ1200","MLSFC_CL":"UQ1220","SCLAS_CL":"UQ1221","ATRB_SE":"UQ1221","WTNNC_SN":"11710AGZ202408070001","NTFC_SN":"11710NTC202409260008","DGM_NM":"마천5 재정비촉진구역","SIGNGU_SE":"11710","DRAWING_NO":" ","CREATE_DAT":1730073600000,"DGM_AR":106474.87091272,"DGM_LT":1998.04540305,"SHAPE.AREA":106474.8700034,"SHAPE.LEN":1998.0454578111103}},{"type":"Feature","id":84190,"geometry":{"type":"Polygon","coordinates":[[[127.149745179468,37.500799981448836],[127.14969631018985,37.500821270264815],[127.14959381227129,37.500865908076655],[127.14950285306493,37.50090552179785],[127.14941229150062,37.50094496376144],[127.14931707225658,37.500986429717805],[127.1492089038975,37.501033543022935],[127.14911701774423,37.50107356305413],[127.14904994351461,37.50105725768519],[127.14901454905016,37.50102301891231],[127.1489506763621,37.500961218107264],[127.14888092551375,37.500893739302725],[127.14884761359703,37.500861435026486],[127.14875518880616,37.50078838922379],[127.14862418255784,37.500877931416866],[127.14851270987847,37.50095411979776],[127.14853951931912,37.501014267688625],[127.1483793573,37.50105969699271],[127.148338808634,37.50096892680794],[127.14833392181322,37.50095785060723],[127.14828303487104,37.50084411780275],[127.14827326822555,37.5008220554871],[127.14823941962524,37.5007465038058],[127.1482076127236,37.500675184268914],[127.14819591532088,37.50064888965333],[127.14814207526845,37.50052840296363],[127.14809084788256,37.500413769492106],[127.14807494343492,37.50037810970396],[127.14785058763799,37.500441637872584],[127.1477899308218,37.50030584249526],[127.14772587115989,37.50016239281178],[127.14765226636082,37.499997691343715],[127.14762179451593,37.49992971809655],[127.1478242581686,37.499872419942335],[127.14773895634973,37.499681423861446],[127.14768023109869,37.49954986070985],[127.14767034945082,37.49952779848148],[127.1476269607395,37.49943072455384],[127.14757857662413,37.49932239430793],[127.14766644075691,37.499262999968046],[127.14763998627276,37.49920906290221],[127.1475805825001,37.49907605893219],[127.1475409510159,37.499049888876975],[127.14749733551405,37.49895226916881],[127.14764867718135,37.49890793315583],[127.1476714599376,37.49887673043529],[127.14757208387937,37.498832704421076],[127.14748525772373,37.49878605352676],[127.14744887625415,37.498776009093824],[127.14731489829641,37.498739017344846],[127.14729583295039,37.49873375201219],[127.1473068790982,37.49870341979091],[127.14726266724975,37.49865364012874],[127.14717559397877,37.49856339541039],[127.14725751771441,37.498506053957335],[127.14728919790664,37.498485201812166],[127.14732933497905,37.49845868996191],[127.14744908334256,37.49837799285986],[127.14757017901056,37.49828662615011],[127.14759930511097,37.49826671411684],[127.14768788871712,37.49820460685684],[127.14777921616113,37.49813928857898],[127.14780914039639,37.498123943566945],[127.14790628323408,37.498048571857574],[127.14802337001021,37.49796759815731],[127.14807018241324,37.49793031084512],[127.14816866702589,37.49785434259457],[127.14815929515458,37.4978384786366],[127.14819310749778,37.49784301373435],[127.1482486871725,37.4977970208315],[127.14826939950069,37.49778180427274],[127.14837690680203,37.49770064930431],[127.14829245466674,37.49762198897567],[127.14825505261204,37.49758715058074],[127.14811821491827,37.49745969763924],[127.14806880418867,37.49741367467457],[127.14794942282249,37.49730473882204],[127.14806694916965,37.49727456281715],[127.14827789093205,37.49724256780152],[127.14830664395446,37.49723456545183],[127.14806332870664,37.49700976025466],[127.14817390966411,37.49693254261585],[127.14824601396718,37.496881519642024],[127.14858031478775,37.49665194401812],[127.14869260074741,37.4967756554503],[127.1488241989885,37.49689217074681],[127.14885316414333,37.49687597071493],[127.14889390194152,37.49694871157222],[127.14897832997566,37.497073845011315],[127.14898341363867,37.49708274053084],[127.14899471126029,37.497102551998815],[127.14902636689125,37.49717785036593],[127.14945788937521,37.49717982457904],[127.14953988859325,37.497169252267646],[127.14958886447937,37.49716190181755],[127.1497322801337,37.497145801341155],[127.14981166744529,37.497136583615514],[127.14985171967243,37.49712859553833],[127.14993563299025,37.49721101259841],[127.1500184158861,37.49729469241628],[127.15016715869459,37.497448972525575],[127.15018036999845,37.497463038506964],[127.1501761955696,37.497467936181025],[127.15020352284944,37.497486930877955],[127.15027862512233,37.497568079359674],[127.15027799033273,37.49761862616783],[127.1502193719287,37.49765073946554],[127.15018248764622,37.49766990507023],[127.15016755484672,37.49767736610658],[127.15008856950651,37.49771965020526],[127.1500019987742,37.49776444856012],[127.14996873186907,37.49778298786245],[127.14987864896422,37.497829133027246],[127.14978665961928,37.497877713211224],[127.14974889264401,37.49789896289593],[127.14965467312392,37.49794756379485],[127.14966240043748,37.49795509726335],[127.1496078160439,37.49798359399644],[127.14963804811892,37.49801211053547],[127.14966997514239,37.49804222871815],[127.14971729923371,37.49808686788918],[127.14979862388788,37.49816360298036],[127.14982799275298,37.49819128983281],[127.14990999247794,37.49826731220966],[127.14993314727519,37.49829210562604],[127.15001876715604,37.498367582779075],[127.15008462823258,37.49842565941191],[127.15014223659404,37.49847814218072],[127.15019860787135,37.498527202684535],[127.15025169268023,37.49857499689102],[127.15031675760854,37.49862946139156],[127.1503770895416,37.49868086842551],[127.15047051005858,37.49876040792801],[127.15046718800467,37.49876176541573],[127.15049907832865,37.49879015890565],[127.15051387589435,37.498803330857726],[127.150577362655,37.498860139797856],[127.1505987152797,37.49887925906626],[127.15067756855143,37.49895432260453],[127.15075809490297,37.49890398305184],[127.1507581358964,37.49890298829807],[127.15082104828971,37.49886429202599],[127.15094848823918,37.49878032906105],[127.15097881581316,37.4987621536037],[127.15109549891542,37.49868854754643],[127.15119056882182,37.49863087137531],[127.15124461853645,37.49863370410151],[127.15126663654772,37.49865525510168],[127.15128607253435,37.498671574571425],[127.15130256902893,37.49868600566859],[127.1513851372644,37.49876254887154],[127.15146087978474,37.49883458667816],[127.15153027229553,37.49890250592691],[127.15162526209441,37.49899241300798],[127.15171732976229,37.4990777106158],[127.15183526041574,37.499186554366794],[127.1519266297818,37.499275285499515],[127.1519527269281,37.499300624377746],[127.15204659164411,37.4993872799426],[127.15212350956944,37.49946283872039],[127.15216688345079,37.49950458972927],[127.15215258453426,37.499548459537515],[127.15200595350237,37.49960420194903],[127.15189100746558,37.49964763225913],[127.15174110790537,37.499697783303816],[127.15169777191018,37.49971441676463],[127.15165047588967,37.49973574043178],[127.15151410470321,37.49982149044706],[127.15144358288202,37.49987243229233],[127.15134671480038,37.49994774346752],[127.15135098686166,37.499950927582375],[127.15122579642393,37.500046510989556],[127.15110080665052,37.500153275393565],[127.15103333639858,37.50020926772637],[127.15101473814576,37.50025142192733],[127.1508688934046,37.50031014423106],[127.15081775063996,37.500330913807446],[127.15078947279108,37.500345158278265],[127.15036476054028,37.500530137437465],[127.15029758467573,37.500559396368146],[127.15012240197527,37.50063568811113],[127.14996289095164,37.50070515736858],[127.149745179468,37.500799981448836]],[[127.14885708826242,37.49932924546872],[127.14872118406082,37.49942370433747],[127.14862396658522,37.49948688088269],[127.14861495959879,37.49954419197269],[127.14863960319849,37.499568136845284],[127.14877989641812,37.49970446326068],[127.14899312448978,37.499911652078126],[127.14907052567196,37.49991914183509],[127.14916174164802,37.499861093700204],[127.14915671253938,37.49981108558388],[127.14918036012936,37.49973684081966],[127.1491863087361,37.499690981593076],[127.14919015769557,37.49963556540082],[127.14918558274806,37.49956924865084],[127.1491919150517,37.49951150477826],[127.14919320724229,37.49947282331483],[127.14936001366179,37.49946804662797],[127.14939999090811,37.499467257774576],[127.14939625299142,37.49944241292593],[127.14933223576773,37.49944215967111],[127.14932629251366,37.49932428952437],[127.14921652175639,37.49932714782511],[127.14922050717735,37.4993180697914],[127.149272790003,37.499238950838475],[127.1492199275352,37.49921324839378],[127.14918387464814,37.499195705978934],[127.14911348543806,37.499182378076675],[127.14907362616924,37.49917867971493],[127.14885708826242,37.49932924546872]]]},"properties":{"OBJECTID":84190,"PRESENT_SN":"11710UQ181PS202410280001","LCLAS_CL":"UQ1200","MLSFC_CL":"UQ1220","SCLAS_CL":"UQ1221","ATRB_SE":"UQ1221","WTNNC_SN":"11710AGZ202408070001","NTFC_SN":"11710NTC202409260008","DGM_NM":"마천5 재정비촉진구역","SIGNGU_SE":"11710","DRAWING_NO":" ","CREATE_DAT":1730073600000,"DGM_AR":106474.87091272,"DGM_LT":1998.04540305,"SHAPE.AREA":106474.8700034,"SHAPE.LEN":1998.0454578111103}}]}