{"type":"FeatureCollection","features":[{"type":"Feature","id":86896,"geometry":{"type":"Polygon","coordinates":[[[127.12075129893944,37.502122538341744],[127.12098318237919,37.50264776606127],[127.12107969892885,37.50310375352456],[127.12083381046367,37.503373220262866],[127.11999517055946,37.50348479693057],[127.11990280072965,37.50335920034371],[127.11931601884845,37.50368621839265],[127.11927625166813,37.50364093785383],[127.11920873141868,37.50356694312513],[127.11913827355083,37.5034946631774],[127.11909115563225,37.503449479992874],[127.11920538472489,37.503380169623405],[127.11918830950458,37.50316520855959],[127.11901586195305,37.502946969319005],[127.11897923764846,37.50290061336071],[127.11895100739892,37.50285586183304],[127.11894239654484,37.502845779216315],[127.11895844245186,37.50283729388609],[127.11895209684019,37.50282937141299],[127.11892915837299,37.50269730792492],[127.11945282945858,37.50208311661995],[127.11921773637063,37.50195477866498],[127.11973113283196,37.50135591325727],[127.12075129893944,37.502122538341744]]]},"properties":{"OBJECTID":86896,"PRESENT_SN":"11000UQ181PS201912150433","LCLAS_CL":"UQ1200","MLSFC_CL":"UQ1240","SCLAS_CL":" ","ATRB_SE":"UQ1240","WTNNC_SN":"11000AGZ200512219700","NTFC_SN":"11000NTC200512159267","DGM_NM":"반도아파트주택재건축사업","SIGNGU_SE":"11000","DRAWING_NO":" ","CREATE_DAT":1576368000000,"DGM_AR":30091.53698508,"DGM_LT":745.57564027,"SHAPE.AREA":30091.536985,"SHAPE.LEN":745.575640266351}}]}