{"type":"FeatureCollection","features":[{"type":"Feature","id":84528,"geometry":{"type":"Polygon","coordinates":[[[127.12310814937017,37.50657787035271],[127.12256910826001,37.50679794831676],[127.12231671583666,37.50640429067727],[127.12166470894836,37.50667124714707],[127.12161099288565,37.506693239248065],[127.12129772051647,37.50620467617826],[127.1213498794498,37.50607614106078],[127.12207518744745,37.505781014819334],[127.12248022855468,37.50561620118356],[127.12254386634537,37.50559397146837],[127.12260909269295,37.50557498368123],[127.12267568155656,37.505559328151044],[127.12274340675062,37.50554700510766],[127.1228119289931,37.505538014897496],[127.12288102239103,37.505532537950735],[127.12295046061438,37.50553048439928],[127.1229854063561,37.505529727674435],[127.12314681615166,37.50559807704541],[127.12361092471524,37.50579460677508],[127.12366989194932,37.50582130543816],[127.12372660168586,37.505850709399134],[127.12378094112485,37.50588299897741],[127.12383268348681,37.505917814012086],[127.12388171567598,37.50595515462369],[127.12392758500907,37.50599484108516],[127.12397040428866,37.50603669308372],[127.12400983407326,37.50608062087489],[127.12404576082083,37.50612635428058],[127.12407818438024,37.506173803204376],[127.12408215325956,37.50618019616753],[127.12310814937017,37.50657787035271]]]},"properties":{"OBJECTID":84528,"PRESENT_SN":"11000UQ181PS201912151590","LCLAS_CL":"UQ1200","MLSFC_CL":"UQ1240","SCLAS_CL":" ","ATRB_SE":"UQ1240","WTNNC_SN":"11000AGZ201909110252","NTFC_SN":"11000NTC201908291090","DGM_NM":"한양3차아파트 재건축 정비구역","SIGNGU_SE":"11000","DRAWING_NO":" ","CREATE_DAT":1576368000000,"DGM_AR":20080.68685098,"DGM_LT":627.08068633,"SHAPE.AREA":20080.686851,"SHAPE.LEN":627.080686326738}},{"type":"Feature","id":84443,"geometry":{"type":"Polygon","coordinates":[[[127.12310814937017,37.50657787035271],[127.12256910826001,37.50679794831676],[127.12231671583666,37.50640429067727],[127.12166470894836,37.50667124714707],[127.12161099288565,37.506693239248065],[127.12129772051647,37.50620467617826],[127.1213498794498,37.50607614106078],[127.12207518744745,37.505781014819334],[127.12248022855468,37.50561620118356],[127.12254386634537,37.50559397146837],[127.12260909269295,37.50557498368123],[127.12267568155656,37.505559328151044],[127.12274340675062,37.50554700510766],[127.1228119289931,37.505538014897496],[127.12288102239103,37.505532537950735],[127.12295046061438,37.50553048439928],[127.1229854063561,37.505529727674435],[127.12314681615166,37.50559807704541],[127.12361092471524,37.50579460677508],[127.12366989194932,37.50582130543816],[127.12372660168586,37.505850709399134],[127.12378094112485,37.50588299897741],[127.12383268348681,37.505917814012086],[127.12388171567598,37.50595515462369],[127.12392758500907,37.50599484108516],[127.12397040428866,37.50603669308372],[127.12400983407326,37.50608062087489],[127.12404576082083,37.50612635428058],[127.12407818438024,37.506173803204376],[127.12408215325956,37.50618019616753],[127.12310814937017,37.50657787035271]]]},"properties":{"OBJECTID":84443,"PRESENT_SN":"11000UQ181PS201912151590","LCLAS_CL":"UQ1200","MLSFC_CL":"UQ1240","SCLAS_CL":" ","ATRB_SE":"UQ1240","WTNNC_SN":"11000AGZ201909110252","NTFC_SN":"11000NTC201908291090","DGM_NM":"한양3차아파트 재건축 정비구역","SIGNGU_SE":"11000","DRAWING_NO":" ","CREATE_DAT":1576368000000,"DGM_AR":20080.68685098,"DGM_LT":627.08068633,"SHAPE.AREA":20080.686851,"SHAPE.LEN":627.080686326738}}]}