{"type":"FeatureCollection","features":[{"type":"Feature","id":85833,"geometry":{"type":"Polygon","coordinates":[[[127.12883113329573,37.506378078156665],[127.12726549579752,37.50704144743544],[127.12776631500786,37.50778955174247],[127.12637661605787,37.50838001049574],[127.12631121558746,37.508363230960285],[127.12616140552646,37.50832473635597],[127.12494798491443,37.5063581426422],[127.12489661450144,37.50627494415688],[127.12470179297861,37.50595907761402],[127.12466561381856,37.50589757721643],[127.12463361694888,37.5058346308527],[127.12460568970758,37.50577050894274],[127.12458217137666,37.50570521113599],[127.12456283634332,37.50563909806902],[127.12454791093865,37.50557225960785],[127.12453739544699,37.505504875953335],[127.12453129015235,37.50543712730585],[127.12452959548632,37.50536928396484],[127.12453242468123,37.505301435912294],[127.12453977802045,37.50523376334715],[127.12454531500596,37.50516194808409],[127.12455526302561,37.50509030842534],[127.12456962280612,37.50501929486777],[127.12458828109155,37.504948817428065],[127.12461112536603,37.50487923662043],[127.12463838181012,37.5048105522068],[127.12466971156984,37.50474303483661],[127.12470511478364,37.504676774606295],[127.12471413710809,37.50466135813992],[127.12474459188674,37.50461204181103],[127.12478802977564,37.50454883656486],[127.12483520284536,37.50448751949795],[127.12488611094193,37.5044280005063],[127.12494052831507,37.50437055012029],[127.12499845510946,37.50431525843473],[127.12505977867289,37.504262395861566],[127.12512415957116,37.504211872651034],[127.12519159824991,37.50416395909697],[127.12603344944313,37.50360265424207],[127.12620209787846,37.50361779332544],[127.12724292571762,37.50471059138314],[127.12731135605323,37.50478241813608],[127.12883113329573,37.506378078156665]]]},"properties":{"OBJECTID":85833,"PRESENT_SN":"11710UQ181PS202409030001","LCLAS_CL":"UQ1200","MLSFC_CL":"UQ1240","SCLAS_CL":" ","ATRB_SE":"UQ1240","WTNNC_SN":"11710AGZ202404160001","NTFC_SN":"11710NTC202404160002","DGM_NM":"오금현대아파트 재건축정비구역","SIGNGU_SE":"11710","DRAWING_NO":" ","CREATE_DAT":1725321600000,"DGM_AR":110232.13429999,"DGM_LT":1418.08121815,"SHAPE.AREA":110232.1343,"SHAPE.LEN":1418.08121815116}}]}