{"type":"FeatureCollection","features":[{"type":"Feature","id":86667,"geometry":{"type":"Polygon","coordinates":[[[126.94277290656798,37.59207506049443],[126.94296907453551,37.59213197404055],[126.9430081636507,37.59214282325619],[126.94320325576835,37.59220042963733],[126.94323317726405,37.59220642695255],[126.9434573939606,37.59227608444286],[126.94355533549935,37.59230634258608],[126.94365219537247,37.59232982471476],[126.94367107975809,37.5923325189046],[126.94373679171815,37.592342839431126],[126.94373124525052,37.59235233399277],[126.94370584903578,37.59239510029739],[126.94360886698293,37.59255840123084],[126.94352355100395,37.59270204833331],[126.9435188419279,37.59271503821415],[126.94349402186307,37.59277377019646],[126.94346995608981,37.59285262152445],[126.94345463113841,37.592902861883864],[126.94337621896811,37.59312248326423],[126.94332526756219,37.59312011559668],[126.9433162115961,37.59311704778504],[126.94308675669271,37.593038819081904],[126.94272825562145,37.59291655769384],[126.94265828799315,37.59290643180027],[126.94256398367052,37.59288674327867],[126.94254263727312,37.592818438001885],[126.94253064851688,37.5928013133086],[126.94242455969292,37.592649624576104],[126.94237015816125,37.59257193247465],[126.9423074898526,37.59249576787409],[126.94228565382804,37.59247422339141],[126.94215203555659,37.59234261254075],[126.94213551955652,37.59232332316636],[126.94209209710034,37.5922514027559],[126.94203488637153,37.5921474904331],[126.94200333466766,37.59209864117151],[126.94193086567863,37.592003163326],[126.94191125658973,37.59198651224222],[126.9418858158745,37.59194199075921],[126.94183846176283,37.59188815913219],[126.94184483735667,37.59188705504555],[126.94185359103115,37.59188557284618],[126.94191319234076,37.59187348471626],[126.9418938510322,37.59186185224806],[126.94191675474113,37.591836239816054],[126.94193867682839,37.591848882685824],[126.94199065782036,37.59187952436472],[126.94202644318698,37.59187835761148],[126.94203063912252,37.59187870660522],[126.94210641817166,37.59188393444176],[126.94211596277765,37.59187028933035],[126.942171552835,37.59189042726657],[126.9422541991372,37.591917101891546],[126.94235114236557,37.59194855884357],[126.9424148503188,37.591969520629654],[126.94248265695775,37.59199072769712],[126.94254371796495,37.59200850761448],[126.94254455690218,37.592007174576615],[126.94263259112012,37.59203637438451],[126.94274947367477,37.59206835451544],[126.94277290656798,37.59207506049443]]]},"properties":{"OBJECTID":86667,"PRESENT_SN":"11410UQ181PS202408010002","LCLAS_CL":"UQ1200","MLSFC_CL":"UQ1220","SCLAS_CL":"UQ1222","ATRB_SE":"UQ1222","WTNNC_SN":"11410AGZ202310300002","NTFC_SN":"11410NTC202310300001","DGM_NM":"홍은1 도시정비형 재개발사업","SIGNGU_SE":"11410","DRAWING_NO":" ","CREATE_DAT":1722470400000,"DGM_AR":11481.43980912,"DGM_LT":483.46214899,"SHAPE.AREA":11481.43952185,"SHAPE.LEN":483.46208275854104}},{"type":"Feature","id":84191,"geometry":{"type":"Polygon","coordinates":[[[126.94277290656798,37.59207506049443],[126.94296907453551,37.59213197404055],[126.9430081636507,37.59214282325619],[126.94320325576835,37.59220042963733],[126.94323317726405,37.59220642695255],[126.9434573939606,37.59227608444286],[126.94355533549935,37.59230634258608],[126.94365219537247,37.59232982471476],[126.94367107975809,37.5923325189046],[126.94373679171815,37.592342839431126],[126.94373124525052,37.59235233399277],[126.94370584903578,37.59239510029739],[126.94360886698293,37.59255840123084],[126.94352355100395,37.59270204833331],[126.9435188419279,37.59271503821415],[126.94349402186307,37.59277377019646],[126.94346995608981,37.59285262152445],[126.94345463113841,37.592902861883864],[126.94337621896811,37.59312248326423],[126.94332526756219,37.59312011559668],[126.9433162115961,37.59311704778504],[126.94308675669271,37.593038819081904],[126.94272825562145,37.59291655769384],[126.94265828799315,37.59290643180027],[126.94256398367052,37.59288674327867],[126.94254263727312,37.592818438001885],[126.94253064851688,37.5928013133086],[126.94242455969292,37.592649624576104],[126.94237015816125,37.59257193247465],[126.9423074898526,37.59249576787409],[126.94228565382804,37.59247422339141],[126.94215203555659,37.59234261254075],[126.94213551955652,37.59232332316636],[126.94209209710034,37.5922514027559],[126.94203488637153,37.5921474904331],[126.94200333466766,37.59209864117151],[126.94193086567863,37.592003163326],[126.94191125658973,37.59198651224222],[126.9418858158745,37.59194199075921],[126.94183846176283,37.59188815913219],[126.94184483735667,37.59188705504555],[126.94185359103115,37.59188557284618],[126.94191319234076,37.59187348471626],[126.9418938510322,37.59186185224806],[126.94191675474113,37.591836239816054],[126.94193867682839,37.591848882685824],[126.94199065782036,37.59187952436472],[126.94202644318698,37.59187835761148],[126.94203063912252,37.59187870660522],[126.94210641817166,37.59188393444176],[126.94211596277765,37.59187028933035],[126.942171552835,37.59189042726657],[126.9422541991372,37.591917101891546],[126.94235114236557,37.59194855884357],[126.9424148503188,37.591969520629654],[126.94248265695775,37.59199072769712],[126.94254371796495,37.59200850761448],[126.94254455690218,37.592007174576615],[126.94263259112012,37.59203637438451],[126.94274947367477,37.59206835451544],[126.94277290656798,37.59207506049443]]]},"properties":{"OBJECTID":84191,"PRESENT_SN":"11410UQ181PS202408010002","LCLAS_CL":"UQ1200","MLSFC_CL":"UQ1220","SCLAS_CL":"UQ1222","ATRB_SE":"UQ1222","WTNNC_SN":"11410AGZ202310300002","NTFC_SN":"11410NTC202310300001","DGM_NM":"홍은1 도시정비형 재개발사업","SIGNGU_SE":"11410","DRAWING_NO":" ","CREATE_DAT":1722470400000,"DGM_AR":11481.43980912,"DGM_LT":483.46214899,"SHAPE.AREA":11481.43952185,"SHAPE.LEN":483.46208275854104}}]}