{"type":"FeatureCollection","features":[{"type":"Feature","id":85649,"geometry":{"type":"Polygon","coordinates":[[[126.92497349591574,37.589403207473694],[126.92496889552697,37.58941547229929],[126.92495539862566,37.58945145248197],[126.92494372704421,37.58944859059134],[126.9249134031241,37.5894411540094],[126.92491029025504,37.58944038615214],[126.92475515606769,37.58940230886109],[126.92474963830249,37.589417000334564],[126.92458275481752,37.58937581578744],[126.92463148449107,37.58926752213555],[126.92460969386823,37.589262741730586],[126.92456372168488,37.58928804746178],[126.92426566126339,37.58921062035486],[126.92419027422011,37.58919147011575],[126.92387047951571,37.589132155584856],[126.9237143744897,37.58910331138042],[126.92353128800717,37.58906406079159],[126.92326915836826,37.58890795387304],[126.92325173288017,37.58889758099477],[126.92314385096232,37.588878859029286],[126.92298295730788,37.58888244613207],[126.9228431128622,37.588895777683085],[126.92279385262444,37.58890358340913],[126.9227265853654,37.58891570182383],[126.92272616200978,37.588887680912386],[126.92272572621305,37.58887146289412],[126.92272288717554,37.588772082368735],[126.92272661255578,37.58877175149101],[126.9227213390777,37.588522148127026],[126.92271744391572,37.58835059799773],[126.92272306492944,37.58828122590957],[126.92272634023885,37.58823523281417],[126.92273738072117,37.588126536347424],[126.92274846354945,37.58800985717889],[126.92275913417005,37.58789752047967],[126.92277202654515,37.58776117400859],[126.92277722473878,37.58770616333022],[126.9227852048746,37.587600528156855],[126.92277405550225,37.58759777271549],[126.92278872428675,37.587430199277854],[126.92280610208294,37.587377953732],[126.92281909502094,37.5871889357211],[126.92282840974659,37.587052262487354],[126.92283634332307,37.58693694167724],[126.92283682633872,37.586929824216476],[126.92284565741606,37.586800809026904],[126.9228545111064,37.58667179384888],[126.92286324984006,37.58654440036413],[126.92287221792029,37.586414213974514],[126.92306040088478,37.58640226599669],[126.92316807949409,37.586395490027506],[126.92319975858283,37.5864167743012],[126.92319225801577,37.586551646812765],[126.92318394958922,37.58670111474476],[126.92317552602054,37.586852384566285],[126.92317123284458,37.586930046637924],[126.92316790912275,37.586990140141495],[126.92316040909996,37.58712438194856],[126.9231753462434,37.58713196013793],[126.92320657852225,37.5871477481015],[126.92332403899327,37.58720729098516],[126.92344195234529,37.587267014248035],[126.9235608843072,37.587327278656346],[126.92368174018038,37.5873885352965],[126.92378806591061,37.58737752324157],[126.9237884403302,37.58734409694116],[126.92388106797982,37.58722243481055],[126.9240159483384,37.58718891669871],[126.92425168738947,37.58717528616596],[126.92447400971275,37.58721660649896],[126.92475321388817,37.587224135030226],[126.92476848804262,37.587224546801494],[126.92483732421074,37.5872263935074],[126.92485487291458,37.5872268553982],[126.92506646880605,37.58723978661733],[126.9252171963954,37.587209340744685],[126.92521166411915,37.587228513735965],[126.92521119713135,37.58723013160338],[126.92526877132936,37.587217491946184],[126.92538625252978,37.587191700490514],[126.92566911441503,37.58715503228975],[126.92571295908775,37.587149375237715],[126.92571984378706,37.58714848768343],[126.9258072164675,37.5871815198106],[126.92586832199224,37.587662144436656],[126.92585115492706,37.587731959775304],[126.92580580229675,37.58779526994367],[126.92580002645951,37.5877967979135],[126.92566372415024,37.58789239501483],[126.92555916528352,37.5879469274713],[126.92544178608318,37.58828300937989],[126.92540677459948,37.5883862396861],[126.92538937043737,37.58843257512837],[126.92507878236894,37.58925962268406],[126.92510464677068,37.58943389259241],[126.92510305787553,37.589434249254815],[126.92504229308308,37.58940087346562],[126.92502145918115,37.58940158075392],[126.92497349591574,37.589403207473694]]]},"properties":{"OBJECTID":85649,"PRESENT_SN":"11000UQ181PS201912151388","LCLAS_CL":"UQ1200","MLSFC_CL":"UQ1220","SCLAS_CL":"UQ1221","ATRB_SE":"UQ1221","WTNNC_SN":"11000AGZ201201208094","NTFC_SN":"11000NTC201112226348","DGM_NM":"응암제9주택재개발사업","SIGNGU_SE":"11000","DRAWING_NO":" ","CREATE_DAT":1576368000000,"DGM_AR":54711.01541358,"DGM_LT":1162.29279714,"SHAPE.AREA":54711.01541363,"SHAPE.LEN":1162.29279713618}}]}