{"type":"FeatureCollection","features":[{"type":"Feature","id":86603,"geometry":{"type":"Polygon","coordinates":[[[127.04331433289856,37.58365806824391],[127.04324351015129,37.58386923031658],[127.04317125295435,37.58408719528802],[127.0431152146788,37.58425633007557],[127.04308754613548,37.584340392782096],[127.04300541246994,37.584593607672865],[127.04297260265281,37.58469630453839],[127.04293031028841,37.58482867417793],[127.04288407633486,37.58495836024338],[127.04288199780173,37.58496678518749],[127.04288029010307,37.5849701825017],[127.04287893368131,37.584974129294075],[127.04286811761753,37.58500814529111],[127.0428600034191,37.58503489839657],[127.04284049626087,37.58509664977166],[127.04283222350388,37.58512333986133],[127.04281475045558,37.585178288077984],[127.04279325421109,37.58524659030492],[127.0427589605254,37.58526693753529],[127.04273750143564,37.58527955882839],[127.04272591920058,37.585279418714244],[127.04266159930255,37.58527761214785],[127.04255057645247,37.58527451535962],[127.04250783628584,37.58527353912339],[127.04242686174774,37.585271098510965],[127.04236609681095,37.58526913738407],[127.0422442840503,37.585265485429694],[127.0421235469413,37.58526196812747],[127.04200481399378,37.58525881941853],[127.04181590765869,37.58525350517021],[127.04168827559897,37.58524990868753],[127.0416450944913,37.58520782932549],[127.04164662169468,37.58516334714655],[127.04164869776086,37.585107872756],[127.04165025747432,37.585060687608305],[127.04165141328964,37.58502036810805],[127.04165297603714,37.58497884114845],[127.04165368702185,37.584974588254454],[127.04165421099195,37.58495940646815],[127.04165549115366,37.58491873554049],[127.04166608433178,37.58478490853727],[127.04166821512416,37.5847470574042],[127.04167071396964,37.58469885382006],[127.04167081473719,37.58469675448913],[127.04167662672735,37.58457768725196],[127.04168444947156,37.584408137097434],[127.04168594957837,37.584376511987635],[127.04154936313002,37.584371999394875],[127.04147915599998,37.58436869854364],[127.04133775761751,37.584363673772906],[127.041276846136,37.58436146886813],[127.04121934259845,37.584359515061884],[127.0411828749607,37.58435818485161],[127.04109861884146,37.584356978780505],[127.0410721145815,37.58435631192453],[127.04097136188815,37.58435324624818],[127.04087654159632,37.58434992623212],[127.04084446703058,37.58434911702434],[127.04074392961802,37.58434633939762],[127.04065801989823,37.58434386317155],[127.04060806815134,37.584342375076105],[127.04056714423457,37.58430615097298],[127.04056139019455,37.58430105329676],[127.04056492389617,37.58423862282477],[127.04056576571757,37.58422464825711],[127.04056700425092,37.58421154751439],[127.0405705806463,37.58414417061523],[127.04057164540512,37.584123510659076],[127.04057169022083,37.584122609658436],[127.04057518725797,37.58405504357738],[127.04057556889194,37.58404872754071],[127.0405761525913,37.58403911382917],[127.04057834155326,37.58400323585045],[127.04058284526398,37.58386887935619],[127.0405903786581,37.583725971500314],[127.04059072431869,37.58371581727545],[127.04059886415963,37.58356356599117],[127.04060514791898,37.583455914118346],[127.04065317453991,37.58345762810006],[127.0407256896988,37.58345966729647],[127.04099142085316,37.58346848048402],[127.04121153673549,37.58347527219146],[127.04125404966734,37.583476699466964],[127.04127995373184,37.58347765479989],[127.04132340612877,37.583478667280474],[127.041597842907,37.583486106668694],[127.04178094792317,37.58349098176419],[127.0418437265753,37.58349285240677],[127.04211916054454,37.583501758849344],[127.04243222767141,37.5835115075492],[127.04265749595382,37.58351987149985],[127.04284356623003,37.58352271669549],[127.0428451965544,37.58352277018392],[127.04293644927944,37.583525486210554],[127.04293844198143,37.583525701748016],[127.04294363867996,37.58352594319078],[127.04294782788074,37.58352639221363],[127.0429494581453,37.58352633758233],[127.04295089607938,37.58352652628468],[127.04295232259705,37.58352654380375],[127.04295462093937,37.58352668715481],[127.04295531157021,37.58352672295181],[127.04295613805392,37.58352674969129],[127.0429573041524,37.58352672225238],[127.04296119881982,37.5835268560331],[127.04298080802985,37.58352755191654],[127.04324332461454,37.58353677561732],[127.04330226598476,37.58353977307278],[127.04335405003403,37.58353894384549],[127.04331433289856,37.58365806824391]]]},"properties":{"OBJECTID":86603,"PRESENT_SN":"11000UQ181PS201912151384","LCLAS_CL":"UQ1200","MLSFC_CL":"UQ1220","SCLAS_CL":"UQ1221","ATRB_SE":"UQ1221","WTNNC_SN":"11000AGZ201808060157","NTFC_SN":"11000NTC201807050001","DGM_NM":"제기제4 재개발 구역","SIGNGU_SE":"11000","DRAWING_NO":" ","CREATE_DAT":1576368000000,"DGM_AR":33553.603481,"DGM_LT":831.4859633,"SHAPE.AREA":33553.603481,"SHAPE.LEN":831.485963301038}}]}