{"type":"FeatureCollection","features":[{"type":"Feature","id":85190,"geometry":{"type":"Polygon","coordinates":[[[126.93323291719368,37.62159673392301],[126.93302136962356,37.62154696732701],[126.93288289949419,37.62151629860276],[126.93287657460324,37.62158256199429],[126.93282380079842,37.62157036805648],[126.93273671233672,37.62155067596609],[126.93263059431645,37.621530792508075],[126.93231076649117,37.621460608241996],[126.93220658843802,37.62143774329678],[126.93203608101021,37.62139965771178],[126.93180817934144,37.621348762094264],[126.93174585826286,37.621371610152174],[126.93178209350339,37.621263063491604],[126.93179908053003,37.62118221058041],[126.93193817661701,37.62072238745202],[126.93198179177963,37.62058246393474],[126.9320033100914,37.62050073069415],[126.93208593398684,37.62025274853638],[126.93211236667027,37.6201846590012],[126.9321459107684,37.620057676570596],[126.93217306920864,37.61996417079691],[126.93218805649758,37.61992579784959],[126.9322486372497,37.61973843856548],[126.9323230160405,37.61956101613727],[126.93244189713323,37.61937224934435],[126.932491737614,37.61930880445159],[126.93250398616387,37.61929205338328],[126.93259992421541,37.61917029692323],[126.93261909001569,37.619144990569744],[126.93263360504979,37.61912697943841],[126.93267827174918,37.61908492972512],[126.93276990565798,37.61908552373232],[126.93282601467124,37.619164121884964],[126.93291006514337,37.6192820189963],[126.93301176959275,37.619417675605604],[126.93310680092505,37.619543057081735],[126.93310827202431,37.61954458960089],[126.93320365102312,37.61964935677158],[126.9331847272143,37.61967023053552],[126.93319544248345,37.61971979064923],[126.93320324638674,37.61973258908555],[126.93326320082551,37.619694602415144],[126.93321732144578,37.61982404671885],[126.9331895982615,37.61991728211465],[126.93316324002346,37.62000421143222],[126.93310342296041,37.62020098686295],[126.93310387469656,37.62021481716923],[126.93309214269826,37.62023645190876],[126.93307646221413,37.6202653552663],[126.93307956144238,37.62034428291844],[126.93307704586725,37.62037004948942],[126.93311114844609,37.620484854122566],[126.93317252025214,37.62063156923331],[126.93312530164458,37.620614693549754],[126.93320767452236,37.620711416418196],[126.93322125635248,37.62072313701975],[126.93332934149872,37.620820505366],[126.93338337068758,37.62088273032195],[126.9334447902326,37.620917157075766],[126.93349568451421,37.62100268942377],[126.93350235728145,37.6210139555196],[126.93350263528964,37.62101963185366],[126.93350413614054,37.62105071652752],[126.9335058114966,37.621076755814016],[126.93350603188446,37.621083513290735],[126.93350777939504,37.62115469171418],[126.93350690767595,37.62124121231548],[126.9335055935729,37.621241373734506],[126.93347609426573,37.6212449516388],[126.93346676933376,37.62128512996653],[126.93344291056162,37.62136368165437],[126.93342883210634,37.62139953253241],[126.93346881909864,37.621397483344445],[126.93345788401591,37.62141463169552],[126.93342073005967,37.621416566288275],[126.93340270670882,37.62145445920972],[126.93339466666419,37.62147677184063],[126.93333846453575,37.62155960250274],[126.93323291719368,37.62159673392301]]]},"properties":{"OBJECTID":85190,"PRESENT_SN":"11380UQ181PS202406040001","LCLAS_CL":"UQ1200","MLSFC_CL":"UQ1206","SCLAS_CL":" ","ATRB_SE":"UQ1206","WTNNC_SN":"11380AGZ202405280001","NTFC_SN":"11380NTC202405280001","DGM_NM":"불광1 주택재건축 정비구역","SIGNGU_SE":"11380","DRAWING_NO":" ","CREATE_DAT":1717459200000,"DGM_AR":25946.29124462,"DGM_LT":761.22869947,"SHAPE.AREA":25946.2910061,"SHAPE.LEN":761.22873324504}}]}