{"type":"FeatureCollection","features":[{"type":"Feature","id":84557,"geometry":{"type":"Polygon","coordinates":[[[126.98525588540663,37.47765564115691],[126.98524294197628,37.47744075035087],[126.98529178653341,37.477417961711154],[126.98550779972392,37.477525669946054],[126.98559495578061,37.47756911903695],[126.98574405956428,37.47764346270267],[126.98582306547,37.47768286503662],[126.98597098275135,37.47775660458559],[126.98610730203498,37.47782457602294],[126.98619014050979,37.47786587972449],[126.98631528006936,37.47792860563774],[126.98640886915597,37.47797584817178],[126.98650336271675,37.47802353223728],[126.98658205280098,37.47806325838194],[126.98668470838854,37.47811506992266],[126.98679581985527,37.47817114416735],[126.98690911324923,37.478228335819395],[126.98701627978272,37.478282418153434],[126.98714820335118,37.478349009311415],[126.98740537020207,37.47847880261808],[126.98739960287524,37.47848655054696],[126.98738059332497,37.47851198356251],[126.9873636419073,37.478534659755184],[126.98705115788057,37.47851534047315],[126.98704085842745,37.47851545634221],[126.98705862096482,37.47862562403663],[126.98706209953001,37.47864418510407],[126.9870786886187,37.47874250447299],[126.98709176637517,37.478816415265115],[126.98709698479787,37.47884140068755],[126.98710339979772,37.478875909846735],[126.98712697946601,37.47901467603628],[126.98715572345655,37.47916641727366],[126.98716357142924,37.47921614452466],[126.98718593364835,37.47933734100901],[126.98719640302632,37.47939529472177],[126.98720568683993,37.47944524739251],[126.98703328334607,37.47945444363752],[126.9868606761618,37.479464378427245],[126.98682740281532,37.47946668086077],[126.98670697641607,37.4795674879421],[126.9866794987734,37.47959061321376],[126.98656608274835,37.47968554649712],[126.98651544678386,37.47972834667871],[126.98645951863237,37.479776155734406],[126.98643092146979,37.479799731305704],[126.9863544472391,37.479863746709526],[126.98627524756007,37.479930762047786],[126.98625687241284,37.47994624789786],[126.98617656435545,37.48001438927813],[126.98615324192018,37.48006204924436],[126.98619658646841,37.48007252451278],[126.98624180261685,37.48010848033834],[126.9862430459327,37.4801101023023],[126.98630182119672,37.480185433634986],[126.98630430792493,37.4801882270607],[126.98635958090426,37.48025157458905],[126.98636331099404,37.480255809775805],[126.98647239614593,37.480339256478494],[126.98650540088677,37.48038178795921],[126.98652416625434,37.4803940439655],[126.98656339266228,37.480419727485945],[126.98657537537545,37.48042756771694],[126.98656485704663,37.48044675772394],[126.98656101163243,37.48045378505101],[126.98657548093676,37.48046522960364],[126.98667203453859,37.4804601961625],[126.98669430568,37.48046794757322],[126.98671940313011,37.480476600335415],[126.98679379130583,37.480501206974694],[126.98681809748682,37.48050922891608],[126.98688886635266,37.48054140345972],[126.98690446717738,37.48054843320346],[126.98692707682905,37.480559878719156],[126.98702384081456,37.48063683617428],[126.98707528039674,37.480649816896694],[126.98705074006953,37.48068306085863],[126.98704248458259,37.48069414216886],[126.98712071817917,37.480713162861754],[126.98719669072543,37.480731642627816],[126.98721929831407,37.48075444070854],[126.98722755009328,37.48076273092235],[126.98726146603624,37.48077309653826],[126.98728102423966,37.48077904550727],[126.98735100266728,37.48080842657222],[126.98744303069134,37.48082246616481],[126.98748855075847,37.48075024728078],[126.98745933988585,37.48073022355148],[126.98747292423793,37.48069876218681],[126.9874785218295,37.48069266307029],[126.98750518285556,37.48068424186845],[126.98751326588292,37.480688171194096],[126.98755670682364,37.480730433314434],[126.98760669456183,37.48070850882745],[126.98759492875725,37.48068855025384],[126.98764229577492,37.48065418260905],[126.98771245729587,37.480794684023145],[126.9877136778946,37.480797112365295],[126.98773252947441,37.48083406915049],[126.98763815461191,37.48091595014786],[126.9876712765352,37.480941091980206],[126.98768958667308,37.48097136778046],[126.98769071199479,37.481000019765354],[126.98771895974939,37.481093907440396],[126.98773646977021,37.481171846126415],[126.9877333008875,37.48118923508856],[126.98770989114668,37.4812232001175],[126.98770050462899,37.48123680414512],[126.98763492553667,37.48125869079917],[126.98762655854635,37.48126148292101],[126.98761943001482,37.48129238643874],[126.98758571087377,37.48143843483016],[126.98758287136005,37.48144753461155],[126.98755505313072,37.48153673048605],[126.98755459996532,37.481541685941245],[126.98754927528802,37.481599799914115],[126.98754821087316,37.48160862059373],[126.98754044287405,37.48167314039785],[126.98753398835383,37.48172701952775],[126.98753290127777,37.481736083474814],[126.98753115740891,37.481750715533714],[126.98742600077273,37.48180251063054],[126.98736200780492,37.481804034685126],[126.98735251060698,37.48180430384759],[126.98734288950787,37.48186196679272],[126.98734448028146,37.481939795495876],[126.98731379730363,37.4819894550159],[126.98727723308897,37.48204961048659],[126.9872652834384,37.48204452739751],[126.98722460706922,37.48202768276657],[126.98716555959282,37.48200360985972],[126.98710301646715,37.482108127432426],[126.98710066386928,37.48211288443336],[126.98707237809522,37.48215981414714],[126.98703583621459,37.48221997855406],[126.98710144071434,37.4822476833609],[126.9871193369935,37.48225511880492],[126.98720249871961,37.482289970635016],[126.98721653987884,37.48229596399484],[126.98729731647335,37.48232877019598],[126.98738100998655,37.48236239660202],[126.98743036920668,37.48238210739819],[126.98739095482172,37.48244706489796],[126.98738813877802,37.48245128124806],[126.98737172831366,37.482478507548514],[126.98735520479887,37.48250560769281],[126.98734395155262,37.48252437420361],[126.98728990213635,37.48261359388021],[126.9872525684849,37.482675262926556],[126.98722755114757,37.48271671497888],[126.98717416886049,37.482804177727566],[126.98716370726194,37.482821385583875],[126.98714747763924,37.4828480712726],[126.98710196661234,37.482923749845604],[126.98709731830682,37.48293112847973],[126.98706176284537,37.482916365733175],[126.98698143808826,37.482882964768905],[126.98695409031163,37.482871942154866],[126.98690720683236,37.48285294325857],[126.98688258370395,37.48284288503625],[126.98666255849456,37.482753514284596],[126.9866019391657,37.482728891290556],[126.98658904598918,37.48274916219406],[126.98656652842135,37.48278321720017],[126.98652675195348,37.482844786596104],[126.98652520227438,37.482848381395044],[126.98652108543106,37.48285516541309],[126.98648792505693,37.482906815609454],[126.98647801753718,37.48292281613339],[126.98647694387606,37.482920635573414],[126.98647410484,37.48292640162084],[126.98643571937943,37.48298556548801],[126.98637979195838,37.48307351408955],[126.98632240564865,37.48316265179744],[126.98630320148196,37.4831923193005],[126.98628572737874,37.48322095988174],[126.986245882139,37.48328484474298],[126.98623871352773,37.483286735919116],[126.98619313539855,37.48329765015336],[126.98619035411137,37.483297280382104],[126.98616177407929,37.48328541949442],[126.98610389047859,37.48326149037357],[126.98604842624937,37.48323864274258],[126.98600022007211,37.48321894954341],[126.98598865467406,37.48321417271715],[126.9859238184646,37.48318698096911],[126.9858887153119,37.4831724792203],[126.98579729997451,37.48313583238043],[126.98570372560238,37.48309736515797],[126.98570174728083,37.483096013391176],[126.9855329586848,37.483026559516276],[126.98553043751366,37.483025919464275],[126.98552968000423,37.48302585629168],[126.98552970262266,37.48302582926471],[126.98555040034186,37.48299213461231],[126.98554315322895,37.48288482436966],[126.98553573707984,37.482774991297845],[126.98553062019279,37.4826991262877],[126.98552628097072,37.48263488429992],[126.98557485832507,37.48250164176241],[126.98560850262201,37.48240936572861],[126.98563481615585,37.482337217071425],[126.98565681948934,37.482276843918356],[126.98568549729382,37.48219819934486],[126.98570671996394,37.48213998848003],[126.98570763801037,37.48207565709587],[126.98568380528206,37.48196528121981],[126.98564455332557,37.481897628759505],[126.98561432043893,37.48184551977603],[126.98554882541158,37.481732642480075],[126.98551190189927,37.48166900875466],[126.98546783442247,37.48154583586256],[126.98546367695731,37.48142528128463],[126.98545941840642,37.48130166328482],[126.9854568452855,37.481227060000386],[126.98545573292918,37.48119462379031],[126.98545317104443,37.48112038090663],[126.98545165416266,37.48107632171956],[126.98544760921115,37.48095856025189],[126.98544499106329,37.48088314605521],[126.98544141783748,37.480780070975385],[126.98543839527399,37.480692583298236],[126.98543531645802,37.48060383420966],[126.98543232755608,37.48051760793677],[126.98540985382888,37.48040074494852],[126.98540133996916,37.48024514078167],[126.98539539381854,37.48013638905428],[126.9853913396357,37.480062236052454],[126.98538387318973,37.4799257332572],[126.98536996519451,37.4796713785346],[126.98536414301338,37.479564879316655],[126.98535780283943,37.479448829405456],[126.98535655278758,37.47942612398641],[126.98535196940638,37.47934224008113],[126.98537483503497,37.47915948397387],[126.98536853748622,37.47910813501206],[126.98535636777109,37.47902522314759],[126.98534311537075,37.47893008453557],[126.98532753996201,37.47885987632764],[126.98531594019742,37.47865098643124],[126.98530713058425,37.47850556349389],[126.98529307128824,37.47827364363193],[126.98528586173823,37.47815326876189],[126.98525588540663,37.47765564115691]]]},"properties":{"OBJECTID":84557,"PRESENT_SN":"11000UQ181PS202303090001","LCLAS_CL":"UQ1200","MLSFC_CL":"UQ1206","SCLAS_CL":" ","ATRB_SE":"UQ1206","WTNNC_SN":"11000AGZ202303060001","NTFC_SN":"11000NTC202303060007","DGM_NM":"방배15 주택재건축 정비사업","SIGNGU_SE":"11000","DRAWING_NO":" ","CREATE_DAT":1678320000000,"DGM_AR":85053.53680762,"DGM_LT":1827.51849049,"SHAPE.AREA":85053.5368075,"SHAPE.LEN":1827.51849049}},{"type":"Feature","id":85025,"geometry":{"type":"Polygon","coordinates":[[[126.98525588540663,37.47765564115691],[126.98524294197628,37.47744075035087],[126.98529178653341,37.477417961711154],[126.98550779972392,37.477525669946054],[126.98559495578061,37.47756911903695],[126.98574405956428,37.47764346270267],[126.98582306547,37.47768286503662],[126.98597098275135,37.47775660458559],[126.98610730203498,37.47782457602294],[126.98619014050979,37.47786587972449],[126.98631528006936,37.47792860563774],[126.98640886915597,37.47797584817178],[126.98650336271675,37.47802353223728],[126.98658205280098,37.47806325838194],[126.98668470838854,37.47811506992266],[126.98679581985527,37.47817114416735],[126.98690911324923,37.478228335819395],[126.98701627978272,37.478282418153434],[126.98714820335118,37.478349009311415],[126.98740537020207,37.47847880261808],[126.98739960287524,37.47848655054696],[126.98738059332497,37.47851198356251],[126.9873636419073,37.478534659755184],[126.98705115788057,37.47851534047315],[126.98704085842745,37.47851545634221],[126.98705862096482,37.47862562403663],[126.98706209953001,37.47864418510407],[126.9870786886187,37.47874250447299],[126.98709176637517,37.478816415265115],[126.98709698479787,37.47884140068755],[126.98710339979772,37.478875909846735],[126.98712697946601,37.47901467603628],[126.98715572345655,37.47916641727366],[126.98716357142924,37.47921614452466],[126.98718593364835,37.47933734100901],[126.98719640302632,37.47939529472177],[126.98720568683993,37.47944524739251],[126.98703328334607,37.47945444363752],[126.9868606761618,37.479464378427245],[126.98682740281532,37.47946668086077],[126.98670697641607,37.4795674879421],[126.9866794987734,37.47959061321376],[126.98656608274835,37.47968554649712],[126.98651544678386,37.47972834667871],[126.98645951863237,37.479776155734406],[126.98643092146979,37.479799731305704],[126.9863544472391,37.479863746709526],[126.98627524756007,37.479930762047786],[126.98625687241284,37.47994624789786],[126.98617656435545,37.48001438927813],[126.98615324192018,37.48006204924436],[126.98619658646841,37.48007252451278],[126.98624180261685,37.48010848033834],[126.9862430459327,37.4801101023023],[126.98630182119672,37.480185433634986],[126.98630430792493,37.4801882270607],[126.98635958090426,37.48025157458905],[126.98636331099404,37.480255809775805],[126.98647239614593,37.480339256478494],[126.98650540088677,37.48038178795921],[126.98652416625434,37.4803940439655],[126.98656339266228,37.480419727485945],[126.98657537537545,37.48042756771694],[126.98656485704663,37.48044675772394],[126.98656101163243,37.48045378505101],[126.98657548093676,37.48046522960364],[126.98667203453859,37.4804601961625],[126.98669430568,37.48046794757322],[126.98671940313011,37.480476600335415],[126.98679379130583,37.480501206974694],[126.98681809748682,37.48050922891608],[126.98688886635266,37.48054140345972],[126.98690446717738,37.48054843320346],[126.98692707682905,37.480559878719156],[126.98702384081456,37.48063683617428],[126.98707528039674,37.480649816896694],[126.98705074006953,37.48068306085863],[126.98704248458259,37.48069414216886],[126.98712071817917,37.480713162861754],[126.98719669072543,37.480731642627816],[126.98721929831407,37.48075444070854],[126.98722755009328,37.48076273092235],[126.98726146603624,37.48077309653826],[126.98728102423966,37.48077904550727],[126.98735100266728,37.48080842657222],[126.98744303069134,37.48082246616481],[126.98748855075847,37.48075024728078],[126.98745933988585,37.48073022355148],[126.98747292423793,37.48069876218681],[126.9874785218295,37.48069266307029],[126.98750518285556,37.48068424186845],[126.98751326588292,37.480688171194096],[126.98755670682364,37.480730433314434],[126.98760669456183,37.48070850882745],[126.98759492875725,37.48068855025384],[126.98764229577492,37.48065418260905],[126.98771245729587,37.480794684023145],[126.9877136778946,37.480797112365295],[126.98773252947441,37.48083406915049],[126.98763815461191,37.48091595014786],[126.9876712765352,37.480941091980206],[126.98768958667308,37.48097136778046],[126.98769071199479,37.481000019765354],[126.98771895974939,37.481093907440396],[126.98773646977021,37.481171846126415],[126.9877333008875,37.48118923508856],[126.98770989114668,37.4812232001175],[126.98770050462899,37.48123680414512],[126.98763492553667,37.48125869079917],[126.98762655854635,37.48126148292101],[126.98761943001482,37.48129238643874],[126.98758571087377,37.48143843483016],[126.98758287136005,37.48144753461155],[126.98755505313072,37.48153673048605],[126.98755459996532,37.481541685941245],[126.98754927528802,37.481599799914115],[126.98754821087316,37.48160862059373],[126.98754044287405,37.48167314039785],[126.98753398835383,37.48172701952775],[126.98753290127777,37.481736083474814],[126.98753115740891,37.481750715533714],[126.98742600077273,37.48180251063054],[126.98736200780492,37.481804034685126],[126.98735251060698,37.48180430384759],[126.98734288950787,37.48186196679272],[126.98734448028146,37.481939795495876],[126.98731379730363,37.4819894550159],[126.98727723308897,37.48204961048659],[126.9872652834384,37.48204452739751],[126.98722460706922,37.48202768276657],[126.98716555959282,37.48200360985972],[126.98710301646715,37.482108127432426],[126.98710066386928,37.48211288443336],[126.98707237809522,37.48215981414714],[126.98703583621459,37.48221997855406],[126.98710144071434,37.4822476833609],[126.9871193369935,37.48225511880492],[126.98720249871961,37.482289970635016],[126.98721653987884,37.48229596399484],[126.98729731647335,37.48232877019598],[126.98738100998655,37.48236239660202],[126.98743036920668,37.48238210739819],[126.98739095482172,37.48244706489796],[126.98738813877802,37.48245128124806],[126.98737172831366,37.482478507548514],[126.98735520479887,37.48250560769281],[126.98734395155262,37.48252437420361],[126.98728990213635,37.48261359388021],[126.9872525684849,37.482675262926556],[126.98722755114757,37.48271671497888],[126.98717416886049,37.482804177727566],[126.98716370726194,37.482821385583875],[126.98714747763924,37.4828480712726],[126.98710196661234,37.482923749845604],[126.98709731830682,37.48293112847973],[126.98706176284537,37.482916365733175],[126.98698143808826,37.482882964768905],[126.98695409031163,37.482871942154866],[126.98690720683236,37.48285294325857],[126.98688258370395,37.48284288503625],[126.98666255849456,37.482753514284596],[126.9866019391657,37.482728891290556],[126.98658904598918,37.48274916219406],[126.98656652842135,37.48278321720017],[126.98652675195348,37.482844786596104],[126.98652520227438,37.482848381395044],[126.98652108543106,37.48285516541309],[126.98648792505693,37.482906815609454],[126.98647801753718,37.48292281613339],[126.98647694387606,37.482920635573414],[126.98647410484,37.48292640162084],[126.98643571937943,37.48298556548801],[126.98637979195838,37.48307351408955],[126.98632240564865,37.48316265179744],[126.98630320148196,37.4831923193005],[126.98628572737874,37.48322095988174],[126.986245882139,37.48328484474298],[126.98623871352773,37.483286735919116],[126.98619313539855,37.48329765015336],[126.98619035411137,37.483297280382104],[126.98616177407929,37.48328541949442],[126.98610389047859,37.48326149037357],[126.98604842624937,37.48323864274258],[126.98600022007211,37.48321894954341],[126.98598865467406,37.48321417271715],[126.9859238184646,37.48318698096911],[126.9858887153119,37.4831724792203],[126.98579729997451,37.48313583238043],[126.98570372560238,37.48309736515797],[126.98570174728083,37.483096013391176],[126.9855329586848,37.483026559516276],[126.98553043751366,37.483025919464275],[126.98552968000423,37.48302585629168],[126.98552970262266,37.48302582926471],[126.98555040034186,37.48299213461231],[126.98554315322895,37.48288482436966],[126.98553573707984,37.482774991297845],[126.98553062019279,37.4826991262877],[126.98552628097072,37.48263488429992],[126.98557485832507,37.48250164176241],[126.98560850262201,37.48240936572861],[126.98563481615585,37.482337217071425],[126.98565681948934,37.482276843918356],[126.98568549729382,37.48219819934486],[126.98570671996394,37.48213998848003],[126.98570763801037,37.48207565709587],[126.98568380528206,37.48196528121981],[126.98564455332557,37.481897628759505],[126.98561432043893,37.48184551977603],[126.98554882541158,37.481732642480075],[126.98551190189927,37.48166900875466],[126.98546783442247,37.48154583586256],[126.98546367695731,37.48142528128463],[126.98545941840642,37.48130166328482],[126.9854568452855,37.481227060000386],[126.98545573292918,37.48119462379031],[126.98545317104443,37.48112038090663],[126.98545165416266,37.48107632171956],[126.98544760921115,37.48095856025189],[126.98544499106329,37.48088314605521],[126.98544141783748,37.480780070975385],[126.98543839527399,37.480692583298236],[126.98543531645802,37.48060383420966],[126.98543232755608,37.48051760793677],[126.98540985382888,37.48040074494852],[126.98540133996916,37.48024514078167],[126.98539539381854,37.48013638905428],[126.9853913396357,37.480062236052454],[126.98538387318973,37.4799257332572],[126.98536996519451,37.4796713785346],[126.98536414301338,37.479564879316655],[126.98535780283943,37.479448829405456],[126.98535655278758,37.47942612398641],[126.98535196940638,37.47934224008113],[126.98537483503497,37.47915948397387],[126.98536853748622,37.47910813501206],[126.98535636777109,37.47902522314759],[126.98534311537075,37.47893008453557],[126.98532753996201,37.47885987632764],[126.98531594019742,37.47865098643124],[126.98530713058425,37.47850556349389],[126.98529307128824,37.47827364363193],[126.98528586173823,37.47815326876189],[126.98525588540663,37.47765564115691]]]},"properties":{"OBJECTID":85025,"PRESENT_SN":"11000UQ181PS202303090001","LCLAS_CL":"UQ1200","MLSFC_CL":"UQ1206","SCLAS_CL":" ","ATRB_SE":"UQ1206","WTNNC_SN":"11000AGZ202303060001","NTFC_SN":"11000NTC202303060007","DGM_NM":"방배15 주택재건축 정비사업","SIGNGU_SE":"11000","DRAWING_NO":" ","CREATE_DAT":1678320000000,"DGM_AR":85053.53680762,"DGM_LT":1827.51849049,"SHAPE.AREA":85053.5368075,"SHAPE.LEN":1827.51849049}}]}