{"type":"FeatureCollection","features":[{"type":"Feature","id":84715,"geometry":{"type":"Polygon","coordinates":[[[127.01783822601709,37.58376813256072],[127.01781946134395,37.583797588381415],[127.01777003400547,37.58386106965021],[127.01771337419733,37.58393418342874],[127.01765223100475,37.584007604127144],[127.01758471386928,37.58408207080414],[127.01756527865025,37.58410037246963],[127.01750646136259,37.58414544776057],[127.01744797105555,37.58418454043193],[127.0174206442321,37.58420099611695],[127.01736725769733,37.5842297988025],[127.01730544762995,37.584257566456834],[127.0172200219082,37.58429135580708],[127.01715464354687,37.58431013201854],[127.01693168623304,37.58436104901559],[127.01675231724737,37.58446934375841],[127.01675097186536,37.58447863309529],[127.0166699471807,37.58449969955931],[127.01660045493685,37.58449960934924],[127.0166025188169,37.58446005581038],[127.01658065595284,37.584456139313694],[127.01659836938374,37.58443172033797],[127.0166623295499,37.58434106397118],[127.01668269468026,37.584328952108045],[127.01667833236232,37.58431170780024],[127.01670863883074,37.584304396909815],[127.01673284324488,37.584298555405006],[127.01692638766885,37.584250949243305],[127.01678121913879,37.58423651628838],[127.01674388870899,37.58422122236976],[127.0167292692896,37.58420531284493],[127.01668046460378,37.584162855661745],[127.01667825573759,37.584157152705195],[127.01661459701742,37.58411380542496],[127.01655236428614,37.58406745764567],[127.01651647009392,37.58404352301765],[127.01643379465098,37.58396003913411],[127.01643125077757,37.58386394931413],[127.01642614026495,37.583841398283404],[127.01641249020291,37.583803216225206],[127.01640940902473,37.5837945761594],[127.01638207575257,37.58372207727031],[127.01637978903439,37.58372323082013],[127.01635621998217,37.58373510877866],[127.01635391067732,37.58373655064629],[127.01631788207769,37.583776018349795],[127.01631338822719,37.583780046319895],[127.0162948682617,37.58373317935401],[127.01623928728576,37.58365731427608],[127.01615760984261,37.58369443604132],[127.01609881127732,37.583722121604204],[127.01607089263061,37.58372328732075],[127.01593304181799,37.58372351145949],[127.01586280325914,37.583724375951256],[127.01578854556678,37.58372528593644],[127.01573508007439,37.583638067942964],[127.01555507830619,37.58333073615485],[127.01552480660844,37.583280410675115],[127.01549091096855,37.583224094059524],[127.01549239400225,37.583223688440306],[127.01546730908483,37.58318127298766],[127.01541844622898,37.58312295792892],[127.01541555855901,37.583119165117914],[127.0153599465455,37.58305182294904],[127.01530418727772,37.582983525725226],[127.01522859964231,37.58288960673647],[127.01516296639764,37.58281051677774],[127.01516084941555,37.58281115672248],[127.01510836365695,37.582749850676635],[127.0151092465342,37.5827488054312],[127.0150202636883,37.58264091355295],[127.01502716773092,37.58262992073332],[127.01505101455463,37.58258972501431],[127.01506728968191,37.58256227010234],[127.01507051505389,37.582555584415545],[127.01505672411696,37.58254708969925],[127.01504100834147,37.58253741491006],[127.01503482619948,37.58253360444695],[127.01497428476263,37.58249904052729],[127.01496821518906,37.58249160808382],[127.01495629120109,37.58247702247712],[127.01495543059032,37.58247596842137],[127.01493602202567,37.582454797455966],[127.01489536945473,37.58240451803593],[127.01488248293789,37.58238856303174],[127.01483334955986,37.58233145507485],[127.01488321058932,37.58227915620747],[127.01489616004872,37.58226735182279],[127.01491714572015,37.582244905878966],[127.01498895135514,37.582215147146215],[127.01503942880524,37.58219192296364],[127.01507337909894,37.58217947645216],[127.01509681058417,37.58215975117328],[127.0151331576617,37.58212915850823],[127.01517849231959,37.58209044690719],[127.01518706103079,37.582082273971174],[127.01519371699877,37.582077128569516],[127.01524879059009,37.58205315594591],[127.01526314480174,37.582046856382476],[127.01532117292746,37.582021414773536],[127.01540267915819,37.58198439270514],[127.01547963474482,37.581950479520685],[127.01550109864206,37.581944061959035],[127.01554631318801,37.58193053279297],[127.0155640298502,37.58192470130606],[127.01561851736855,37.5819159101959],[127.0157234856198,37.58190345499361],[127.01574157621418,37.58189947045666],[127.01576807917186,37.58189905280709],[127.01580100157331,37.581900193081154],[127.01582484401567,37.58189965861248],[127.0158973918382,37.58190629907664],[127.01597529608547,37.581920498114286],[127.01600392842677,37.58192515270306],[127.01610446366622,37.5819381685846],[127.0161667653406,37.58194237748602],[127.01626846282298,37.58193563445721],[127.01628482158279,37.58193336192711],[127.01632040382344,37.58193107797623],[127.01635858082416,37.581939857798474],[127.01638582411952,37.58190486006832],[127.01643852159053,37.58189015833587],[127.01645949589339,37.58192697898773],[127.01647567937927,37.581954069592236],[127.01646026603736,37.58198512853671],[127.01645780032155,37.58199673355037],[127.01647030099001,37.582063332863555],[127.01647924333187,37.582112606662406],[127.01648756322767,37.58216294370269],[127.01648572522377,37.582199740208885],[127.01649770620948,37.582215010404006],[127.0164939219221,37.58225668149179],[127.01649258770483,37.58226515093043],[127.01649114058273,37.58227516106961],[127.01648916514912,37.582304100993795],[127.01647934472312,37.58239301154652],[127.01650545661698,37.582474078962186],[127.01650776772945,37.58248186318846],[127.01651522821602,37.58253694852931],[127.01652664150873,37.5827130267831],[127.01652727744421,37.58272268527257],[127.01652352549473,37.58281271227364],[127.01652393485466,37.58282163198324],[127.01650396724159,37.58289464141642],[127.01648465756391,37.582974309048424],[127.01648726006384,37.58302374582001],[127.0164885104077,37.58316174968406],[127.01649277978584,37.583167722679576],[127.01655646507834,37.583234964176846],[127.01657354116018,37.58325154014206],[127.01663128143667,37.58331188981347],[127.01670830700871,37.583395572511975],[127.0167683453874,37.58345406578816],[127.01681598455913,37.583501469503894],[127.01682987598483,37.58350126948613],[127.01691417554807,37.583500096250866],[127.01716213807013,37.5834966579268],[127.0171801276668,37.58349547525007],[127.01725869674534,37.58348575217247],[127.01726777620706,37.58348399403904],[127.01732438246631,37.58347845442033],[127.01753371073123,37.58350331143984],[127.01753462662731,37.58349796846911],[127.01753695355896,37.58347325410963],[127.01765328188016,37.583473571633],[127.01766001842971,37.583474805062835],[127.01773040732526,37.58348967970507],[127.01773904262492,37.583528060518894],[127.01777786387542,37.58352737943912],[127.01777670394029,37.583503728718625],[127.01776994561081,37.583454400670064],[127.01776992780715,37.58337249204163],[127.01796919846501,37.583482123439225],[127.01790765900381,37.583500989633805],[127.01790719013113,37.583531235796016],[127.01790577622991,37.58358875493263],[127.01790024695262,37.58362041634452],[127.01789263361677,37.58364798756916],[127.01788951074022,37.58365648429923],[127.01787345444694,37.58369731920519],[127.01786788731191,37.583711276247676],[127.01786381343786,37.583719845187545],[127.01783822601709,37.58376813256072]]]},"properties":{"OBJECTID":84715,"PRESENT_SN":"11000UQ181PS201912150534","LCLAS_CL":"UQ1200","MLSFC_CL":"UQ1220","SCLAS_CL":"UQ1221","ATRB_SE":"UQ1221","WTNNC_SN":"11000AGZ200811257594","NTFC_SN":"11000NTC200708231376","DGM_NM":"보문4구역주택재개발사업","SIGNGU_SE":"11000","DRAWING_NO":" ","CREATE_DAT":1576368000000,"DGM_AR":31622.68186457,"DGM_LT":1041.84252002,"SHAPE.AREA":31622.6818645,"SHAPE.LEN":1041.84252001119}},{"type":"Feature","id":85046,"geometry":{"type":"Polygon","coordinates":[[[127.01783822601709,37.58376813256072],[127.01781946134395,37.583797588381415],[127.01777003400547,37.58386106965021],[127.01771337419733,37.58393418342874],[127.01765223100475,37.584007604127144],[127.01758471386928,37.58408207080414],[127.01756527865025,37.58410037246963],[127.01750646136259,37.58414544776057],[127.01744797105555,37.58418454043193],[127.0174206442321,37.58420099611695],[127.01736725769733,37.5842297988025],[127.01730544762995,37.584257566456834],[127.0172200219082,37.58429135580708],[127.01715464354687,37.58431013201854],[127.01693168623304,37.58436104901559],[127.01675231724737,37.58446934375841],[127.01675097186536,37.58447863309529],[127.0166699471807,37.58449969955931],[127.01660045493685,37.58449960934924],[127.0166025188169,37.58446005581038],[127.01658065595284,37.584456139313694],[127.01659836938374,37.58443172033797],[127.0166623295499,37.58434106397118],[127.01668269468026,37.584328952108045],[127.01667833236232,37.58431170780024],[127.01670863883074,37.584304396909815],[127.01673284324488,37.584298555405006],[127.01692638766885,37.584250949243305],[127.01678121913879,37.58423651628838],[127.01674388870899,37.58422122236976],[127.0167292692896,37.58420531284493],[127.01668046460378,37.584162855661745],[127.01667825573759,37.584157152705195],[127.01661459701742,37.58411380542496],[127.01655236428614,37.58406745764567],[127.01651647009392,37.58404352301765],[127.01643379465098,37.58396003913411],[127.01643125077757,37.58386394931413],[127.01642614026495,37.583841398283404],[127.01641249020291,37.583803216225206],[127.01640940902473,37.5837945761594],[127.01638207575257,37.58372207727031],[127.01637978903439,37.58372323082013],[127.01635621998217,37.58373510877866],[127.01635391067732,37.58373655064629],[127.01631788207769,37.583776018349795],[127.01631338822719,37.583780046319895],[127.0162948682617,37.58373317935401],[127.01623928728576,37.58365731427608],[127.01615760984261,37.58369443604132],[127.01609881127732,37.583722121604204],[127.01607089263061,37.58372328732075],[127.01593304181799,37.58372351145949],[127.01586280325914,37.583724375951256],[127.01578854556678,37.58372528593644],[127.01573508007439,37.583638067942964],[127.01555507830619,37.58333073615485],[127.01552480660844,37.583280410675115],[127.01549091096855,37.583224094059524],[127.01549239400225,37.583223688440306],[127.01546730908483,37.58318127298766],[127.01541844622898,37.58312295792892],[127.01541555855901,37.583119165117914],[127.0153599465455,37.58305182294904],[127.01530418727772,37.582983525725226],[127.01522859964231,37.58288960673647],[127.01516296639764,37.58281051677774],[127.01516084941555,37.58281115672248],[127.01510836365695,37.582749850676635],[127.0151092465342,37.5827488054312],[127.0150202636883,37.58264091355295],[127.01502716773092,37.58262992073332],[127.01505101455463,37.58258972501431],[127.01506728968191,37.58256227010234],[127.01507051505389,37.582555584415545],[127.01505672411696,37.58254708969925],[127.01504100834147,37.58253741491006],[127.01503482619948,37.58253360444695],[127.01497428476263,37.58249904052729],[127.01496821518906,37.58249160808382],[127.01495629120109,37.58247702247712],[127.01495543059032,37.58247596842137],[127.01493602202567,37.582454797455966],[127.01489536945473,37.58240451803593],[127.01488248293789,37.58238856303174],[127.01483334955986,37.58233145507485],[127.01488321058932,37.58227915620747],[127.01489616004872,37.58226735182279],[127.01491714572015,37.582244905878966],[127.01498895135514,37.582215147146215],[127.01503942880524,37.58219192296364],[127.01507337909894,37.58217947645216],[127.01509681058417,37.58215975117328],[127.0151331576617,37.58212915850823],[127.01517849231959,37.58209044690719],[127.01518706103079,37.582082273971174],[127.01519371699877,37.582077128569516],[127.01524879059009,37.58205315594591],[127.01526314480174,37.582046856382476],[127.01532117292746,37.582021414773536],[127.01540267915819,37.58198439270514],[127.01547963474482,37.581950479520685],[127.01550109864206,37.581944061959035],[127.01554631318801,37.58193053279297],[127.0155640298502,37.58192470130606],[127.01561851736855,37.5819159101959],[127.0157234856198,37.58190345499361],[127.01574157621418,37.58189947045666],[127.01576807917186,37.58189905280709],[127.01580100157331,37.581900193081154],[127.01582484401567,37.58189965861248],[127.0158973918382,37.58190629907664],[127.01597529608547,37.581920498114286],[127.01600392842677,37.58192515270306],[127.01610446366622,37.5819381685846],[127.0161667653406,37.58194237748602],[127.01626846282298,37.58193563445721],[127.01628482158279,37.58193336192711],[127.01632040382344,37.58193107797623],[127.01635858082416,37.581939857798474],[127.01638582411952,37.58190486006832],[127.01643852159053,37.58189015833587],[127.01645949589339,37.58192697898773],[127.01647567937927,37.581954069592236],[127.01646026603736,37.58198512853671],[127.01645780032155,37.58199673355037],[127.01647030099001,37.582063332863555],[127.01647924333187,37.582112606662406],[127.01648756322767,37.58216294370269],[127.01648572522377,37.582199740208885],[127.01649770620948,37.582215010404006],[127.0164939219221,37.58225668149179],[127.01649258770483,37.58226515093043],[127.01649114058273,37.58227516106961],[127.01648916514912,37.582304100993795],[127.01647934472312,37.58239301154652],[127.01650545661698,37.582474078962186],[127.01650776772945,37.58248186318846],[127.01651522821602,37.58253694852931],[127.01652664150873,37.5827130267831],[127.01652727744421,37.58272268527257],[127.01652352549473,37.58281271227364],[127.01652393485466,37.58282163198324],[127.01650396724159,37.58289464141642],[127.01648465756391,37.582974309048424],[127.01648726006384,37.58302374582001],[127.0164885104077,37.58316174968406],[127.01649277978584,37.583167722679576],[127.01655646507834,37.583234964176846],[127.01657354116018,37.58325154014206],[127.01663128143667,37.58331188981347],[127.01670830700871,37.583395572511975],[127.0167683453874,37.58345406578816],[127.01681598455913,37.583501469503894],[127.01682987598483,37.58350126948613],[127.01691417554807,37.583500096250866],[127.01716213807013,37.5834966579268],[127.0171801276668,37.58349547525007],[127.01725869674534,37.58348575217247],[127.01726777620706,37.58348399403904],[127.01732438246631,37.58347845442033],[127.01753371073123,37.58350331143984],[127.01753462662731,37.58349796846911],[127.01753695355896,37.58347325410963],[127.01765328188016,37.583473571633],[127.01766001842971,37.583474805062835],[127.01773040732526,37.58348967970507],[127.01773904262492,37.583528060518894],[127.01777786387542,37.58352737943912],[127.01777670394029,37.583503728718625],[127.01776994561081,37.583454400670064],[127.01776992780715,37.58337249204163],[127.01796919846501,37.583482123439225],[127.01790765900381,37.583500989633805],[127.01790719013113,37.583531235796016],[127.01790577622991,37.58358875493263],[127.01790024695262,37.58362041634452],[127.01789263361677,37.58364798756916],[127.01788951074022,37.58365648429923],[127.01787345444694,37.58369731920519],[127.01786788731191,37.583711276247676],[127.01786381343786,37.583719845187545],[127.01783822601709,37.58376813256072]]]},"properties":{"OBJECTID":85046,"PRESENT_SN":"11000UQ181PS201912150534","LCLAS_CL":"UQ1200","MLSFC_CL":"UQ1220","SCLAS_CL":"UQ1221","ATRB_SE":"UQ1221","WTNNC_SN":"11000AGZ200811257594","NTFC_SN":"11000NTC200708231376","DGM_NM":"보문4구역주택재개발사업","SIGNGU_SE":"11000","DRAWING_NO":" ","CREATE_DAT":1576368000000,"DGM_AR":31622.68186457,"DGM_LT":1041.84252002,"SHAPE.AREA":31622.6818645,"SHAPE.LEN":1041.84252001119}}]}