{"type":"FeatureCollection","features":[{"type":"Feature","id":86069,"geometry":{"type":"Polygon","coordinates":[[[126.96454024450018,37.57244521258693],[126.9645393148246,37.57244585740284],[126.96453691533128,37.5724475252802],[126.96452182982419,37.57242838898389],[126.9645161157666,37.572421154064955],[126.96451609993578,37.572421119822444],[126.9645070256551,37.57242176749109],[126.96450086294148,37.5724221890231],[126.9645008176587,37.5724221962168],[126.96446525371807,37.57240490772286],[126.96443868687064,37.57239199363594],[126.96441231807351,37.572379191327705],[126.96438510811662,37.572364325487456],[126.96438278139645,37.57236305436316],[126.96437741086842,37.572357049393496],[126.96437689836654,37.572356475303195],[126.96432110210797,37.57233564492362],[126.96432105115589,37.57233567103622],[126.9643186111255,37.57233690552138],[126.96431756085099,37.57233649794407],[126.96430252766916,37.57233065841059],[126.96430050294876,37.57232987211116],[126.96430302225633,37.57232856016642],[126.96430378654108,37.57232816126982],[126.96430352736037,37.57232807559431],[126.96421256404997,37.57229794939576],[126.96421226087327,37.572297560974306],[126.9642038533853,37.57228677439689],[126.96420369487008,37.57228685093075],[126.96418834154265,37.57229424769016],[126.96418581306817,37.57229351258576],[126.96417053696314,37.57228907219234],[126.96417034568658,37.572289016270595],[126.96417314913886,37.57228767018099],[126.96417606355149,37.57228627096812],[126.96417634661414,37.57228613500853],[126.9641763036066,37.57228611967815],[126.96416752553999,37.57228299047443],[126.96415073109473,37.57227700440437],[126.96415054208805,37.57227693677047],[126.9641481646172,37.572277567610236],[126.96414777412595,37.57227748459577],[126.96406440699113,37.57225997090943],[126.96404642413889,37.57225819025755],[126.96383530594863,37.57223728321779],[126.96370988364109,37.57223553124199],[126.96358242263656,37.57223603094687],[126.96343571676452,37.57223895697442],[126.96332018090932,37.5722443490009],[126.96325550151603,37.572247367988496],[126.96296616755323,37.57224790455367],[126.96288228945465,37.57224499397356],[126.96281210540751,37.572247673947345],[126.96264842009006,37.57225005283606],[126.96257710658472,37.57224786696528],[126.96256585660396,37.57224859485596],[126.96253001469314,37.57225091478086],[126.96252629609326,37.572251011760414],[126.96249945085643,37.572251715572335],[126.96244488936136,37.57225196782351],[126.96222019100657,37.57225315462597],[126.96217287303335,37.57225557153255],[126.96211457591103,37.57225600258355],[126.962061148624,37.57225202039426],[126.9617729303942,37.572255388014],[126.96175426961196,37.57225560607623],[126.96169381931774,37.57225631189646],[126.96151836190207,37.572257694160506],[126.96140097526163,37.572258555318136],[126.96132160544323,37.572254356748864],[126.96128632267641,37.57225249049823],[126.9612422956272,37.572250160849656],[126.96122231451305,37.57224910347993],[126.96122153007204,37.572249066271716],[126.96122099578946,37.57224904536662],[126.96122031660738,37.57224903612494],[126.9612164361622,37.57224907894873],[126.96118567788041,37.57224938198857],[126.96116111832791,37.572241264707564],[126.9611482206133,37.5722369842109],[126.96112121079513,37.57222801735339],[126.96112117231714,37.57222800022147],[126.96111574273844,37.57222494131259],[126.96108133472062,37.572211047115744],[126.96108129397868,37.57221102998303],[126.96106908444891,37.57220478105551],[126.96103979811633,37.57218977678249],[126.9609762073135,37.57214119173108],[126.96097618581621,37.57214117280295],[126.96097055268761,37.57213566853713],[126.9609326357175,37.572098630323936],[126.96092728902778,37.57209096198224],[126.96091617940738,37.572075030503115],[126.96091398621422,37.57207188440108],[126.96089408155099,37.57203854101198],[126.9608929239437,37.572035714215495],[126.960889386686,37.57202707523],[126.96088876831605,37.57202556496192],[126.96088481536148,37.57200907552806],[126.96088019350417,37.57197366512368],[126.96087995198478,37.57194316660936],[126.96087976974398,37.57192023641139],[126.96088318343237,37.571887531735186],[126.96088873763607,37.57187365843708],[126.96090585121343,37.571835372350435],[126.96090868412738,37.57182987730025],[126.96091174367989,37.57182393183415],[126.96093191184518,37.57178880025076],[126.96106769874729,37.571662972569115],[126.96114233740602,37.57159380857165],[126.96118933702105,37.571551298016864],[126.96155876711673,37.571210309683295],[126.96170633501517,37.57107286880574],[126.96172196383519,37.57105827807309],[126.96177111384257,37.57101513731606],[126.96183124805795,37.57095543196676],[126.96190837795773,37.57088183725571],[126.96194869150531,37.570843314624845],[126.96196568397737,37.570827076409685],[126.9619741525015,37.57081570067146],[126.9619908312717,37.57079329778893],[126.96199516993308,37.57078925470718],[126.96214315413214,37.57065135300791],[126.96221163967896,37.57058663714963],[126.96222691618006,37.570572201201486],[126.96228439468437,37.57051788534318],[126.9623263169178,37.570478270217194],[126.96245227474556,37.57035924371296],[126.96246653189593,37.57034577145295],[126.96248031112297,37.57033275042811],[126.96248132245255,37.570331794814365],[126.96248209249308,37.57033119140709],[126.96248916101096,37.570325653569505],[126.96255730726736,37.5702722646146],[126.96255749639754,37.570272082677434],[126.96258051473937,37.57025001426589],[126.96260251040846,37.57022892668849],[126.9626114470659,37.570220358535956],[126.96270780564217,37.57012797502026],[126.96272647732572,37.57011007312083],[126.96273363931277,37.57010320724291],[126.96273386128487,37.57010299378171],[126.96273436978267,37.57010250381132],[126.96274130527874,37.570095831570924],[126.96290686780506,37.569936534403936],[126.96292215096936,37.569921829871944],[126.96302783624111,37.56982013562623],[126.96305141719218,37.5697974600386],[126.96306614311231,37.56978328508695],[126.9630840822613,37.569769783316545],[126.96308507196038,37.56976903852169],[126.9630976221127,37.56975959394561],[126.96311041912061,37.56974996294399],[126.96324994922557,37.569603327408714],[126.96338290808833,37.56946741133981],[126.96344157416539,37.56940499180472],[126.96354855341923,37.56929341906791],[126.96357215540475,37.56926880445467],[126.96366151112274,37.56917756304988],[126.9638248090555,37.56903201562472],[126.9638436078901,37.56901454245608],[126.96392990097262,37.56893483251446],[126.96393034240104,37.568934879506365],[126.96393083023625,37.56893493101799],[126.96393125581857,37.5689349762029],[126.9639358998748,37.56893546511584],[126.96393594177692,37.568935423683726],[126.9639622778956,37.56890927998341],[126.96396647717691,37.56890511154616],[126.96396666296818,37.56890480256633],[126.9639666890319,37.568904744010396],[126.96396841559441,37.56890174697212],[126.96397882594977,37.56888367195622],[126.96398559736276,37.56887194864976],[126.96398696025508,37.56886958939514],[126.963987775951,37.56886817780608],[126.96402105986607,37.568846408796055],[126.96402729316725,37.568842332002376],[126.96403590444685,37.56883413484367],[126.96406242115238,37.56880889126503],[126.96406383560266,37.5688075447365],[126.96407157261055,37.56880017981084],[126.9640720935446,37.56879968443258],[126.96407697560448,37.56879503778319],[126.96407791441807,37.56879414520167],[126.96411304342828,37.568751772953966],[126.9641355642115,37.56872460718578],[126.96419049524215,37.56866142114871],[126.96419873811685,37.56865193905232],[126.96423816299381,37.56860658765534],[126.9642401008256,37.56860435832156],[126.96424014835246,37.56860438626719],[126.96424055912114,37.568604626059724],[126.96434836958771,37.56866754181545],[126.96442160879415,37.56871028159915],[126.96446644206468,37.56874458278106],[126.96452457500118,37.568789060269694],[126.96458892003542,37.56878535933273],[126.9645889822802,37.56878538187689],[126.96459356105288,37.568785114814524],[126.96461467888277,37.56878386273684],[126.964868538715,37.56850325337107],[126.96505161139312,37.56830088053763],[126.96514095757423,37.568223160926586],[126.96514392736208,37.56821925335468],[126.96516757466375,37.56818812068293],[126.96524164646087,37.56809651296266],[126.96528015585378,37.56804642984267],[126.96532455581203,37.567986707941316],[126.9653906787519,37.56789780695895],[126.96540361472206,37.56788041553614],[126.96540366338341,37.567880438075726],[126.96540633426864,37.567881324564155],[126.965458207852,37.56780790266673],[126.96544768264286,37.5678046558938],[126.96546172624353,37.56778826219674],[126.965466030327,37.567782407087265],[126.9654675287267,37.567780577637606],[126.96550770914607,37.567731513968596],[126.96556248409668,37.56766885160965],[126.96556376952053,37.56766738068722],[126.96556380125207,37.56766730140991],[126.96556886951899,37.56765404761332],[126.96556904733302,37.567653830529295],[126.96558800210049,37.5676306376523],[126.96559830784261,37.56763594670827],[126.96565210550546,37.56756919982933],[126.9657202662975,37.567487295449325],[126.96576695595094,37.56743119334013],[126.96578948265477,37.56744404915392],[126.96579239764971,37.56744571235948],[126.96580792160813,37.567431756241604],[126.96585378559787,37.56738599989697],[126.96591757909216,37.567446857486736],[126.96591850117677,37.5674477371294],[126.96605067294139,37.56752120745738],[126.9660545196304,37.56752499276386],[126.9660985327177,37.56756320788083],[126.96610747128888,37.56757059866627],[126.9661230855589,37.56758339738244],[126.96618983513684,37.567653243968664],[126.9661907401958,37.56765423532659],[126.96620478879093,37.56767481269631],[126.96620544484485,37.567675773346075],[126.96620829592375,37.56767380013339],[126.9662108435522,37.56767203585924],[126.9662115591526,37.56767154052965],[126.96621163721733,37.567671618938974],[126.96622649329584,37.567686501400466],[126.9662382595857,37.56769830786374],[126.96623180587441,37.56770218018476],[126.96629040768585,37.56776824012653],[126.96635622994022,37.56783215783698],[126.96635704680762,37.567832950949935],[126.96636463734215,37.56782827167517],[126.96636535517806,37.56782783761253],[126.96636610472441,37.567827367519826],[126.96636612848354,37.56782739095258],[126.96637866297331,37.567840075192905],[126.96636926345036,37.567849983266],[126.9664175784946,37.56788747875205],[126.9664798833731,37.567948131066075],[126.9664824618197,37.567950659103325],[126.96648331263951,37.567951468443255],[126.96648462154187,37.56795059217009],[126.96648546394987,37.5679500275004],[126.96648561892916,37.56795022576379],[126.96655876813797,37.568043752007135],[126.96667833758072,37.56820254147845],[126.96669335061154,37.56822840066567],[126.96669371932131,37.56822903507013],[126.96669479476748,37.56822876779384],[126.966699938796,37.568227489907706],[126.96670096443188,37.5682272352305],[126.96670104023598,37.568227309133874],[126.9667643184472,37.568299062657154],[126.96679717121314,37.568335733533296],[126.96679871095631,37.56833745487355],[126.96686992645286,37.568404163336965],[126.96688424695705,37.56841757784695],[126.96688428766322,37.56841767066067],[126.96689211669634,37.56843578372061],[126.96689238806705,37.56843641088799],[126.96690825775681,37.56844584978845],[126.96690936107609,37.56844650603127],[126.96691282475417,37.56844405906167],[126.9669134384561,37.56844362496525],[126.9669234792826,37.568451926909944],[126.96694919349414,37.56847318785206],[126.96695780687,37.56847926843999],[126.96712865457317,37.568599888564876],[126.9671343157481,37.56860388519523],[126.96713627340739,37.56860512102011],[126.96720956686033,37.56865138916259],[126.96725682402322,37.568680026378345],[126.96730699851582,37.56871043215919],[126.96732419994206,37.56871881633211],[126.96732159569098,37.56872061755412],[126.96748069948433,37.568819231632645],[126.96749416551549,37.56882779490131],[126.9675929408602,37.568920084509],[126.9676982250992,37.56904229320718],[126.96769860748984,37.569042739305814],[126.96773618910547,37.5690393263104],[126.96776295330386,37.569037447296424],[126.9677630212225,37.56903744100893],[126.96786320025794,37.569020171537716],[126.96796067082337,37.56899470131893],[126.96799859989649,37.568981203578836],[126.96804094963544,37.5689387727479],[126.96808273852749,37.568892383701815],[126.96809949902486,37.56887454888235],[126.9681547659284,37.56880987356546],[126.96822883067551,37.56872727385958],[126.96830765589911,37.56862989923942],[126.96837425136842,37.568543332990465],[126.96842521537265,37.5684811791021],[126.96843981715757,37.56848118319402],[126.96849180007179,37.56841839886994],[126.96856133062677,37.56834886201037],[126.96857336056372,37.56834138536374],[126.96859291868927,37.56832922837981],[126.96866855275312,37.568297482405704],[126.96867035736399,37.5682967251767],[126.96867074563855,37.568296664918535],[126.96873363595314,37.56828683189473],[126.96879170044897,37.56829351531677],[126.9688197053224,37.56829593321962],[126.96882101603481,37.56829604620614],[126.96883821359948,37.56831344004014],[126.96884829817806,37.56832309061286],[126.9688870920927,37.568360214847466],[126.96889435712012,37.56836715896927],[126.9689651620726,37.56843483822176],[126.96899311201084,37.56845439736862],[126.96905397572475,37.56849800122554],[126.96908986121296,37.56852370997344],[126.96909846116459,37.56852983905487],[126.96927544274496,37.56864827736579],[126.96959896523644,37.56886991825973],[126.96962289478265,37.568887088550596],[126.96962521791909,37.5688887560062],[126.96964084301521,37.56889945765802],[126.96972208272544,37.56895509485851],[126.9698315094495,37.56902774391946],[126.96985165154112,37.56904252552848],[126.96997182688506,37.56912698028482],[126.96988477254392,37.56919871528685],[126.96982688908813,37.56924641248807],[126.96982127052235,37.56925092943493],[126.96980251705389,37.5692660060379],[126.96975558918865,37.569303734010255],[126.96975283538528,37.569305947898016],[126.96974547042383,37.56931801825524],[126.96974535941739,37.569318199323945],[126.96970418543958,37.56933919477272],[126.96970403485973,37.569339271316124],[126.96970379025345,37.569339526229825],[126.9696702474478,37.56937453949292],[126.96966994848425,37.56937485115414],[126.96966967796602,37.56937481774462],[126.9696684283752,37.569374664239554],[126.96964141050027,37.56937134851978],[126.96964051971405,37.569371239259695],[126.96964041442759,37.56937127797376],[126.96961448110194,37.569380872798405],[126.96954846080847,37.56937864661786],[126.96953637870826,37.56937823880196],[126.96952353953938,37.569374726875836],[126.96949846332441,37.56936786716252],[126.96945805333137,37.56936767599846],[126.9693964747661,37.56937072262008],[126.96939641715119,37.569370457713944],[126.96939331153982,37.5693563059506],[126.96939258593532,37.569356385941106],[126.96927298114728,37.56936960777068],[126.9692726766957,37.56936951758873],[126.96925052868637,37.56936296946334],[126.9692369902099,37.56935896627644],[126.96923696084495,37.5693588149024],[126.96923531641771,37.56935031182853],[126.96923416667296,37.56934436949793],[126.96923350227333,37.569344262999664],[126.9692324609653,37.56934409693312],[126.96917372554549,37.56933471238286],[126.96906846293146,37.56931792512048],[126.96901941640077,37.569309707232605],[126.96891226743156,37.56929175343309],[126.96882210547436,37.5692711292083],[126.96881210131562,37.56926884063065],[126.96872076244144,37.56925025493835],[126.96864413834145,37.56923257426156],[126.96857996323324,37.56922012273961],[126.96843180154704,37.56917833583097],[126.96833148644002,37.56915003917484],[126.96828354722176,37.56913651807646],[126.96821847212601,37.569111902765336],[126.96821858662109,37.56911152077866],[126.96822038681,37.569105494577066],[126.96822062600316,37.569104695468106],[126.96814026444909,37.56909735585207],[126.96808604491422,37.5690924039974],[126.96807457215189,37.569091314156466],[126.96805559727201,37.56908951220972],[126.96789149011711,37.56907406679561],[126.96788275877522,37.56907324531026],[126.96783758214106,37.56910125316072],[126.96781833509789,37.569110617944574],[126.96775708755513,37.569132944950795],[126.96768893918686,37.56914644026485],[126.967627581812,37.56916119887243],[126.96754313243093,37.569177212188464],[126.9673060931307,37.569205074368185],[126.96710301279512,37.56923042320904],[126.96706294071983,37.56923401547362],[126.9668359692924,37.5692747637761],[126.96683435135151,37.56927564356614],[126.96683390299273,37.569275887602174],[126.96683369919336,37.56927599836385],[126.9667539965941,37.56931933857612],[126.96662390337808,37.569392190130905],[126.96651135466648,37.569465587337596],[126.96650879339316,37.56946736783147],[126.96649466902173,37.569477186213774],[126.96648757286557,37.56948211881991],[126.96648440580802,37.56948431989489],[126.96643245296967,37.56952366322786],[126.96640225799706,37.56954652943548],[126.96639478794573,37.56955219262605],[126.9663425236221,37.56959176557824],[126.9661962497296,37.569707470033094],[126.96617719885114,37.56972253966297],[126.96617531922954,37.56972381129535],[126.96617222464697,37.56972590606697],[126.96616931802635,37.5697278738555],[126.96615591156272,37.56973694909668],[126.96615074901575,37.569741243460996],[126.9661485997473,37.56974303127828],[126.96607211493527,37.56980666043776],[126.96607176043058,37.569807097310516],[126.9660686990057,37.56981086792698],[126.96604527224439,37.56983971863429],[126.96604523344432,37.56984038084878],[126.96604074239605,37.56991808881013],[126.96603610297485,37.56999834922456],[126.96603579938426,37.57000360549698],[126.96603525044347,37.57003212970923],[126.96603487091981,37.57005189817151],[126.96603432275951,37.57009070626002],[126.96603381677889,37.570126499655345],[126.96602927873474,37.570148122001484],[126.96602297989135,37.57016866353349],[126.9660227032692,37.57016956353724],[126.9659826022174,37.57023298102314],[126.96598097222814,37.570235330308996],[126.96597830239787,37.57023917942666],[126.96595590956979,37.570271459585285],[126.96594873375656,37.57028180436864],[126.96594867827781,37.570281832282575],[126.9658228846305,37.57035101631578],[126.96582248495083,37.57035122882807],[126.96577583347927,37.570375810782295],[126.96572849500376,37.57042616346606],[126.9657018801476,37.570467243145],[126.96569289660188,37.570482213936764],[126.96562484584665,37.570595610520364],[126.9655943729366,37.57064425459582],[126.96557817097202,37.57067551394288],[126.9655657311717,37.570695915727875],[126.96555659701647,37.57071089637368],[126.96554191982712,37.570734968098925],[126.96553299508106,37.57074993439082],[126.96550136306918,37.570802980314106],[126.96544845899443,37.57088945899295],[126.9654407298757,37.57090142174937],[126.96535160411707,37.57103935373143],[126.96523764070687,37.57122122819566],[126.9651763057382,37.571304190302875],[126.96517251003131,37.571309324764535],[126.9650829265232,37.57148331572341],[126.96506351189262,37.571521023273775],[126.96503278167216,37.571608319489144],[126.96503075263543,37.57161408518332],[126.96504744624312,37.571736174172585],[126.96504711773929,37.57174129348307],[126.96504698998415,37.57174329183426],[126.96503563837223,37.57180870003168],[126.96502802106318,37.57187654204825],[126.96501416127457,37.57192739040753],[126.96500398018122,37.57196474130579],[126.96491913065286,37.572096889917844],[126.96484585191543,37.572178226359846],[126.9648168598585,37.57220560737379],[126.96480813805879,37.5722169571059],[126.96476238220177,37.57226568629848],[126.96470213566425,37.572317023819],[126.96469657157792,37.57235234079694],[126.96466146208788,37.57238909013455],[126.96462818430813,37.57238412430934],[126.96454024450018,37.57244521258693]]]},"properties":{"OBJECTID":86069,"PRESENT_SN":"11000UQ181PS202212230005","LCLAS_CL":"UQ1200","MLSFC_CL":"UQ1220","SCLAS_CL":"UQ1222","ATRB_SE":"UQ1222","WTNNC_SN":"11000AGZ202212210002","NTFC_SN":"11110NTC202212210002","DGM_NM":"돈의문1재정비촉진구역","SIGNGU_SE":"11000","DRAWING_NO":" ","CREATE_DAT":1671753600000,"DGM_AR":152595.23968063,"DGM_LT":2321.74990442,"SHAPE.AREA":152595.23968063,"SHAPE.LEN":2321.7499044212504}}]}