{"type":"FeatureCollection","features":[{"type":"Feature","id":86836,"geometry":{"type":"Polygon","coordinates":[[[127.14507115994516,37.55940019813355],[127.14735685856422,37.55786481389883],[127.14761795271792,37.55768942893791],[127.1476641811287,37.55765846780111],[127.14771290463973,37.55763020652439],[127.14776412342952,37.55760473520341],[127.1478174983276,37.557582234453044],[127.147872690165,37.55756288488859],[127.14792947259677,37.5575466867882],[127.14796035603872,37.55753980097229],[127.14798761945491,37.55753373052908],[127.14804679139705,37.557524106629245],[127.14810664908161,37.55751790560734],[127.14816685281447,37.55751503778535],[127.14822717660647,37.55751568364133],[127.1484236614446,37.55752190845271],[127.14873355521493,37.557531721692705],[127.14876094407622,37.5575894409483],[127.1487559138921,37.55768459167659],[127.14875054572074,37.55778628400578],[127.14888643364579,37.55779083567062],[127.14897456767322,37.557798591276246],[127.14922983495251,37.55782104021599],[127.14927551370867,37.55779859348447],[127.14997493788009,37.557454844761516],[127.15084324265014,37.556944699976064],[127.15113077583193,37.55677576091415],[127.15124922182738,37.55681421816707],[127.15146173184762,37.55688321655438],[127.1518234244615,37.55700065114306],[127.15192625417816,37.55703403700293],[127.1520336252556,37.55706889460651],[127.15219884396392,37.55712253601075],[127.15221966232318,37.55717584800333],[127.15204372773754,37.5573144643544],[127.15200948992576,37.55734144757207],[127.1519498275697,37.557388284935094],[127.15189311239757,37.55743746108623],[127.15183945722315,37.557488795688215],[127.15178908803664,37.5575421082597],[127.15174211801639,37.557597398660874],[127.15169865998006,37.557654486554405],[127.15165871357097,37.55771319174677],[127.1516225049653,37.557773423855004],[127.15160927992446,37.55779859628238],[127.15159014698415,37.557835002541296],[127.15156152609829,37.557897747755206],[127.15153686848682,37.55796156911315],[127.15151628697363,37.558026286276416],[127.15149966803133,37.55809171919348],[127.15148712448493,37.55815768752491],[127.15147495204124,37.558239422691244],[127.15143670206274,37.55869320932734],[127.15142134804351,37.558881715711394],[127.1513481850625,37.55976099352046],[127.15133085840664,37.55992544596138],[127.15130979622536,37.56008963283759],[127.15128488513454,37.56025346419203],[127.1512562382889,37.56041693987885],[127.1512237423042,37.560579969940264],[127.15118751015572,37.56074246413109],[127.15114754181987,37.560904422447955],[127.1511039502736,37.561065754645185],[127.15105650913304,37.5612264610055],[127.1509071284067,37.56174526000946],[127.1499040558396,37.56160344787656],[127.14788430954309,37.560985852638396],[127.1468996747455,37.56068475315186],[127.14669586307653,37.56058148031802],[127.14619723694919,37.56042937475277],[127.14615668764755,37.5604133868315],[127.14613844535978,37.56040286760783],[127.14610727553739,37.56037938997417],[127.14507115994516,37.55940019813355]]]},"properties":{"OBJECTID":86836,"PRESENT_SN":"11000UQ181PS201912151205","LCLAS_CL":"UQ1200","MLSFC_CL":"UQ1240","SCLAS_CL":" ","ATRB_SE":"UQ1240","WTNNC_SN":"11000AGZ201704140344","NTFC_SN":"11000NTC201612287981","DGM_NM":"고덕시영아파트 주택재건축정비구역","SIGNGU_SE":"11000","DRAWING_NO":" ","CREATE_DAT":1576368000000,"DGM_AR":194303.2090351,"DGM_LT":1908.49708261,"SHAPE.AREA":194303.209035,"SHAPE.LEN":1908.4970826103}},{"type":"Feature","id":85909,"geometry":{"type":"Polygon","coordinates":[[[127.14507115994516,37.55940019813355],[127.14735685856422,37.55786481389883],[127.14761795271792,37.55768942893791],[127.1476641811287,37.55765846780111],[127.14771290463973,37.55763020652439],[127.14776412342952,37.55760473520341],[127.1478174983276,37.557582234453044],[127.147872690165,37.55756288488859],[127.14792947259677,37.5575466867882],[127.14796035603872,37.55753980097229],[127.14798761945491,37.55753373052908],[127.14804679139705,37.557524106629245],[127.14810664908161,37.55751790560734],[127.14816685281447,37.55751503778535],[127.14822717660647,37.55751568364133],[127.1484236614446,37.55752190845271],[127.14873355521493,37.557531721692705],[127.14876094407622,37.5575894409483],[127.1487559138921,37.55768459167659],[127.14875054572074,37.55778628400578],[127.14888643364579,37.55779083567062],[127.14897456767322,37.557798591276246],[127.14922983495251,37.55782104021599],[127.14927551370867,37.55779859348447],[127.14997493788009,37.557454844761516],[127.15084324265014,37.556944699976064],[127.15113077583193,37.55677576091415],[127.15124922182738,37.55681421816707],[127.15146173184762,37.55688321655438],[127.1518234244615,37.55700065114306],[127.15192625417816,37.55703403700293],[127.1520336252556,37.55706889460651],[127.15219884396392,37.55712253601075],[127.15221966232318,37.55717584800333],[127.15204372773754,37.5573144643544],[127.15200948992576,37.55734144757207],[127.1519498275697,37.557388284935094],[127.15189311239757,37.55743746108623],[127.15183945722315,37.557488795688215],[127.15178908803664,37.5575421082597],[127.15174211801639,37.557597398660874],[127.15169865998006,37.557654486554405],[127.15165871357097,37.55771319174677],[127.1516225049653,37.557773423855004],[127.15160927992446,37.55779859628238],[127.15159014698415,37.557835002541296],[127.15156152609829,37.557897747755206],[127.15153686848682,37.55796156911315],[127.15151628697363,37.558026286276416],[127.15149966803133,37.55809171919348],[127.15148712448493,37.55815768752491],[127.15147495204124,37.558239422691244],[127.15143670206274,37.55869320932734],[127.15142134804351,37.558881715711394],[127.1513481850625,37.55976099352046],[127.15133085840664,37.55992544596138],[127.15130979622536,37.56008963283759],[127.15128488513454,37.56025346419203],[127.1512562382889,37.56041693987885],[127.1512237423042,37.560579969940264],[127.15118751015572,37.56074246413109],[127.15114754181987,37.560904422447955],[127.1511039502736,37.561065754645185],[127.15105650913304,37.5612264610055],[127.1509071284067,37.56174526000946],[127.1499040558396,37.56160344787656],[127.14788430954309,37.560985852638396],[127.1468996747455,37.56068475315186],[127.14669586307653,37.56058148031802],[127.14619723694919,37.56042937475277],[127.14615668764755,37.5604133868315],[127.14613844535978,37.56040286760783],[127.14610727553739,37.56037938997417],[127.14507115994516,37.55940019813355]]]},"properties":{"OBJECTID":85909,"PRESENT_SN":"11000UQ181PS201912151205","LCLAS_CL":"UQ1200","MLSFC_CL":"UQ1240","SCLAS_CL":" ","ATRB_SE":"UQ1240","WTNNC_SN":"11000AGZ201704140344","NTFC_SN":"11000NTC201612287981","DGM_NM":"고덕시영아파트 주택재건축정비구역","SIGNGU_SE":"11000","DRAWING_NO":" ","CREATE_DAT":1576368000000,"DGM_AR":194303.2090351,"DGM_LT":1908.49708261,"SHAPE.AREA":194303.209035,"SHAPE.LEN":1908.4970826103}}]}