{"type":"FeatureCollection","features":[{"type":"Feature","id":86441,"geometry":{"type":"Polygon","coordinates":[[[127.02067052739045,37.49848402711823],[127.02090138640433,37.49790605985404],[127.02093369973247,37.4977935197621],[127.02099902504172,37.49764709665327],[127.02111126445155,37.49743984829092],[127.02115340687784,37.49729387943029],[127.02125660584525,37.49711420299522],[127.02146887347442,37.4967203405757],[127.02151939687194,37.49662644790911],[127.02166093447578,37.496466045988164],[127.02162688780517,37.49643406631344],[127.02169136788295,37.49628680320059],[127.02169277490272,37.496283588194736],[127.02398427541036,37.49698712536171],[127.02403032538176,37.497069467922614],[127.02401020905434,37.49711172861665],[127.0234080643609,37.49837486226061],[127.0220039822353,37.49794912174905],[127.02195161981943,37.49793525543219],[127.0218977883145,37.49792508344169],[127.02184316625097,37.49791869575881],[127.02178809287742,37.49791609232419],[127.02173245512427,37.49791736325648],[127.0216778361808,37.49792250828471],[127.02162389673371,37.49793134726821],[127.0215954010013,37.49793819970762],[127.02157086299462,37.49794406036937],[127.02155015877872,37.49795064117523],[127.02159351967197,37.49809182036657],[127.02155835376219,37.49810597202243],[127.02152465858033,37.49812246601621],[127.02149887927602,37.49813850816221],[127.02149719383794,37.49817923360366],[127.02105961334651,37.4985826813489],[127.02067052739045,37.49848402711823]]]},"properties":{"OBJECTID":86441,"PRESENT_SN":"11650UQ181PS202503100001","LCLAS_CL":"UQ1200","MLSFC_CL":"UQ1240","SCLAS_CL":" ","ATRB_SE":"UQ1240","WTNNC_SN":"11650AGZ202408270002","NTFC_SN":"11650NTC202408290007","DGM_NM":"서초진흥아파트 재건축정비사업","SIGNGU_SE":"11650","DRAWING_NO":" ","CREATE_DAT":1741564800000,"DGM_AR":41946.06411617,"DGM_LT":945.86683113,"SHAPE.AREA":41946.05883978,"SHAPE.LEN":945.8667967493491}}]}