{"type":"FeatureCollection","features":[{"type":"Feature","id":84456,"geometry":{"type":"Polygon","coordinates":[[[126.9269088647112,37.59953115558441],[126.92689969014188,37.59953335719356],[126.92687879280736,37.59953807414245],[126.92685789547019,37.59954279108764],[126.92683342583054,37.59955277652071],[126.92680895618437,37.599562761948675],[126.92676313248141,37.599581203091134],[126.92671730875587,37.59959964421573],[126.92671113352245,37.599603334333274],[126.92670495828838,37.599607024450506],[126.92668289512486,37.59962248034572],[126.92666084328513,37.599637927234134],[126.92665270698474,37.599643634307235],[126.92664455936827,37.59964933236278],[126.92660249060057,37.599593219462854],[126.92656042189603,37.59953710654748],[126.92652117948178,37.59948572557452],[126.9264819371215,37.59943434458809],[126.92644569315516,37.59938544319932],[126.92640944923625,37.59933654179904],[126.92640467696334,37.59933016881041],[126.92639274785692,37.59932393542384],[126.92638081876154,37.599317693026265],[126.92632200483851,37.599247874416534],[126.92626319102528,37.59917805577677],[126.92622699636483,37.59913667756078],[126.92619080174444,37.599095299333435],[126.92617692219953,37.599080604446826],[126.92616303134531,37.59906590054152],[126.92615839339746,37.59906111335904],[126.92615375545927,37.599056317166536],[126.92610675649146,37.599005192384055],[126.92605975758792,37.59895406758245],[126.92597250314921,37.59885757051186],[126.92588524893576,37.598761073375435],[126.92586719555962,37.598741906899576],[126.92586229310773,37.59874116495094],[126.92582626635672,37.598735672883954],[126.92584062452634,37.598713707106725],[126.92581456255374,37.598686030204625],[126.92577262372141,37.598636935744025],[126.92573068494413,37.5985878412682],[126.92569283956125,37.598544524710306],[126.92565499422221,37.59850120813999],[126.9255957473716,37.59843527211947],[126.92553650063462,37.598369327058734],[126.9255701324054,37.59836906309233],[126.92560376417237,37.59836880272024],[126.92559786961496,37.59832699419949],[126.9255919705365,37.59828518387325],[126.92558077086933,37.598285678516085],[126.92556955988195,37.598286169546626],[126.92557129206195,37.598260889066296],[126.9255730197204,37.59823559957307],[126.92557982705328,37.59821825011103],[126.92558663212561,37.59820089343923],[126.9255876382076,37.598176963966345],[126.92558863975944,37.59815303449041],[126.92558873174146,37.59813717724094],[126.9255888192031,37.598121310978705],[126.92564441521122,37.59810231795981],[126.92570001119117,37.59808332491462],[126.92572504490255,37.59807509699382],[126.92575007860843,37.59806686906771],[126.92583820588692,37.59803828334203],[126.9258655392419,37.598029101823364],[126.92589287259017,37.59801992029833],[126.92592865400513,37.59801014051861],[126.92596442409614,37.59800035171095],[126.92610125326965,37.59798405933818],[126.92623807106916,37.59796775778964],[126.92626679682496,37.5979813989774],[126.92629551126669,37.59799504105192],[126.92630228231695,37.59799554901672],[126.92632583966635,37.59801398913827],[126.92634939703646,37.59803242024524],[126.92635158780868,37.59802715088715],[126.92635223385273,37.59801530336595],[126.92635287990566,37.5980034468349],[126.92636217588213,37.59800420958053],[126.92635250481547,37.59803524140168],[126.92636167203761,37.59804355520777],[126.92637084718022,37.59805187712701],[126.92636680393967,37.59807507487688],[126.92636276069658,37.59809827262653],[126.9263424847768,37.59816101321172],[126.92632220882282,37.59822375379272],[126.92632865381762,37.598233218224635],[126.92633509881398,37.598242682656156],[126.92636198687515,37.5982484210249],[126.9263888749405,37.598254159387494],[126.92645446952262,37.59828041973924],[126.92652006415092,37.59830668005447],[126.92653614418816,37.5983063388872],[126.9265522253567,37.598305998619466],[126.92655795584412,37.59830419128224],[126.92656368746457,37.59830238304451],[126.92659549679041,37.59830141215856],[126.92662730611545,37.59830044126404],[126.926645583702,37.59829935365995],[126.926663861288,37.598298266053035],[126.92666905917257,37.598297972925785],[126.92667424573425,37.59829767889019],[126.9266930894811,37.59829661596427],[126.92669628295151,37.598296436891026],[126.9267119219064,37.59829555032525],[126.92676491769895,37.598283481891656],[126.92681790328933,37.59827140712091],[126.92682687658905,37.59826649433106],[126.92684566046114,37.59825621518336],[126.92687756224348,37.59825335221466],[126.9269094640234,37.59825048923734],[126.92692002989507,37.59824964718923],[126.92693059577012,37.59824880153626],[126.92695878807582,37.59822986986475],[126.92698698263105,37.5982109390888],[126.92698497344492,37.598203352440486],[126.92698296426005,37.59819576489114],[126.92700119628634,37.59818242202634],[126.92701943057628,37.598169073754214],[126.92704887762022,37.59816478833883],[126.92707832239249,37.59816050651864],[126.92711697678176,37.5981538996525],[126.92714250177943,37.59815252822489],[126.92717193022975,37.59815098355875],[126.9271752403215,37.598150809951896],[126.92724879592586,37.5980970495263],[126.9273223503001,37.59804328094466],[126.92733095713828,37.59805384588093],[126.92733955379745,37.59806440089935],[126.9273547033762,37.598067074627444],[126.92736985069486,37.59806974474822],[126.92737720930279,37.59807155133765],[126.92738455659631,37.59807334890967],[126.92739301620409,37.59804970340666],[126.92740147580655,37.598026057902935],[126.92741057071551,37.5979897990287],[126.92741966561563,37.59795354015354],[126.9274201203403,37.59795174748187],[126.92752428122402,37.59796884141382],[126.9276284421645,37.597985926244014],[126.9275915291007,37.598040998269695],[126.92755461598242,37.59809607028326],[126.92754681867272,37.59813706014434],[126.92753902135442,37.598178050004606],[126.92754371574054,37.598183053404966],[126.92754841012733,37.59818805680515],[126.92754987985427,37.59819043632251],[126.92754641877502,37.598197858257095],[126.92752970937782,37.59820484842532],[126.92750659942344,37.59821451950857],[126.92750538806337,37.59821423944413],[126.92749586258483,37.59821649493916],[126.92748632579094,37.598218741416474],[126.92748712280512,37.59827149449681],[126.92748791982036,37.59832424757664],[126.92748276556179,37.59832622650727],[126.92747761130295,37.59832820543769],[126.92747585125991,37.5983331146933],[126.92747409121664,37.598338023948855],[126.92747278447938,37.59834257309541],[126.92747147774197,37.59834712224191],[126.92751897136743,37.59835665740246],[126.92756646500504,37.598366192543885],[126.92756270186776,37.59839276919694],[126.9275589387278,37.59841934584976],[126.9275577286196,37.59842923788936],[126.92760615930919,37.59844167476846],[126.92761026791163,37.59844361445557],[126.92766159712885,37.59846788303898],[126.92764629123249,37.59848692925955],[126.92763098532829,37.598505975478076],[126.927684409935,37.59852979487132],[126.92769255578419,37.598537142981314],[126.927700701635,37.59854449109072],[126.92770850857562,37.59855102810257],[126.9277163155176,37.598557565113914],[126.92771257529509,37.5985609865121],[126.92770883507225,37.598564407910146],[126.9276843970682,37.59860011661702],[126.9276599590408,37.59863582531858],[126.92766873175823,37.598639074347965],[126.92767750447642,37.5986423233767],[126.92767303016156,37.59864376215088],[126.9276685558465,37.598645200924885],[126.92764150116835,37.598693206408164],[126.9276144464554,37.59874121188483],[126.92761025879275,37.59873904690262],[126.92760607113037,37.598736881920274],[126.9275535445889,37.59872085656128],[126.92750101806999,37.59870483117888],[126.92745471911667,37.59868935027098],[126.92740842018256,37.59867386934493],[126.92739957490082,37.59868670280383],[126.92739072961601,37.59869953626209],[126.92737910454818,37.59871786397213],[126.92736747947455,37.598736191680956],[126.92732866084012,37.59877108039279],[126.92728984216939,37.5988059690916],[126.92727244210114,37.59882411296213],[126.92725504202441,37.59884225683007],[126.92722004323133,37.59885052385099],[126.92718504443047,37.598858790861534],[126.92718277850419,37.598859960712836],[126.92717371502233,37.598864414871905],[126.92717241214814,37.59886505374942],[126.9271053496131,37.598811123674835],[126.92707107484935,37.598842816675116],[126.9270490152543,37.59883227026384],[126.92698863250205,37.59880242762198],[126.92692824980703,37.59877257593932],[126.92691821321885,37.59879896840852],[126.9269081766326,37.59882535186692],[126.9269039865467,37.59885964965413],[126.92689967093233,37.59889491141382],[126.92688253914295,37.59890509971333],[126.92686444423063,37.59891588205017],[126.92683898490682,37.59893058801223],[126.92681351424922,37.59894529396156],[126.92680913582339,37.598952724302734],[126.9268047460819,37.59896014562673],[126.92683036762288,37.59897575786373],[126.92685597785069,37.59899137008795],[126.92684156933969,37.5990072993677],[126.92682714950772,37.59902321962862],[126.92681771744329,37.599033854272506],[126.92685758895858,37.599056241905885],[126.92687467712098,37.59905575717298],[126.92689475223823,37.59905781509902],[126.92691481604172,37.599059864004694],[126.92693779475928,37.59906856400567],[126.92696077349119,37.599077254992345],[126.9269715695566,37.5990841543338],[126.92698235430025,37.59909105366708],[126.92698557922219,37.59909343429949],[126.9269887928295,37.599095805914835],[126.92703450683996,37.59913025233388],[126.92708022089258,37.599164698735066],[126.9271313065989,37.59920640141937],[126.92718239236223,37.59924810408132],[126.92718389687657,37.59924967273977],[126.92718540138203,37.59925125040803],[126.9272452910844,37.59928769684431],[126.92730516952132,37.59932414324292],[126.92729744053426,37.599330283088904],[126.92728970022208,37.59933642292725],[126.92728691844378,37.59935529677726],[126.9272841366641,37.599374170627165],[126.92726700665044,37.59939390940533],[126.92724986530382,37.599413648173766],[126.92723554053198,37.5994250816467],[126.92722120443183,37.599436515110746],[126.92721030219127,37.599445211745795],[126.92719939995715,37.59945389937002],[126.9271907870746,37.59946065132091],[126.9271821741905,37.59946740327118],[126.92717979428961,37.5994692938371],[126.92717741438857,37.59947118440299],[126.92715383951823,37.59949243275679],[126.92713026463446,37.59951368110576],[126.92711099156618,37.59953619353847],[126.92709171848627,37.599558705967944],[126.92708044643717,37.59956347407073],[126.92706917438663,37.59956824217241],[126.92705372011885,37.59956534927709],[126.92703826585225,37.59956245637973],[126.92702474352349,37.59955267217795],[126.92701122119824,37.599542887974565],[126.92700443098592,37.59953873916515],[126.92699764077436,37.599534590355304],[126.92695784002562,37.59953177217165],[126.92691803927994,37.59952895397454],[126.9269088647112,37.59953115558441]]]},"properties":{"OBJECTID":84456,"PRESENT_SN":"11000UQ181PS201912151349","LCLAS_CL":"UQ1200","MLSFC_CL":"UQ1220","SCLAS_CL":"UQ1221","ATRB_SE":"UQ1221","WTNNC_SN":"11000AGZ201608178588","NTFC_SN":"11000NTC201311076992","DGM_NM":"응암제3주택재개발정비사업","SIGNGU_SE":"11000","DRAWING_NO":" ","CREATE_DAT":1576368000000,"DGM_AR":18639.17000052,"DGM_LT":813.46162811,"SHAPE.AREA":18639.170000515,"SHAPE.LEN":813.4616281048391}},{"type":"Feature","id":84464,"geometry":{"type":"Polygon","coordinates":[[[126.9269088647112,37.59953115558441],[126.92689969014188,37.59953335719356],[126.92687879280736,37.59953807414245],[126.92685789547019,37.59954279108764],[126.92683342583054,37.59955277652071],[126.92680895618437,37.599562761948675],[126.92676313248141,37.599581203091134],[126.92671730875587,37.59959964421573],[126.92671113352245,37.599603334333274],[126.92670495828838,37.599607024450506],[126.92668289512486,37.59962248034572],[126.92666084328513,37.599637927234134],[126.92665270698474,37.599643634307235],[126.92664455936827,37.59964933236278],[126.92660249060057,37.599593219462854],[126.92656042189603,37.59953710654748],[126.92652117948178,37.59948572557452],[126.9264819371215,37.59943434458809],[126.92644569315516,37.59938544319932],[126.92640944923625,37.59933654179904],[126.92640467696334,37.59933016881041],[126.92639274785692,37.59932393542384],[126.92638081876154,37.599317693026265],[126.92632200483851,37.599247874416534],[126.92626319102528,37.59917805577677],[126.92622699636483,37.59913667756078],[126.92619080174444,37.599095299333435],[126.92617692219953,37.599080604446826],[126.92616303134531,37.59906590054152],[126.92615839339746,37.59906111335904],[126.92615375545927,37.599056317166536],[126.92610675649146,37.599005192384055],[126.92605975758792,37.59895406758245],[126.92597250314921,37.59885757051186],[126.92588524893576,37.598761073375435],[126.92586719555962,37.598741906899576],[126.92586229310773,37.59874116495094],[126.92582626635672,37.598735672883954],[126.92584062452634,37.598713707106725],[126.92581456255374,37.598686030204625],[126.92577262372141,37.598636935744025],[126.92573068494413,37.5985878412682],[126.92569283956125,37.598544524710306],[126.92565499422221,37.59850120813999],[126.9255957473716,37.59843527211947],[126.92553650063462,37.598369327058734],[126.9255701324054,37.59836906309233],[126.92560376417237,37.59836880272024],[126.92559786961496,37.59832699419949],[126.9255919705365,37.59828518387325],[126.92558077086933,37.598285678516085],[126.92556955988195,37.598286169546626],[126.92557129206195,37.598260889066296],[126.9255730197204,37.59823559957307],[126.92557982705328,37.59821825011103],[126.92558663212561,37.59820089343923],[126.9255876382076,37.598176963966345],[126.92558863975944,37.59815303449041],[126.92558873174146,37.59813717724094],[126.9255888192031,37.598121310978705],[126.92564441521122,37.59810231795981],[126.92570001119117,37.59808332491462],[126.92572504490255,37.59807509699382],[126.92575007860843,37.59806686906771],[126.92583820588692,37.59803828334203],[126.9258655392419,37.598029101823364],[126.92589287259017,37.59801992029833],[126.92592865400513,37.59801014051861],[126.92596442409614,37.59800035171095],[126.92610125326965,37.59798405933818],[126.92623807106916,37.59796775778964],[126.92626679682496,37.5979813989774],[126.92629551126669,37.59799504105192],[126.92630228231695,37.59799554901672],[126.92632583966635,37.59801398913827],[126.92634939703646,37.59803242024524],[126.92635158780868,37.59802715088715],[126.92635223385273,37.59801530336595],[126.92635287990566,37.5980034468349],[126.92636217588213,37.59800420958053],[126.92635250481547,37.59803524140168],[126.92636167203761,37.59804355520777],[126.92637084718022,37.59805187712701],[126.92636680393967,37.59807507487688],[126.92636276069658,37.59809827262653],[126.9263424847768,37.59816101321172],[126.92632220882282,37.59822375379272],[126.92632865381762,37.598233218224635],[126.92633509881398,37.598242682656156],[126.92636198687515,37.5982484210249],[126.9263888749405,37.598254159387494],[126.92645446952262,37.59828041973924],[126.92652006415092,37.59830668005447],[126.92653614418816,37.5983063388872],[126.9265522253567,37.598305998619466],[126.92655795584412,37.59830419128224],[126.92656368746457,37.59830238304451],[126.92659549679041,37.59830141215856],[126.92662730611545,37.59830044126404],[126.926645583702,37.59829935365995],[126.926663861288,37.598298266053035],[126.92666905917257,37.598297972925785],[126.92667424573425,37.59829767889019],[126.9266930894811,37.59829661596427],[126.92669628295151,37.598296436891026],[126.9267119219064,37.59829555032525],[126.92676491769895,37.598283481891656],[126.92681790328933,37.59827140712091],[126.92682687658905,37.59826649433106],[126.92684566046114,37.59825621518336],[126.92687756224348,37.59825335221466],[126.9269094640234,37.59825048923734],[126.92692002989507,37.59824964718923],[126.92693059577012,37.59824880153626],[126.92695878807582,37.59822986986475],[126.92698698263105,37.5982109390888],[126.92698497344492,37.598203352440486],[126.92698296426005,37.59819576489114],[126.92700119628634,37.59818242202634],[126.92701943057628,37.598169073754214],[126.92704887762022,37.59816478833883],[126.92707832239249,37.59816050651864],[126.92711697678176,37.5981538996525],[126.92714250177943,37.59815252822489],[126.92717193022975,37.59815098355875],[126.9271752403215,37.598150809951896],[126.92724879592586,37.5980970495263],[126.9273223503001,37.59804328094466],[126.92733095713828,37.59805384588093],[126.92733955379745,37.59806440089935],[126.9273547033762,37.598067074627444],[126.92736985069486,37.59806974474822],[126.92737720930279,37.59807155133765],[126.92738455659631,37.59807334890967],[126.92739301620409,37.59804970340666],[126.92740147580655,37.598026057902935],[126.92741057071551,37.5979897990287],[126.92741966561563,37.59795354015354],[126.9274201203403,37.59795174748187],[126.92752428122402,37.59796884141382],[126.9276284421645,37.597985926244014],[126.9275915291007,37.598040998269695],[126.92755461598242,37.59809607028326],[126.92754681867272,37.59813706014434],[126.92753902135442,37.598178050004606],[126.92754371574054,37.598183053404966],[126.92754841012733,37.59818805680515],[126.92754987985427,37.59819043632251],[126.92754641877502,37.598197858257095],[126.92752970937782,37.59820484842532],[126.92750659942344,37.59821451950857],[126.92750538806337,37.59821423944413],[126.92749586258483,37.59821649493916],[126.92748632579094,37.598218741416474],[126.92748712280512,37.59827149449681],[126.92748791982036,37.59832424757664],[126.92748276556179,37.59832622650727],[126.92747761130295,37.59832820543769],[126.92747585125991,37.5983331146933],[126.92747409121664,37.598338023948855],[126.92747278447938,37.59834257309541],[126.92747147774197,37.59834712224191],[126.92751897136743,37.59835665740246],[126.92756646500504,37.598366192543885],[126.92756270186776,37.59839276919694],[126.9275589387278,37.59841934584976],[126.9275577286196,37.59842923788936],[126.92760615930919,37.59844167476846],[126.92761026791163,37.59844361445557],[126.92766159712885,37.59846788303898],[126.92764629123249,37.59848692925955],[126.92763098532829,37.598505975478076],[126.927684409935,37.59852979487132],[126.92769255578419,37.598537142981314],[126.927700701635,37.59854449109072],[126.92770850857562,37.59855102810257],[126.9277163155176,37.598557565113914],[126.92771257529509,37.5985609865121],[126.92770883507225,37.598564407910146],[126.9276843970682,37.59860011661702],[126.9276599590408,37.59863582531858],[126.92766873175823,37.598639074347965],[126.92767750447642,37.5986423233767],[126.92767303016156,37.59864376215088],[126.9276685558465,37.598645200924885],[126.92764150116835,37.598693206408164],[126.9276144464554,37.59874121188483],[126.92761025879275,37.59873904690262],[126.92760607113037,37.598736881920274],[126.9275535445889,37.59872085656128],[126.92750101806999,37.59870483117888],[126.92745471911667,37.59868935027098],[126.92740842018256,37.59867386934493],[126.92739957490082,37.59868670280383],[126.92739072961601,37.59869953626209],[126.92737910454818,37.59871786397213],[126.92736747947455,37.598736191680956],[126.92732866084012,37.59877108039279],[126.92728984216939,37.5988059690916],[126.92727244210114,37.59882411296213],[126.92725504202441,37.59884225683007],[126.92722004323133,37.59885052385099],[126.92718504443047,37.598858790861534],[126.92718277850419,37.598859960712836],[126.92717371502233,37.598864414871905],[126.92717241214814,37.59886505374942],[126.9271053496131,37.598811123674835],[126.92707107484935,37.598842816675116],[126.9270490152543,37.59883227026384],[126.92698863250205,37.59880242762198],[126.92692824980703,37.59877257593932],[126.92691821321885,37.59879896840852],[126.9269081766326,37.59882535186692],[126.9269039865467,37.59885964965413],[126.92689967093233,37.59889491141382],[126.92688253914295,37.59890509971333],[126.92686444423063,37.59891588205017],[126.92683898490682,37.59893058801223],[126.92681351424922,37.59894529396156],[126.92680913582339,37.598952724302734],[126.9268047460819,37.59896014562673],[126.92683036762288,37.59897575786373],[126.92685597785069,37.59899137008795],[126.92684156933969,37.5990072993677],[126.92682714950772,37.59902321962862],[126.92681771744329,37.599033854272506],[126.92685758895858,37.599056241905885],[126.92687467712098,37.59905575717298],[126.92689475223823,37.59905781509902],[126.92691481604172,37.599059864004694],[126.92693779475928,37.59906856400567],[126.92696077349119,37.599077254992345],[126.9269715695566,37.5990841543338],[126.92698235430025,37.59909105366708],[126.92698557922219,37.59909343429949],[126.9269887928295,37.599095805914835],[126.92703450683996,37.59913025233388],[126.92708022089258,37.599164698735066],[126.9271313065989,37.59920640141937],[126.92718239236223,37.59924810408132],[126.92718389687657,37.59924967273977],[126.92718540138203,37.59925125040803],[126.9272452910844,37.59928769684431],[126.92730516952132,37.59932414324292],[126.92729744053426,37.599330283088904],[126.92728970022208,37.59933642292725],[126.92728691844378,37.59935529677726],[126.9272841366641,37.599374170627165],[126.92726700665044,37.59939390940533],[126.92724986530382,37.599413648173766],[126.92723554053198,37.5994250816467],[126.92722120443183,37.599436515110746],[126.92721030219127,37.599445211745795],[126.92719939995715,37.59945389937002],[126.9271907870746,37.59946065132091],[126.9271821741905,37.59946740327118],[126.92717979428961,37.5994692938371],[126.92717741438857,37.59947118440299],[126.92715383951823,37.59949243275679],[126.92713026463446,37.59951368110576],[126.92711099156618,37.59953619353847],[126.92709171848627,37.599558705967944],[126.92708044643717,37.59956347407073],[126.92706917438663,37.59956824217241],[126.92705372011885,37.59956534927709],[126.92703826585225,37.59956245637973],[126.92702474352349,37.59955267217795],[126.92701122119824,37.599542887974565],[126.92700443098592,37.59953873916515],[126.92699764077436,37.599534590355304],[126.92695784002562,37.59953177217165],[126.92691803927994,37.59952895397454],[126.9269088647112,37.59953115558441]]]},"properties":{"OBJECTID":84464,"PRESENT_SN":"11000UQ181PS201912151349","LCLAS_CL":"UQ1200","MLSFC_CL":"UQ1220","SCLAS_CL":"UQ1221","ATRB_SE":"UQ1221","WTNNC_SN":"11000AGZ201608178588","NTFC_SN":"11000NTC201311076992","DGM_NM":"응암제3주택재개발정비사업","SIGNGU_SE":"11000","DRAWING_NO":" ","CREATE_DAT":1576368000000,"DGM_AR":18639.17000052,"DGM_LT":813.46162811,"SHAPE.AREA":18639.170000515,"SHAPE.LEN":813.4616281048391}}]}