{"type":"FeatureCollection","features":[{"type":"Feature","id":84677,"geometry":{"type":"Polygon","coordinates":[[[126.86804193734741,37.51680364453837],[126.86789921337169,37.51685258743243],[126.86780764760259,37.51682085887728],[126.8662086518776,37.51626600700326],[126.865932602898,37.516170184938666],[126.86261181773268,37.51501782744056],[126.86255647032094,37.514915229028745],[126.86402505371288,37.51223008747213],[126.86413450298092,37.512189309586525],[126.86741879055174,37.51332761788329],[126.86777056731053,37.51344956106507],[126.86928925694733,37.51397592078415],[126.86938703708742,37.51400981754545],[126.86941583846034,37.51409760676267],[126.86804193734741,37.51680364453837]]]},"properties":{"OBJECTID":84677,"PRESENT_SN":"11470UQ181PS202504090001","LCLAS_CL":"UQ1200","MLSFC_CL":"UQ1240","SCLAS_CL":" ","ATRB_SE":"UQ1240","WTNNC_SN":"11470AGZ202501220002","NTFC_SN":"11470NTC202504090004","DGM_NM":"목동 13단지 아파트 재건축 정비사업","SIGNGU_SE":"11470","DRAWING_NO":" ","CREATE_DAT":1744156800000,"DGM_AR":178919.98569999,"DGM_LT":1712.24088815,"SHAPE.AREA":178919.9857,"SHAPE.LEN":1712.24088814962}}]}