{"type":"FeatureCollection","features":[{"type":"Feature","id":85586,"geometry":{"type":"Polygon","coordinates":[[[126.88772911785374,37.49629025209095],[126.88769218542194,37.49633463575739],[126.88758454345653,37.496325972513894],[126.88753852472618,37.49632196373228],[126.88751003262132,37.496318782745725],[126.88747904803691,37.4963186627425],[126.88733816125244,37.49630897608208],[126.88714333808619,37.496296534054956],[126.8870994682476,37.49629234698285],[126.88692409665674,37.49627911253149],[126.88690803944094,37.49627873655645],[126.88689560101456,37.496278273990285],[126.88686768194336,37.49627013791117],[126.88684540779046,37.49626804399671],[126.88670768736624,37.496258449757576],[126.8867074981033,37.49626389160662],[126.88667534015826,37.49626202231467],[126.88604970457448,37.49622780526085],[126.88553567971522,37.49619531631112],[126.88548343995411,37.49619238182045],[126.88533668924538,37.49618703883854],[126.88535017528757,37.496153598012704],[126.88536040142662,37.49612216320763],[126.88537404584584,37.49607406328316],[126.88541161581804,37.4959108392163],[126.88547044535605,37.49582052682721],[126.88549389386203,37.49576512941474],[126.88549575034052,37.4957565717483],[126.88551716178456,37.495658302801885],[126.88547515052856,37.495629880080436],[126.88533440155294,37.49560523458375],[126.88518256785855,37.495582380003],[126.88507031035897,37.495561186038714],[126.88497964425594,37.4955446984615],[126.88480055914819,37.495448475192894],[126.88472714154716,37.49539353180524],[126.88474429050082,37.49534624631101],[126.88468071027755,37.49529185321562],[126.88466495159793,37.495245165884064],[126.8845472259099,37.49503268392834],[126.88448570873538,37.49503334380719],[126.88444572771334,37.495001498931984],[126.88444696638585,37.494932393535116],[126.88448964410627,37.49490279294838],[126.88555775164706,37.495011605589966],[126.8856140141379,37.494972016840514],[126.8856781779012,37.49472205253424],[126.88548544537666,37.49453058130663],[126.88570408835773,37.494272929886556],[126.88579692481684,37.494127779790354],[126.8861241439039,37.494296766872196],[126.8864254895788,37.49445239305579],[126.8865916867776,37.494251091432936],[126.88663337996732,37.49427284606092],[126.88666738995826,37.494290538709514],[126.88650141944949,37.494491570358534],[126.88610388706215,37.494968261698865],[126.88651494777507,37.495182289399395],[126.88677539279539,37.49531796277355],[126.88777469713646,37.49583835494602],[126.88780029674501,37.49580999812306],[126.88787080622299,37.49584556532518],[126.88809139746525,37.495867040883375],[126.88806239484767,37.495902422292765],[126.88804257068483,37.49592537872599],[126.88797992499565,37.49599874995014],[126.88797029593754,37.496010003182334],[126.88791693952675,37.49607239111302],[126.88786970887656,37.49612199072771],[126.8878387817382,37.49615863162769],[126.88782167524866,37.49617906784083],[126.88778757505112,37.49622012056778],[126.88772911785374,37.49629025209095]]]},"properties":{"OBJECTID":85586,"PRESENT_SN":"11000UQ181PS201912150742","LCLAS_CL":"UQ1200","MLSFC_CL":"UQ1240","SCLAS_CL":" ","ATRB_SE":"UQ1240","WTNNC_SN":"11000AGZ201606140291","NTFC_SN":"11000NTC201603317737","DGM_NM":"보광아파트 주택재건축정비사업","SIGNGU_SE":"11000","DRAWING_NO":" ","CREATE_DAT":1576368000000,"DGM_AR":32953.05616103,"DGM_LT":1088.03770405,"SHAPE.AREA":32953.056161,"SHAPE.LEN":1088.03770405638}}]}