{"type":"FeatureCollection","features":[{"type":"Feature","id":86893,"geometry":{"type":"Polygon","coordinates":[[[127.08188563157977,37.60072542375989],[127.08193003068251,37.60067032543578],[127.08193385315948,37.60066561969998],[127.0819717499799,37.6006190040402],[127.08198836268394,37.6005982340654],[127.08203542669384,37.60053940111074],[127.08208785960565,37.60046503783028],[127.08214209398203,37.600489245351866],[127.08219544482638,37.60051318405835],[127.08226983392665,37.600545847885364],[127.08232173387164,37.60056840001319],[127.0823426935927,37.60057781895566],[127.08244435351865,37.60062307775832],[127.0825014325189,37.600617830927945],[127.08254385691511,37.60058011369068],[127.08258236564635,37.60054470564391],[127.08266716857301,37.60046893776264],[127.08267195085597,37.60046176264923],[127.08270531688682,37.600404166883514],[127.08272534508946,37.60036919496118],[127.08274927392154,37.600328571186694],[127.08279603473457,37.60024884703922],[127.08280732597872,37.600229125752605],[127.08286758242976,37.60001192928008],[127.0828558292817,37.599971375117406],[127.08281043760967,37.59982091516654],[127.08280474190474,37.599800322613184],[127.0827768239168,37.599712937455095],[127.08277189650103,37.5996803162449],[127.08276773174067,37.59965132547172],[127.08275320875619,37.59955233543027],[127.08274137590745,37.599469588262274],[127.0827225130589,37.59934710355658],[127.08272211175897,37.59934253584747],[127.08271745920969,37.5993127165018],[127.0827068001986,37.59924616099106],[127.08277243518576,37.599239512520356],[127.08279919339506,37.59923838318488],[127.08287583296634,37.599238033060274],[127.08294506500344,37.59923610226566],[127.08294715582355,37.59926351774463],[127.08296615636604,37.59926267573059],[127.08300509664281,37.59926036035665],[127.08311337865467,37.599221750498245],[127.08322230316703,37.59918053625385],[127.08323178828934,37.599176628430186],[127.08325238916557,37.599168811651474],[127.08332447720473,37.59916913111488],[127.08337288723983,37.59916962012393],[127.08344367280021,37.59916972418176],[127.08355341399067,37.59917124270249],[127.08366543014536,37.59915112692902],[127.08371196151211,37.59915261719791],[127.08377903430217,37.59915405709525],[127.08377396533075,37.59906521466443],[127.08377283398386,37.5990455830265],[127.08376814379456,37.59898193182353],[127.08375129334735,37.59888879089777],[127.08375053218623,37.598845391060635],[127.08374694388324,37.5987334193496],[127.08373154456064,37.5986448183623],[127.08389000503847,37.59862738197612],[127.08398907619097,37.59861660010503],[127.0844481278219,37.59856295827986],[127.0845059445989,37.598581207607275],[127.08463102522543,37.59862036643614],[127.08473716373375,37.59865154676598],[127.08483752523524,37.59868096515081],[127.08492211902407,37.59870583561684],[127.0850037444472,37.59872928456794],[127.08514812304246,37.5987568155214],[127.08515477793986,37.59883766505124],[127.08515611460575,37.5988684236751],[127.08515668555725,37.59888279395465],[127.08515951765038,37.59895462734819],[127.08516278026417,37.59901653159966],[127.08516433047576,37.599045848497866],[127.08517689226542,37.59917048162414],[127.08518728325632,37.599247535358764],[127.08519505225897,37.59931905891302],[127.08519559208169,37.59934607000844],[127.08519976798777,37.59956619527325],[127.08519547796446,37.59958797507906],[127.08521775483736,37.5996106190124],[127.08521954548979,37.59961193317809],[127.08521890385151,37.59961534835949],[127.08519986749319,37.59970560433518],[127.0852002684622,37.599709739563814],[127.0851999861017,37.59978117872158],[127.08520105993367,37.5998805564053],[127.08520126241788,37.59989957601655],[127.08520139642484,37.59990497461272],[127.08520375758187,37.600000114958846],[127.08520564121758,37.60011881815301],[127.08520520009264,37.60013949602875],[127.08520486662515,37.60025528611165],[127.08520456425839,37.60031998141841],[127.08521783212763,37.600327621357295],[127.08522044048597,37.60043010723607],[127.08522085391185,37.600446368786656],[127.08522118388564,37.60050842826742],[127.08522214307109,37.600545863433986],[127.08522253245047,37.60056997346484],[127.0852250958039,37.600654510887736],[127.08522746846575,37.600781097323036],[127.08523011631813,37.60092082890259],[127.08523138904782,37.60096521042306],[127.0852315392992,37.60096994318024],[127.0852328224547,37.60101048920833],[127.08523368296522,37.601037667651156],[127.08523520441727,37.601085723202935],[127.08524381220364,37.60147102246014],[127.08524616405228,37.60156887654706],[127.08524666268542,37.601629836697064],[127.08524893906993,37.60173107853048],[127.08524382342853,37.60176298956733],[127.08522830328998,37.60185979857187],[127.08518812818181,37.601943726582],[127.08509004741472,37.60195279688673],[127.08490836396545,37.601965917559085],[127.08484608979018,37.60191340720926],[127.08490461358411,37.60183217831204],[127.08484248242047,37.6016945610141],[127.08484294362077,37.60164101527462],[127.08480588979928,37.601569070911786],[127.08473806069988,37.60142942135159],[127.08471499508894,37.601319157299045],[127.08458853229604,37.60128354942497],[127.08455571098273,37.60126990460809],[127.0845302317613,37.601239487325586],[127.08451711269882,37.60122418885076],[127.08445681470916,37.60121688822461],[127.08444209118002,37.601214988485594],[127.08434385443562,37.6012153728047],[127.0842311677117,37.60121545182484],[127.08413628287705,37.60121579758292],[127.08412466965544,37.6012104178329],[127.08397818532228,37.60114322584123],[127.08388097567905,37.601099352772934],[127.08387020870629,37.60109116134031],[127.08384824025804,37.60112235968709],[127.08381130055986,37.601266029163924],[127.08369553629778,37.60144361247065],[127.08349708206882,37.60174515628881],[127.08343471713485,37.601732738994016],[127.08322262777432,37.601693585122455],[127.08319417567579,37.60168846020169],[127.08316288224255,37.60168429228135],[127.08306704301938,37.601671924971406],[127.08297105622974,37.6016592063021],[127.08281092184856,37.60163990952806],[127.08271474431557,37.6016287404722],[127.08261097986589,37.601617837835704],[127.08240716873665,37.60159911110281],[127.08229479908714,37.60158925021552],[127.08210596847361,37.60157954956819],[127.08203343287592,37.60157589603021],[127.08205043405299,37.6014530804569],[127.08207131393269,37.601293709352376],[127.08207624038509,37.601252098596234],[127.08209380940934,37.60112043496931],[127.08210763894577,37.60100748730744],[127.08205329711325,37.600936454856786],[127.08196919265814,37.60083113323565],[127.08188563157977,37.60072542375989]]]},"properties":{"OBJECTID":86893,"PRESENT_SN":"11000UQ181PS202403250001","LCLAS_CL":"UQ1200","MLSFC_CL":"UQ1220","SCLAS_CL":"UQ1221","ATRB_SE":"UQ1221","WTNNC_SN":"11000AGZ202312120001","NTFC_SN":"11000NTC202312120005","DGM_NM":"중화5구역 주택정비형 공공재개발사업","SIGNGU_SE":"11000","DRAWING_NO":" ","CREATE_DAT":1711324800000,"DGM_AR":70998.66125471,"DGM_LT":1376.76970643,"SHAPE.AREA":70998.66201833,"SHAPE.LEN":1376.7696742535302}}]}