{"type":"FeatureCollection","features":[{"type":"Feature","id":83897,"geometry":{"type":"Polygon","coordinates":[[[126.90730911428378,37.575977692177574],[126.90732914521386,37.57607240186599],[126.90722788621339,37.57643025602036],[126.90721895989923,37.5764618104536],[126.90719042555283,37.57655702194757],[126.90732156569993,37.57660667281309],[126.9074303582132,37.57664921405844],[126.90743066530062,37.576810031405756],[126.90742225981175,37.57682355752541],[126.90740913547117,37.57684465718025],[126.90740854788169,37.57684560184678],[126.90731983282939,37.5769039159261],[126.90735793665374,37.57694151656346],[126.90742579758219,37.5770079022026],[126.9073803929562,37.57703516589905],[126.90734506745392,37.57705573427828],[126.90733483984239,37.57706165461095],[126.90735519134246,37.57708004196152],[126.90733662119015,37.57709081556144],[126.90731913180076,37.57710096113214],[126.90635255831339,37.577745562564786],[126.90642031712726,37.57778796353003],[126.90645776765092,37.577811392310096],[126.90645809568518,37.57781159980113],[126.90647528926145,37.57782243449171],[126.9065907811181,37.57789468741893],[126.90667720212319,37.57794881606414],[126.90673851130197,37.57798724732368],[126.90677098165071,37.578004752524485],[126.90686023856709,37.578052756603185],[126.9068682707532,37.578057087778014],[126.9069654514276,37.57810933276553],[126.90706262770965,37.578161577669114],[126.90719940181214,37.57823520751287],[126.90725562752299,37.578265435464616],[126.90808103036181,37.578709467022385],[126.90821678827677,37.578782554285596],[126.90814484149197,37.578830519972406],[126.90809974724749,37.578860577239574],[126.9079823660124,37.57893887010267],[126.90795721288443,37.578955626535446],[126.90790730314936,37.57898887841315],[126.90785716675093,37.57902229226724],[126.90771372533814,37.57911795321716],[126.90767905460234,37.57914108100977],[126.90756937710012,37.57921424395976],[126.90750033011003,37.57926022938769],[126.9074647868694,37.579283888003765],[126.90743010467023,37.57930700670354],[126.9073256386981,37.57937665973191],[126.90721864586645,37.579447986482855],[126.90711423615039,37.57951760332773],[126.90700104788611,37.57959270005715],[126.90692613054044,37.57964297814977],[126.90678715927555,37.5797362449209],[126.90667846522202,37.57980919158722],[126.90662211663088,37.579805479291565],[126.90656029795853,37.57974635192096],[126.90653523007167,37.57972227542415],[126.90647067735189,37.57966062304479],[126.90646831519108,37.57965754878009],[126.90645320878563,37.57964313885729],[126.90644927290805,37.57964015342355],[126.90636890265611,37.57956258584268],[126.90636209622538,37.579555714841874],[126.90635672513899,37.5795507370687],[126.90631090756114,37.57950781318425],[126.90628195007018,37.57948011153132],[126.9062308081702,37.57943112869268],[126.90618062727685,37.57938319175162],[126.90617127676786,37.579373904042],[126.90615811313525,37.579363045535565],[126.9060470094132,37.579259063016146],[126.90599396448455,37.57920942982414],[126.90589165855776,37.57911169810923],[126.90582866699802,37.579051740491735],[126.90575296645669,37.57897968129557],[126.9057380411931,37.57896547865353],[126.90565728785533,37.57888763096356],[126.90563582752871,37.57886694491032],[126.90553982006958,37.57877555193441],[126.90544702402352,37.57868720682631],[126.90535372176952,37.57859828460049],[126.90526040391151,37.57850934426725],[126.90516715822875,37.57842079134205],[126.90507587732783,37.578334546472185],[126.90499187600379,37.578255191018826],[126.90490519805878,37.57817278798027],[126.90480771798899,37.578074734904575],[126.90470867118498,37.57797159889874],[126.904631839717,37.57789160035383],[126.90457671470391,37.57783420731424],[126.9045624473288,37.577819356351064],[126.90449671802794,37.577750908470136],[126.90441752868048,37.577673718922966],[126.9043585033319,37.57761252040857],[126.90433274942826,37.57758604624753],[126.90429995318081,37.57755160156118],[126.90428350368063,37.577534721547075],[126.90428046420004,37.57753029520001],[126.90427703724298,37.57752785070395],[126.90425676749581,37.57750628240957],[126.90423371602017,37.57748231519534],[126.90421551718762,37.577463082155276],[126.90420961533509,37.577455590093024],[126.90420251524132,37.57744850248667],[126.90418924286249,37.577434697442015],[126.90418842888494,37.577433849843636],[126.9041798366989,37.577425058141266],[126.90416415628859,37.57740876438554],[126.90415454683087,37.5773987645205],[126.90413823278608,37.57738223598218],[126.90412791107966,37.577371514738225],[126.90411396022334,37.577357150513606],[126.90409537441869,37.577337818026855],[126.90408054108954,37.57732305663591],[126.90407477485968,37.577317492789795],[126.90406534619015,37.5773077723724],[126.90405250329025,37.57729454429798],[126.90403551143314,37.57727696103138],[126.90402763119604,37.57726915198091],[126.90401751279717,37.57725880930934],[126.90401049205445,37.57725166769754],[126.90399900864361,37.57723940479563],[126.90399293427305,37.577234020888234],[126.90397052724818,37.577210810982635],[126.90395433762262,37.5771944266791],[126.9039384646612,37.577178285901375],[126.90393310680282,37.577172100705106],[126.90392833590705,37.57716722242422],[126.90385270261243,37.57708120576261],[126.90447654591472,37.576554823250696],[126.90485033544029,37.576239424186774],[126.90493793756949,37.576165434779305],[126.90493952404911,37.576164174695776],[126.90498803171725,37.576120426414924],[126.90500287870788,37.57610701385189],[126.90506125888214,37.57604651525832],[126.90511443317672,37.57598303912806],[126.905160476157,37.57591910665944],[126.90516217495987,37.57591676548047],[126.90520414846308,37.575848234640134],[126.90524035131837,37.5757775367099],[126.90527044561445,37.5757051219129],[126.9052820364252,37.57566909189109],[126.90529431114014,37.575631170353105],[126.90531195400914,37.57555622263133],[126.90532314533844,37.57548045876119],[126.90532841048396,37.575435503809615],[126.90535549182303,37.57520406235581],[126.90535759791263,37.57518604433436],[126.90530622686167,37.57516834313823],[126.90546636705275,37.57502395524402],[126.90554944226488,37.57494924089359],[126.90559488649451,37.57490828292271],[126.90563761286441,37.574869845490085],[126.90569835912727,37.57481512381546],[126.90577270519059,37.57474814169745],[126.90585158435046,37.57467711777387],[126.90588241072356,37.57464930225325],[126.90599506241927,37.57454794232564],[126.90610803557976,37.57454929506163],[126.9062035765162,37.574640642212614],[126.90632251718718,37.57475453282856],[126.90644338273621,37.57487013674797],[126.90656345716117,37.57498501911576],[126.90668240142007,37.575098729168616],[126.9067113460692,37.575126412713075],[126.90677070523319,37.57518322253898],[126.90679370270264,37.575205225072644],[126.90692990137121,37.575335526873],[126.90704941207422,37.57544977759586],[126.90709289751014,37.575491203718805],[126.90721957706444,37.575612361559116],[126.90730008175748,37.575689279107046],[126.90747014545386,37.57583335725522],[126.90757425063678,37.57593872044502],[126.90762295968506,37.575985691594674],[126.90770139339872,37.57606184227963],[126.90770623261868,37.57606654026599],[126.90773019373306,37.576096877507176],[126.9077649159679,37.5761326652494],[126.90772705705025,37.57617886480656],[126.90762850924543,37.57611887986672],[126.90753882438838,37.5760597308076],[126.90745910234001,37.576017978661866],[126.9074550317197,37.57602323718116],[126.90745663782626,37.57601533680717],[126.90735634546549,37.57596565753707],[126.90730010245737,37.57593522238166],[126.90730911428378,37.575977692177574]]]},"properties":{"OBJECTID":83897,"PRESENT_SN":"11000UQ181PS201912150463","LCLAS_CL":"UQ1200","MLSFC_CL":"UQ1240","SCLAS_CL":" ","ATRB_SE":"UQ1240","WTNNC_SN":"11000AGZ201406180174","NTFC_SN":"11000NTC201405297209","DGM_NM":"북가좌제6주택재건축정비사업","SIGNGU_SE":"11000","DRAWING_NO":" ","CREATE_DAT":1576368000000,"DGM_AR":104650.85362973,"DGM_LT":1688.72403311,"SHAPE.AREA":104650.853629685,"SHAPE.LEN":1688.7240331083601}}]}