{"type":"FeatureCollection","features":[{"type":"Feature","id":85065,"geometry":{"type":"Polygon","coordinates":[[[126.88745026753901,37.52153297896],[126.88752826944109,37.52185696193946],[126.8875645089401,37.522001363319134],[126.88768322066159,37.52249171809325],[126.8868941984533,37.522612346068904],[126.88659343496312,37.52265921188339],[126.88622383189575,37.522715974758945],[126.88588019639893,37.522768590296764],[126.88576333600429,37.52278604522858],[126.88563724018479,37.52271865331859],[126.88561378856592,37.52270482706886],[126.8856040188036,37.52266564222938],[126.88550901768502,37.52227875189609],[126.8854966619921,37.522222076195455],[126.885399911191,37.52181161400086],[126.8857071662792,37.52176404579584],[126.88656755682541,37.52163138583148],[126.88739390821173,37.521504831496976],[126.88745026753901,37.52153297896]]]},"properties":{"OBJECTID":85065,"PRESENT_SN":"11000UQ181PS201912150598","LCLAS_CL":"UQ1200","MLSFC_CL":"UQ1240","SCLAS_CL":" ","ATRB_SE":"UQ1240","WTNNC_SN":"11000AGZ201107139967","NTFC_SN":"11000NTC201106306144","DGM_NM":"신동아아파트 주택재건축 정비구역","SIGNGU_SE":"11000","DRAWING_NO":" ","CREATE_DAT":1576368000000,"DGM_AR":20614.18500343,"DGM_LT":583.55410385,"SHAPE.AREA":20614.1850035,"SHAPE.LEN":583.554103851975}}]}