{"type":"FeatureCollection","features":[{"type":"Feature","id":84233,"geometry":{"type":"Polygon","coordinates":[[[127.020222027309,37.58573730311335],[127.02055787144789,37.58585386398768],[127.02059536654714,37.58591368157289],[127.02058626810637,37.585939535921916],[127.02027970898314,37.58680797826258],[127.02021915658848,37.586979447192334],[127.02021039820723,37.586998879230066],[127.02016937633945,37.587089919477904],[127.0201160811538,37.5871895786681],[127.02002804023674,37.58732402492315],[127.01995513577567,37.58741826137613],[127.0198991364405,37.58749064445619],[127.01982573781197,37.587565576392784],[127.01975233903632,37.5876405082828],[127.0196640503791,37.58772008249002],[127.01964775188357,37.58773288078685],[127.01962103898549,37.58775378954621],[127.01957995958652,37.58773323535468],[127.0195609089362,37.58772370764573],[127.01946522943781,37.58770183369411],[127.0192096470031,37.5875718727104],[127.01895406545734,37.58744191297221],[127.01893514057787,37.5873883972382],[127.01941066688545,37.58650456938188],[127.01988618195266,37.58562074128132],[127.020222027309,37.58573730311335]]]},"properties":{"OBJECTID":84233,"PRESENT_SN":"11000UQ181PS201912150496","LCLAS_CL":"UQ1200","MLSFC_CL":"UQ1220","SCLAS_CL":"UQ1221","ATRB_SE":"UQ1221","WTNNC_SN":"11000AGZ201512168543","NTFC_SN":"11000NTC201508137567","DGM_NM":"보문2주택재개발정비구역","SIGNGU_SE":"11000","DRAWING_NO":" ","CREATE_DAT":1576368000000,"DGM_AR":17889.05923226,"DGM_LT":585.03458948,"SHAPE.AREA":17889.05923226,"SHAPE.LEN":585.034589479523}},{"type":"Feature","id":84809,"geometry":{"type":"Polygon","coordinates":[[[127.020222027309,37.58573730311335],[127.02055787144789,37.58585386398768],[127.02059536654714,37.58591368157289],[127.02058626810637,37.585939535921916],[127.02027970898314,37.58680797826258],[127.02021915658848,37.586979447192334],[127.02021039820723,37.586998879230066],[127.02016937633945,37.587089919477904],[127.0201160811538,37.5871895786681],[127.02002804023674,37.58732402492315],[127.01995513577567,37.58741826137613],[127.0198991364405,37.58749064445619],[127.01982573781197,37.587565576392784],[127.01975233903632,37.5876405082828],[127.0196640503791,37.58772008249002],[127.01964775188357,37.58773288078685],[127.01962103898549,37.58775378954621],[127.01957995958652,37.58773323535468],[127.0195609089362,37.58772370764573],[127.01946522943781,37.58770183369411],[127.0192096470031,37.5875718727104],[127.01895406545734,37.58744191297221],[127.01893514057787,37.5873883972382],[127.01941066688545,37.58650456938188],[127.01988618195266,37.58562074128132],[127.020222027309,37.58573730311335]]]},"properties":{"OBJECTID":84809,"PRESENT_SN":"11000UQ181PS201912150496","LCLAS_CL":"UQ1200","MLSFC_CL":"UQ1220","SCLAS_CL":"UQ1221","ATRB_SE":"UQ1221","WTNNC_SN":"11000AGZ201512168543","NTFC_SN":"11000NTC201508137567","DGM_NM":"보문2주택재개발정비구역","SIGNGU_SE":"11000","DRAWING_NO":" ","CREATE_DAT":1576368000000,"DGM_AR":17889.05923226,"DGM_LT":585.03458948,"SHAPE.AREA":17889.05923226,"SHAPE.LEN":585.034589479523}}]}