{"type":"FeatureCollection","features":[{"type":"Feature","id":85276,"geometry":{"type":"Polygon","coordinates":[[[126.86751009495924,37.50508792677385],[126.86739519930472,37.505145460212844],[126.8673439270853,37.5051675665244],[126.86695424062665,37.50526920628321],[126.86689551402462,37.50528562762554],[126.8667961055635,37.50528371230774],[126.86656724696547,37.50519371176847],[126.86654588637766,37.50518557839014],[126.86627476724782,37.50482432880282],[126.86615178219746,37.50466399061784],[126.86603037319003,37.50450797889582],[126.8660514580713,37.50445950058467],[126.86605751574267,37.50444557090327],[126.86607563750496,37.50436828610489],[126.8660939813511,37.50429325405076],[126.86613828723372,37.50405787420391],[126.86614718505813,37.50401553751999],[126.8661571842132,37.503989600250684],[126.86617032457089,37.50391510281598],[126.8661873364481,37.503826013654674],[126.86631211663256,37.50368001473531],[126.8670350716609,37.50383734319404],[126.86707962233933,37.50371593943759],[126.8671519522811,37.50374404274793],[126.86735493149217,37.5038212186221],[126.86736329449488,37.50382456180997],[126.86745709547864,37.50392548991002],[126.86762491694253,37.50412155708138],[126.86757068501464,37.50421817262969],[126.86744162182521,37.50429361990781],[126.86745145656765,37.504296153861844],[126.86737502081594,37.50435012693985],[126.86712894041494,37.504531218038444],[126.86714341889615,37.50471927265855],[126.86742021293432,37.50462876663973],[126.86751009495924,37.50508792677385]]]},"properties":{"OBJECTID":85276,"PRESENT_SN":"11000UQ181PS201912150735","LCLAS_CL":"UQ1200","MLSFC_CL":"UQ1240","SCLAS_CL":" ","ATRB_SE":"UQ1240","WTNNC_SN":"11000AGZ201705170350","NTFC_SN":"11000NTC201611107936","DGM_NM":"구로구 고척동 산업인아파트 주택재","SIGNGU_SE":"11000","DRAWING_NO":" ","CREATE_DAT":1576368000000,"DGM_AR":17324.21665495,"DGM_LT":589.82045648,"SHAPE.AREA":17324.216655,"SHAPE.LEN":589.820456478163}}]}