{"type":"FeatureCollection","features":[{"type":"Feature","id":86292,"geometry":{"type":"Polygon","coordinates":[[[126.95508903630146,37.55533882438096],[126.9549891414836,37.55546249100827],[126.95491121770006,37.55556066820193],[126.95484405456001,37.55564371296241],[126.95474868775968,37.55576431780304],[126.95466430588418,37.555873033854326],[126.95459254940573,37.55597086189143],[126.95451733189898,37.55606508454545],[126.95449998761245,37.55621894871919],[126.95444677682701,37.55624947108092],[126.9543527356342,37.55623979296139],[126.9542356080234,37.55622857384168],[126.95412968440206,37.55621771949876],[126.95397668422332,37.556201169878904],[126.9538519757683,37.55618733445504],[126.95374401427564,37.55617783042851],[126.95362993775254,37.556174090159615],[126.95345210003315,37.556169179585346],[126.95324911580666,37.55616330341697],[126.95302966832298,37.55615209528921],[126.95283607995266,37.55614256424924],[126.95269246833072,37.55613410772617],[126.95248446115512,37.55612548915654],[126.95237986999771,37.55611978746021],[126.95229002556373,37.55611376746374],[126.9521732114026,37.55610852900267],[126.95212683825952,37.55606616308258],[126.95214051595579,37.555919307424396],[126.95218355083887,37.55587517689925],[126.95238956953757,37.55580858953011],[126.95243259475514,37.5557788747507],[126.9524824327423,37.55571492516122],[126.95249716527131,37.555684297614995],[126.9525062727858,37.55560231129579],[126.95247697897143,37.5554022793243],[126.95250869790289,37.55535544100586],[126.9523978293064,37.555294127606885],[126.9522054639426,37.55525260188038],[126.95211267828718,37.555229137350416],[126.95201423826043,37.55519936344582],[126.95189656445338,37.55516147246629],[126.9517619251634,37.55510825738848],[126.95155715443536,37.55500275507274],[126.9513727654279,37.55488194422374],[126.95119292022764,37.55473680828458],[126.95118273299136,37.55473950691314],[126.95098323094344,37.554593974844636],[126.95084904124845,37.554494297548196],[126.95084892360859,37.55449421190363],[126.95076307330868,37.55443569355638],[126.95055947004991,37.55428243751501],[126.9504780608403,37.55425739086329],[126.95041577349744,37.55423822688922],[126.95039768220825,37.554214793310166],[126.95039067726839,37.554197761560275],[126.95038683341083,37.5541919935578],[126.9504501931556,37.55404921400868],[126.95048358385444,37.55404120963067],[126.95052395533676,37.55405248044162],[126.95054214841615,37.55395969530063],[126.95055259430396,37.55390942454739],[126.95055716766376,37.553859332357575],[126.95055730331818,37.55385788993052],[126.95049549824112,37.553895389490016],[126.95050807346179,37.553659948115026],[126.95050841308753,37.55365977707357],[126.9505135521057,37.553425647922005],[126.95045325855932,37.55340452967712],[126.95032149163768,37.55336054933652],[126.9503004563751,37.55335630555933],[126.95022966236235,37.553332966208565],[126.95010038399549,37.55329105897969],[126.95005458297054,37.55327673129872],[126.95001286090937,37.553238898537934],[126.94990632857156,37.55314953683685],[126.9498735390569,37.55312321357847],[126.94988043016086,37.55310972966557],[126.94990339935423,37.553064788391204],[126.94993620042274,37.552992218929504],[126.9499656075783,37.552934325111615],[126.95000045787091,37.5528603149402],[126.95003623699225,37.55278497169648],[126.95008664488957,37.552682235690774],[126.9501307626665,37.55259283158495],[126.95014118248307,37.5525707735629],[126.9501763450682,37.55249633730219],[126.95004810039828,37.55246740472451],[126.94994383206338,37.55244432991075],[126.94992748141917,37.55242484335167],[126.94987379280752,37.55241102571697],[126.94982258441334,37.55239456924116],[126.94972429961827,37.55237612794437],[126.94968105131512,37.5523043811048],[126.94968561476996,37.55225131476081],[126.94980194180289,37.55226470042608],[126.94981782752008,37.55220353011912],[126.94991016087972,37.552219968538466],[126.94993207249362,37.55216233183137],[126.9499386175194,37.5521451086505],[126.94991248181475,37.55213644772131],[126.95002455519219,37.552083385951676],[126.9500434467067,37.552074443747216],[126.95010945716889,37.5520431910094],[126.95010866165654,37.55204805601259],[126.95013986328249,37.552046007224924],[126.95019999176465,37.5520420591017],[126.95019300393889,37.55200043029635],[126.95021564503168,37.551989267850935],[126.95018231882702,37.55192103035416],[126.95033568416166,37.5518694881826],[126.95038390450584,37.55195249031445],[126.9504423999685,37.551926879742865],[126.95051899846062,37.55189335365004],[126.95053560364566,37.551888099034876],[126.95060548472962,37.551904094739974],[126.95072802671686,37.551863828178185],[126.95075304236205,37.55185536872179],[126.95081032930037,37.55183599590741],[126.95096011692218,37.55178598307168],[126.95105598755156,37.551876375426225],[126.95108968964409,37.55190855519094],[126.95111548432713,37.55191955829011],[126.95119527158396,37.55191292498829],[126.95136140919954,37.551900471902385],[126.95143996098093,37.55187978245578],[126.95156299473248,37.55184802959772],[126.95158485019854,37.551826685362215],[126.95159884598192,37.551712355559815],[126.95161466518218,37.55157883542158],[126.95176061370874,37.5515313787591],[126.95177809634846,37.55155079346496],[126.95181227837504,37.551542158347225],[126.95186295668047,37.55152157401044],[126.95192454615585,37.55153220455406],[126.95200865160943,37.55149782200071],[126.95202866151382,37.551528914569154],[126.95211140689695,37.55149759474112],[126.95209140978842,37.55146422268528],[126.95210552313291,37.55146195899616],[126.95214034811518,37.55145637751],[126.95216154140311,37.551494912734576],[126.95227718917673,37.55145597514631],[126.9523774895873,37.55141991422915],[126.95233443637193,37.55142713126061],[126.95239335811176,37.55139870249939],[126.95240398472738,37.55141549237755],[126.95243298101653,37.55141080126246],[126.95246326515148,37.55146134140853],[126.95259538371417,37.55141430143271],[126.95267232719182,37.55137702325805],[126.95268330580411,37.551374748292204],[126.95271328621267,37.551370661179035],[126.95260577838268,37.55119730211052],[126.95258345842284,37.55116822690019],[126.95257911754756,37.55116277320591],[126.95250298670273,37.55106709244599],[126.95248266640954,37.55104154992998],[126.95247784838394,37.551035494171884],[126.95254447504813,37.55100731900826],[126.95263503375818,37.55096902117347],[126.95259651429681,37.5508618774112],[126.95269271083713,37.55085287217822],[126.9527009724206,37.550852099840775],[126.95278109578462,37.55084870917181],[126.9529366972117,37.55085039507376],[126.95295616581794,37.55084400604672],[126.9531654483384,37.55078273445045],[126.9532366170753,37.55080177447768],[126.95328386893412,37.550881351280054],[126.95335090168389,37.55099697576594],[126.95341601504805,37.55110602219679],[126.95348508449716,37.5512227286208],[126.95352385797602,37.55128896720901],[126.95356568504857,37.551358270392434],[126.95374139933745,37.551409788189446],[126.95374207885274,37.551408977572706],[126.95383705808314,37.55135765948849],[126.95392596139068,37.55144679432979],[126.9539920318345,37.551458452730664],[126.95398237485469,37.551518031362036],[126.95403068469912,37.55151949238481],[126.95403989554846,37.55146739179339],[126.95493436453485,37.55161010998852],[126.95495523038892,37.55161343927002],[126.95495527565106,37.551613446495764],[126.95495531177694,37.551613587064594],[126.95502283195985,37.55187521091837],[126.95510404097374,37.5521301331289],[126.9551435743639,37.55225151210163],[126.95517057097722,37.55233297225407],[126.95520829640466,37.552450296033655],[126.95524986325863,37.552577982695865],[126.95524258869568,37.5526294264077],[126.95520371242695,37.55272572705848],[126.9551971131056,37.55276489953961],[126.95520998234,37.55285313859212],[126.95522847071337,37.552913467158],[126.95545358664828,37.55309577151471],[126.95556658678426,37.55318627498905],[126.9556577560986,37.553259560959134],[126.95572290929961,37.55331220408923],[126.95580763052749,37.55338179338028],[126.95583316949684,37.553442890417244],[126.95588281959783,37.55345518651194],[126.9558976663156,37.55345886288395],[126.95594770951342,37.553422211895565],[126.95608686906247,37.553377942193144],[126.95610413976762,37.553372447388846],[126.95619493278522,37.55356566363614],[126.95619738427396,37.553570881311714],[126.95629176178949,37.55376796410272],[126.9563392220469,37.553885741716314],[126.95634963787514,37.553916316304964],[126.95636046597454,37.55393697655199],[126.95639765730289,37.5540079383555],[126.95638694877204,37.554021676168325],[126.95636515228236,37.554049641784594],[126.95627358858926,37.55406438297826],[126.9560422638831,37.55407186243558],[126.95588438716928,37.55407855895589],[126.95571066674555,37.55408497882281],[126.95558262950973,37.55415268355841],[126.95557046606605,37.554240975879495],[126.95555840442204,37.55434773853918],[126.9555425944885,37.554476664097706],[126.95552554299536,37.55460009312695],[126.95551954347538,37.55460245138451],[126.95546198851937,37.554706475306375],[126.95544890100298,37.554824770221316],[126.9554358213782,37.554930180975255],[126.95540156860132,37.55505180128228],[126.9553379419031,37.55527432099309],[126.95528145381152,37.55529889591927],[126.9551790504567,37.55527065478435],[126.95508903630146,37.55533882438096]]]},"properties":{"OBJECTID":86292,"PRESENT_SN":"11000UQ181PS201912150665","LCLAS_CL":"UQ1200","MLSFC_CL":"UQ1220","SCLAS_CL":"UQ1221","ATRB_SE":"UQ1221","WTNNC_SN":"11000AGZ201112058077","NTFC_SN":"11000NTC201111176310","DGM_NM":"아현3주택재개발사업구역","SIGNGU_SE":"11000","DRAWING_NO":" ","CREATE_DAT":1576368000000,"DGM_AR":207516.41629842,"DGM_LT":2244.78402296,"SHAPE.AREA":207516.41629837,"SHAPE.LEN":2244.7840229521603}},{"type":"Feature","id":83899,"geometry":{"type":"Polygon","coordinates":[[[126.95508903630146,37.55533882438096],[126.9549891414836,37.55546249100827],[126.95491121770006,37.55556066820193],[126.95484405456001,37.55564371296241],[126.95474868775968,37.55576431780304],[126.95466430588418,37.555873033854326],[126.95459254940573,37.55597086189143],[126.95451733189898,37.55606508454545],[126.95449998761245,37.55621894871919],[126.95444677682701,37.55624947108092],[126.9543527356342,37.55623979296139],[126.9542356080234,37.55622857384168],[126.95412968440206,37.55621771949876],[126.95397668422332,37.556201169878904],[126.9538519757683,37.55618733445504],[126.95374401427564,37.55617783042851],[126.95362993775254,37.556174090159615],[126.95345210003315,37.556169179585346],[126.95324911580666,37.55616330341697],[126.95302966832298,37.55615209528921],[126.95283607995266,37.55614256424924],[126.95269246833072,37.55613410772617],[126.95248446115512,37.55612548915654],[126.95237986999771,37.55611978746021],[126.95229002556373,37.55611376746374],[126.9521732114026,37.55610852900267],[126.95212683825952,37.55606616308258],[126.95214051595579,37.555919307424396],[126.95218355083887,37.55587517689925],[126.95238956953757,37.55580858953011],[126.95243259475514,37.5557788747507],[126.9524824327423,37.55571492516122],[126.95249716527131,37.555684297614995],[126.9525062727858,37.55560231129579],[126.95247697897143,37.5554022793243],[126.95250869790289,37.55535544100586],[126.9523978293064,37.555294127606885],[126.9522054639426,37.55525260188038],[126.95211267828718,37.555229137350416],[126.95201423826043,37.55519936344582],[126.95189656445338,37.55516147246629],[126.9517619251634,37.55510825738848],[126.95155715443536,37.55500275507274],[126.9513727654279,37.55488194422374],[126.95119292022764,37.55473680828458],[126.95118273299136,37.55473950691314],[126.95098323094344,37.554593974844636],[126.95084904124845,37.554494297548196],[126.95084892360859,37.55449421190363],[126.95076307330868,37.55443569355638],[126.95055947004991,37.55428243751501],[126.9504780608403,37.55425739086329],[126.95041577349744,37.55423822688922],[126.95039768220825,37.554214793310166],[126.95039067726839,37.554197761560275],[126.95038683341083,37.5541919935578],[126.9504501931556,37.55404921400868],[126.95048358385444,37.55404120963067],[126.95052395533676,37.55405248044162],[126.95054214841615,37.55395969530063],[126.95055259430396,37.55390942454739],[126.95055716766376,37.553859332357575],[126.95055730331818,37.55385788993052],[126.95049549824112,37.553895389490016],[126.95050807346179,37.553659948115026],[126.95050841308753,37.55365977707357],[126.9505135521057,37.553425647922005],[126.95045325855932,37.55340452967712],[126.95032149163768,37.55336054933652],[126.9503004563751,37.55335630555933],[126.95022966236235,37.553332966208565],[126.95010038399549,37.55329105897969],[126.95005458297054,37.55327673129872],[126.95001286090937,37.553238898537934],[126.94990632857156,37.55314953683685],[126.9498735390569,37.55312321357847],[126.94988043016086,37.55310972966557],[126.94990339935423,37.553064788391204],[126.94993620042274,37.552992218929504],[126.9499656075783,37.552934325111615],[126.95000045787091,37.5528603149402],[126.95003623699225,37.55278497169648],[126.95008664488957,37.552682235690774],[126.9501307626665,37.55259283158495],[126.95014118248307,37.5525707735629],[126.9501763450682,37.55249633730219],[126.95004810039828,37.55246740472451],[126.94994383206338,37.55244432991075],[126.94992748141917,37.55242484335167],[126.94987379280752,37.55241102571697],[126.94982258441334,37.55239456924116],[126.94972429961827,37.55237612794437],[126.94968105131512,37.5523043811048],[126.94968561476996,37.55225131476081],[126.94980194180289,37.55226470042608],[126.94981782752008,37.55220353011912],[126.94991016087972,37.552219968538466],[126.94993207249362,37.55216233183137],[126.9499386175194,37.5521451086505],[126.94991248181475,37.55213644772131],[126.95002455519219,37.552083385951676],[126.9500434467067,37.552074443747216],[126.95010945716889,37.5520431910094],[126.95010866165654,37.55204805601259],[126.95013986328249,37.552046007224924],[126.95019999176465,37.5520420591017],[126.95019300393889,37.55200043029635],[126.95021564503168,37.551989267850935],[126.95018231882702,37.55192103035416],[126.95033568416166,37.5518694881826],[126.95038390450584,37.55195249031445],[126.9504423999685,37.551926879742865],[126.95051899846062,37.55189335365004],[126.95053560364566,37.551888099034876],[126.95060548472962,37.551904094739974],[126.95072802671686,37.551863828178185],[126.95075304236205,37.55185536872179],[126.95081032930037,37.55183599590741],[126.95096011692218,37.55178598307168],[126.95105598755156,37.551876375426225],[126.95108968964409,37.55190855519094],[126.95111548432713,37.55191955829011],[126.95119527158396,37.55191292498829],[126.95136140919954,37.551900471902385],[126.95143996098093,37.55187978245578],[126.95156299473248,37.55184802959772],[126.95158485019854,37.551826685362215],[126.95159884598192,37.551712355559815],[126.95161466518218,37.55157883542158],[126.95176061370874,37.5515313787591],[126.95177809634846,37.55155079346496],[126.95181227837504,37.551542158347225],[126.95186295668047,37.55152157401044],[126.95192454615585,37.55153220455406],[126.95200865160943,37.55149782200071],[126.95202866151382,37.551528914569154],[126.95211140689695,37.55149759474112],[126.95209140978842,37.55146422268528],[126.95210552313291,37.55146195899616],[126.95214034811518,37.55145637751],[126.95216154140311,37.551494912734576],[126.95227718917673,37.55145597514631],[126.9523774895873,37.55141991422915],[126.95233443637193,37.55142713126061],[126.95239335811176,37.55139870249939],[126.95240398472738,37.55141549237755],[126.95243298101653,37.55141080126246],[126.95246326515148,37.55146134140853],[126.95259538371417,37.55141430143271],[126.95267232719182,37.55137702325805],[126.95268330580411,37.551374748292204],[126.95271328621267,37.551370661179035],[126.95260577838268,37.55119730211052],[126.95258345842284,37.55116822690019],[126.95257911754756,37.55116277320591],[126.95250298670273,37.55106709244599],[126.95248266640954,37.55104154992998],[126.95247784838394,37.551035494171884],[126.95254447504813,37.55100731900826],[126.95263503375818,37.55096902117347],[126.95259651429681,37.5508618774112],[126.95269271083713,37.55085287217822],[126.9527009724206,37.550852099840775],[126.95278109578462,37.55084870917181],[126.9529366972117,37.55085039507376],[126.95295616581794,37.55084400604672],[126.9531654483384,37.55078273445045],[126.9532366170753,37.55080177447768],[126.95328386893412,37.550881351280054],[126.95335090168389,37.55099697576594],[126.95341601504805,37.55110602219679],[126.95348508449716,37.5512227286208],[126.95352385797602,37.55128896720901],[126.95356568504857,37.551358270392434],[126.95374139933745,37.551409788189446],[126.95374207885274,37.551408977572706],[126.95383705808314,37.55135765948849],[126.95392596139068,37.55144679432979],[126.9539920318345,37.551458452730664],[126.95398237485469,37.551518031362036],[126.95403068469912,37.55151949238481],[126.95403989554846,37.55146739179339],[126.95493436453485,37.55161010998852],[126.95495523038892,37.55161343927002],[126.95495527565106,37.551613446495764],[126.95495531177694,37.551613587064594],[126.95502283195985,37.55187521091837],[126.95510404097374,37.5521301331289],[126.9551435743639,37.55225151210163],[126.95517057097722,37.55233297225407],[126.95520829640466,37.552450296033655],[126.95524986325863,37.552577982695865],[126.95524258869568,37.5526294264077],[126.95520371242695,37.55272572705848],[126.9551971131056,37.55276489953961],[126.95520998234,37.55285313859212],[126.95522847071337,37.552913467158],[126.95545358664828,37.55309577151471],[126.95556658678426,37.55318627498905],[126.9556577560986,37.553259560959134],[126.95572290929961,37.55331220408923],[126.95580763052749,37.55338179338028],[126.95583316949684,37.553442890417244],[126.95588281959783,37.55345518651194],[126.9558976663156,37.55345886288395],[126.95594770951342,37.553422211895565],[126.95608686906247,37.553377942193144],[126.95610413976762,37.553372447388846],[126.95619493278522,37.55356566363614],[126.95619738427396,37.553570881311714],[126.95629176178949,37.55376796410272],[126.9563392220469,37.553885741716314],[126.95634963787514,37.553916316304964],[126.95636046597454,37.55393697655199],[126.95639765730289,37.5540079383555],[126.95638694877204,37.554021676168325],[126.95636515228236,37.554049641784594],[126.95627358858926,37.55406438297826],[126.9560422638831,37.55407186243558],[126.95588438716928,37.55407855895589],[126.95571066674555,37.55408497882281],[126.95558262950973,37.55415268355841],[126.95557046606605,37.554240975879495],[126.95555840442204,37.55434773853918],[126.9555425944885,37.554476664097706],[126.95552554299536,37.55460009312695],[126.95551954347538,37.55460245138451],[126.95546198851937,37.554706475306375],[126.95544890100298,37.554824770221316],[126.9554358213782,37.554930180975255],[126.95540156860132,37.55505180128228],[126.9553379419031,37.55527432099309],[126.95528145381152,37.55529889591927],[126.9551790504567,37.55527065478435],[126.95508903630146,37.55533882438096]]]},"properties":{"OBJECTID":83899,"PRESENT_SN":"11000UQ181PS201912150665","LCLAS_CL":"UQ1200","MLSFC_CL":"UQ1220","SCLAS_CL":"UQ1221","ATRB_SE":"UQ1221","WTNNC_SN":"11000AGZ201112058077","NTFC_SN":"11000NTC201111176310","DGM_NM":"아현3주택재개발사업구역","SIGNGU_SE":"11000","DRAWING_NO":" ","CREATE_DAT":1576368000000,"DGM_AR":207516.41629842,"DGM_LT":2244.78402296,"SHAPE.AREA":207516.41629837,"SHAPE.LEN":2244.7840229521603}}]}