{"type":"FeatureCollection","features":[{"type":"Feature","id":84706,"geometry":{"type":"Polygon","coordinates":[[[127.06078818373311,37.56846463438923],[127.06067340654913,37.5684641513589],[127.06067113479948,37.56845415152891],[127.06052928121929,37.568452573705514],[127.06041714384399,37.56845515516921],[127.0603721960783,37.56845619299688],[127.06017354599862,37.56845881461928],[127.06014426512772,37.56836017096141],[127.06006742474483,37.56838183280669],[127.06006596347453,37.568394897859335],[127.05999374371238,37.56840520581566],[127.0599042733056,37.568418211709314],[127.05985941133018,37.56842473361412],[127.0598405107349,37.56842210395781],[127.0597593500384,37.56841081499643],[127.05974066000898,37.568408213150896],[127.05963646585772,37.56837647221857],[127.05962697925663,37.56837358201302],[127.05948223948161,37.56833113552966],[127.05935298817342,37.56829049226877],[127.0593325526306,37.56828478100243],[127.0592669050531,37.568263168691416],[127.0591883662278,37.56823731448203],[127.0590463083442,37.56819028012329],[127.05891657476185,37.56814743460336],[127.05891597922268,37.56814723757648],[127.05883931873028,37.56812169846801],[127.05877568282324,37.568137019115184],[127.05871911586846,37.56818955702611],[127.05862216023164,37.56828425186502],[127.05859316278854,37.568315462601205],[127.05859205102557,37.568316659650904],[127.0585382858923,37.56828532042897],[127.05853314285358,37.56828287312583],[127.0583319418248,37.568187130201046],[127.05831138746413,37.5681738685341],[127.0583073842439,37.568171372920446],[127.05818140470082,37.56809286097122],[127.05807460577623,37.56801443610592],[127.05803866545371,37.56798776244183],[127.05794906669729,37.56790693890454],[127.05793955782092,37.56789836153614],[127.05793948418139,37.56789827507645],[127.05786028946252,37.56780449118839],[127.05783600912591,37.56777330154974],[127.05770310083285,37.56769882431169],[127.05762865947912,37.56764424360623],[127.05765145268654,37.56763212439058],[127.05771700362254,37.56759726820896],[127.05803735503642,37.567415908528254],[127.05820795091566,37.5673198444571],[127.05834122015231,37.56724386311813],[127.05848554407319,37.56722244915759],[127.05859727195002,37.56720472681569],[127.05883605040671,37.56716525596901],[127.05893378488125,37.56712896172149],[127.05901767354142,37.56708931345008],[127.05903507297639,37.567077357869834],[127.05911972981788,37.567050593284776],[127.05926680788423,37.567005327863335],[127.05942677087182,37.56696535375106],[127.05949195575434,37.56696387117092],[127.0595535311658,37.56696404814766],[127.05968314815479,37.56698285106104],[127.05971244907917,37.56698943546144],[127.05972795654111,37.566992920948884],[127.05974173775915,37.56699482424905],[127.05973624977864,37.567090132601614],[127.0598182346427,37.56712087891903],[127.05994615303483,37.56716727965433],[127.0599732950021,37.567165960687525],[127.05999115298114,37.56719053981621],[127.06006386220282,37.567185233003194],[127.060123692251,37.56719677201071],[127.06012538521387,37.567204978272976],[127.0602109541192,37.567215720597254],[127.06021199097991,37.5672114412883],[127.06021517376749,37.56719830329632],[127.06026318444782,37.56720397546654],[127.06032687980196,37.56721671797016],[127.06044770942106,37.56725287745467],[127.06052609571816,37.56727553960651],[127.06052809929342,37.567272805006624],[127.06072055969418,37.56733942504113],[127.06072868446401,37.56734223745631],[127.06073799789449,37.5673252347401],[127.06088210211941,37.567384232968124],[127.06088782204444,37.567367634788724],[127.0609059221801,37.56737600127301],[127.06097496603276,37.56738730996674],[127.06102090713902,37.56736942022503],[127.06103161293402,37.56732419422659],[127.0610589813045,37.5672062392567],[127.06105915050817,37.56720550846984],[127.06121604958818,37.56723588985568],[127.06121579658138,37.56723656572484],[127.06115249739729,37.56740578980081],[127.06106752655765,37.567448629630974],[127.06085476016226,37.56755590029591],[127.06091407016548,37.56763043626231],[127.06083833537171,37.5676176803043],[127.0608433233284,37.567769944811154],[127.06082580261626,37.56837118302924],[127.06079580475682,37.568368675327186],[127.06078818373311,37.56846463438923]]]},"properties":{"OBJECTID":84706,"PRESENT_SN":"11000UQ181PS201912150743","LCLAS_CL":"UQ1200","MLSFC_CL":"UQ1220","SCLAS_CL":"UQ1221","ATRB_SE":"UQ1221","WTNNC_SN":"11000AGZ201101277915","NTFC_SN":"11000NTC201101135832","DGM_NM":"답십리제14구역 주택재개발정비사업","SIGNGU_SE":"11000","DRAWING_NO":" ","CREATE_DAT":1576368000000,"DGM_AR":32857.90458013,"DGM_LT":878.4952285,"SHAPE.AREA":32857.904580135,"SHAPE.LEN":878.4952285012291}},{"type":"Feature","id":85965,"geometry":{"type":"Polygon","coordinates":[[[127.06078818373311,37.56846463438923],[127.06067340654913,37.5684641513589],[127.06067113479948,37.56845415152891],[127.06052928121929,37.568452573705514],[127.06041714384399,37.56845515516921],[127.0603721960783,37.56845619299688],[127.06017354599862,37.56845881461928],[127.06014426512772,37.56836017096141],[127.06006742474483,37.56838183280669],[127.06006596347453,37.568394897859335],[127.05999374371238,37.56840520581566],[127.0599042733056,37.568418211709314],[127.05985941133018,37.56842473361412],[127.0598405107349,37.56842210395781],[127.0597593500384,37.56841081499643],[127.05974066000898,37.568408213150896],[127.05963646585772,37.56837647221857],[127.05962697925663,37.56837358201302],[127.05948223948161,37.56833113552966],[127.05935298817342,37.56829049226877],[127.0593325526306,37.56828478100243],[127.0592669050531,37.568263168691416],[127.0591883662278,37.56823731448203],[127.0590463083442,37.56819028012329],[127.05891657476185,37.56814743460336],[127.05891597922268,37.56814723757648],[127.05883931873028,37.56812169846801],[127.05877568282324,37.568137019115184],[127.05871911586846,37.56818955702611],[127.05862216023164,37.56828425186502],[127.05859316278854,37.568315462601205],[127.05859205102557,37.568316659650904],[127.0585382858923,37.56828532042897],[127.05853314285358,37.56828287312583],[127.0583319418248,37.568187130201046],[127.05831138746413,37.5681738685341],[127.0583073842439,37.568171372920446],[127.05818140470082,37.56809286097122],[127.05807460577623,37.56801443610592],[127.05803866545371,37.56798776244183],[127.05794906669729,37.56790693890454],[127.05793955782092,37.56789836153614],[127.05793948418139,37.56789827507645],[127.05786028946252,37.56780449118839],[127.05783600912591,37.56777330154974],[127.05770310083285,37.56769882431169],[127.05762865947912,37.56764424360623],[127.05765145268654,37.56763212439058],[127.05771700362254,37.56759726820896],[127.05803735503642,37.567415908528254],[127.05820795091566,37.5673198444571],[127.05834122015231,37.56724386311813],[127.05848554407319,37.56722244915759],[127.05859727195002,37.56720472681569],[127.05883605040671,37.56716525596901],[127.05893378488125,37.56712896172149],[127.05901767354142,37.56708931345008],[127.05903507297639,37.567077357869834],[127.05911972981788,37.567050593284776],[127.05926680788423,37.567005327863335],[127.05942677087182,37.56696535375106],[127.05949195575434,37.56696387117092],[127.0595535311658,37.56696404814766],[127.05968314815479,37.56698285106104],[127.05971244907917,37.56698943546144],[127.05972795654111,37.566992920948884],[127.05974173775915,37.56699482424905],[127.05973624977864,37.567090132601614],[127.0598182346427,37.56712087891903],[127.05994615303483,37.56716727965433],[127.0599732950021,37.567165960687525],[127.05999115298114,37.56719053981621],[127.06006386220282,37.567185233003194],[127.060123692251,37.56719677201071],[127.06012538521387,37.567204978272976],[127.0602109541192,37.567215720597254],[127.06021199097991,37.5672114412883],[127.06021517376749,37.56719830329632],[127.06026318444782,37.56720397546654],[127.06032687980196,37.56721671797016],[127.06044770942106,37.56725287745467],[127.06052609571816,37.56727553960651],[127.06052809929342,37.567272805006624],[127.06072055969418,37.56733942504113],[127.06072868446401,37.56734223745631],[127.06073799789449,37.5673252347401],[127.06088210211941,37.567384232968124],[127.06088782204444,37.567367634788724],[127.0609059221801,37.56737600127301],[127.06097496603276,37.56738730996674],[127.06102090713902,37.56736942022503],[127.06103161293402,37.56732419422659],[127.0610589813045,37.5672062392567],[127.06105915050817,37.56720550846984],[127.06121604958818,37.56723588985568],[127.06121579658138,37.56723656572484],[127.06115249739729,37.56740578980081],[127.06106752655765,37.567448629630974],[127.06085476016226,37.56755590029591],[127.06091407016548,37.56763043626231],[127.06083833537171,37.5676176803043],[127.0608433233284,37.567769944811154],[127.06082580261626,37.56837118302924],[127.06079580475682,37.568368675327186],[127.06078818373311,37.56846463438923]]]},"properties":{"OBJECTID":85965,"PRESENT_SN":"11000UQ181PS201912150743","LCLAS_CL":"UQ1200","MLSFC_CL":"UQ1220","SCLAS_CL":"UQ1221","ATRB_SE":"UQ1221","WTNNC_SN":"11000AGZ201101277915","NTFC_SN":"11000NTC201101135832","DGM_NM":"답십리제14구역 주택재개발정비사업","SIGNGU_SE":"11000","DRAWING_NO":" ","CREATE_DAT":1576368000000,"DGM_AR":32857.90458013,"DGM_LT":878.4952285,"SHAPE.AREA":32857.904580135,"SHAPE.LEN":878.4952285012291}}]}