{"type":"FeatureCollection","features":[{"type":"Feature","id":4411264,"geometry":{"type":"Polygon","coordinates":[[[127.09450455379806,37.578322993025836],[127.09426864297754,37.578447234523416],[127.09426769219998,37.57844827861266],[127.09425580581163,37.57846135495645],[127.09416004318824,37.57851566952452],[127.09415226584612,37.578506530615314],[127.09413751398586,37.57851490334342],[127.09400584925083,37.57859352753044],[127.09398684958556,37.57860903937959],[127.09396814308191,37.57862360496039],[127.09390757312914,37.578684541037255],[127.09386216569482,37.57873047281],[127.09383883927075,37.57875340313718],[127.09376309008985,37.57882525294294],[127.09369985710318,37.57888430793063],[127.09369187275419,37.578890900374994],[127.09367424226281,37.578906005660286],[127.09360951965668,37.578959818021104],[127.09359107466793,37.578975437491394],[127.0935677678977,37.578996070233664],[127.09354815637259,37.57901130318259],[127.0934987142133,37.57905390430894],[127.0934675800551,37.579079958057285],[127.09337239908606,37.579157309748474],[127.0933039356608,37.57920744882606],[127.093251856076,37.579250538430884],[127.09322025830286,37.57927716910466],[127.09320179019247,37.57929252724527],[127.09308952709364,37.57938966861977],[127.09304135250883,37.57942314157791],[127.09302368388389,37.579435048293085],[127.09299033642164,37.579456679786986],[127.09295300762008,37.57948127859983],[127.09294968175325,37.57948329938491],[127.09282520067588,37.57955088860813],[127.0928076436111,37.579561497784255],[127.09273730198343,37.57949248255009],[127.0926550367247,37.57943038704332],[127.09262210570814,37.57940365316844],[127.09253669762822,37.57947520329835],[127.09253269798519,37.57947243134422],[127.09251467940602,37.579485230229395],[127.09247048312544,37.579513501196935],[127.0924270096058,37.57954033902312],[127.09240788021604,37.57957067193977],[127.09236119289005,37.579524099855455],[127.09229774152033,37.57946062012208],[127.09229672139573,37.57945959378216],[127.09228920649838,37.5794520492955],[127.09220603411977,37.57936974505024],[127.09225584298616,37.5793580119756],[127.09227820823156,37.57927946481803],[127.09230323754213,37.57919465375166],[127.0923436128005,37.5790497801345],[127.0923540348332,37.57902749072379],[127.09235626744183,37.57902015497712],[127.0923642182583,37.579004489716475],[127.09237037963105,37.578988204151806],[127.09237683619554,37.578972621128905],[127.09238297422068,37.578955758950194],[127.09239133882423,37.57893592180226],[127.09239426101968,37.5789277836461],[127.0921741853241,37.57889085924035],[127.092027708139,37.57898644014441],[127.091955516144,37.579033869331475],[127.0919009473669,37.57906928384522],[127.09182865663067,37.578997593625935],[127.09179602547408,37.5789656515879],[127.09179408884704,37.57896501336852],[127.09170678222321,37.57888001797624],[127.09168427370915,37.578858925058796],[127.09166780636828,37.57884379205378],[127.09156727517647,37.57874757135392],[127.09154687491817,37.57872856709008],[127.09153556198072,37.57871625923269],[127.09152620084659,37.57870779709805],[127.09149714121668,37.57868020401697],[127.0914467732823,37.5786315620998],[127.09140186598013,37.57858622262348],[127.0913472056687,37.57853596215541],[127.0913386592051,37.57852711196156],[127.09133435197404,37.57852265535574],[127.09132753953136,37.578515425617404],[127.09123809381147,37.57842054767744],[127.09118535091427,37.57836416797772],[127.09113503948574,37.578305651070245],[127.0912652520018,37.578184558681514],[127.09128416078973,37.578130683333704],[127.09130664337074,37.578139883328404],[127.09139107659209,37.57802045639194],[127.09156340164884,37.57785292178684],[127.09165899510472,37.57777010223357],[127.09171546630024,37.577698295524236],[127.0917367967212,37.57767213259592],[127.09184787754461,37.57765592900705],[127.09194539731419,37.57762188715794],[127.09196621841758,37.577614618266196],[127.09210388802944,37.57767058110556],[127.09212668939409,37.5776813033675],[127.09224429716306,37.57773565065241],[127.09231125299328,37.577768341029106],[127.09240648262724,37.57776883537496],[127.09243751205045,37.577787137548405],[127.0926016773841,37.57760537211873],[127.09268260463281,37.57751878791448],[127.09274192805145,37.57748460370861],[127.09279464107406,37.577460407515076],[127.09285669962583,37.57743193339148],[127.09298686726135,37.5773702231492],[127.09305390298682,37.57733870874046],[127.09326666718128,37.57724188574001],[127.09339969820476,37.577180145785995],[127.0935280316691,37.577275370220725],[127.09349293761119,37.57732108659691],[127.09344250458864,37.577385573447614],[127.09341704027145,37.577418857697026],[127.09338467997605,37.57745994985082],[127.09336399017069,37.57748825422418],[127.09336393019716,37.577488274993534],[127.0933603253994,37.57749353955949],[127.09333811342142,37.57752222172472],[127.09342438005906,37.57756954198696],[127.09344123878188,37.57755304981731],[127.09346556947189,37.577527668098504],[127.09348130871419,37.57751221292948],[127.09351105668586,37.577528578698576],[127.09364033846308,37.577547560784055],[127.0936387398653,37.57755480596342],[127.09363639051327,37.57755913253206],[127.09362471637509,37.5776029656266],[127.09362468242445,37.57760297466296],[127.09362037800851,37.57762017334944],[127.09362042440627,37.57762015979843],[127.09371740810735,37.577592748165046],[127.09382201518098,37.577614992870465],[127.09360312422484,37.57771940795145],[127.09375932059199,37.577788445740424],[127.09386269755461,37.57783190059261],[127.09378509286022,37.57792219506836],[127.09391871487877,37.577971644818426],[127.09407239164473,37.578025691746745],[127.09405680948609,37.57804914763003],[127.09406232639965,37.578052179629914],[127.09406059728393,37.57805455958967],[127.09415739954181,37.57809967715022],[127.09441291579019,37.57816142819952],[127.09455908985188,37.57810802875039],[127.09472911550442,37.578044879636565],[127.09482164166738,37.5780105240115],[127.09486611730482,37.57803515786268],[127.09481532399556,37.57810973662491],[127.09480413634867,37.57812562084715],[127.0947904377166,37.57813420005199],[127.0947407911399,37.57816617022556],[127.09464652273562,37.57822889922413],[127.09450455379806,37.578322993025836]]]},"properties":{"OBJECTID":4411264,"PRESENT_SN":"11260UQ181PS202603170001","LCLAS_CL":"UQ1200","MLSFC_CL":"UQ1220","SCLAS_CL":"UQ1221","ATRB_SE":"UQ1221","WTNNC_SN":"11260AGZ202601140001","NTFC_SN":"11260NTC202601140004","DGM_NM":"면목9구역 주택정비형 공공재개발사업","SIGNGU_SE":"11260","DRAWING_NO":null,"CREATE_DAT":1773740372000,"DGM_AR":41000.5764242,"DGM_LT":1091.83067125,"SHAPE.AREA":41000.575311245,"SHAPE.LEN":1091.83074122942}}]}