{"type":"FeatureCollection","features":[{"type":"Feature","id":86287,"geometry":{"type":"Polygon","coordinates":[[[126.8336119949505,37.522095592731006],[126.833429876889,37.52229364254964],[126.83333654941885,37.522344776275574],[126.83318681743634,37.52242682375948],[126.83311421325823,37.52246807590306],[126.83296040331898,37.52255236976912],[126.83280670615649,37.52263666359442],[126.83274883244263,37.52266685432199],[126.83247213148688,37.522818456357875],[126.83221842185453,37.522957476778714],[126.83210923576425,37.52301732643892],[126.83207015985859,37.52303871404821],[126.83188263520685,37.52327360434566],[126.83178297660383,37.523408947262304],[126.83175188209188,37.52341550325725],[126.83172811471661,37.523420514661105],[126.83165194890834,37.52338535647883],[126.83157668713743,37.52335065004505],[126.83153442291972,37.523331217855834],[126.83150696275784,37.52331847431711],[126.83141701042904,37.523276989179614],[126.83129948478073,37.5232228503227],[126.83118207242569,37.52316871151187],[126.83106454732255,37.5231144823219],[126.83093843386249,37.52305636633716],[126.83081051288998,37.52299725651154],[126.83067445683578,37.52293443890262],[126.83055896548667,37.52288111494594],[126.83043805131099,37.522825258436065],[126.83037160496744,37.52279461847402],[126.83031713711006,37.52276949190144],[126.83041767661895,37.5226325963688],[126.83015358767699,37.522510669403644],[126.83005304785094,37.522647564713544],[126.82993066528532,37.52259107485527],[126.82980839602676,37.52253458503456],[126.82968601383075,37.52247809492261],[126.8296044258717,37.52244040474446],[126.82956374494165,37.52242160484848],[126.82943921607462,37.52236412026134],[126.8294300420901,37.52231968788065],[126.82948513329508,37.522270123349905],[126.82949488203992,37.52226130780471],[126.82970525062402,37.522228817804304],[126.82988042559506,37.52220177235854],[126.82989254691823,37.52214484713477],[126.82967142837369,37.522178943619714],[126.82983977858767,37.521970698356604],[126.83001308488689,37.521820754373586],[126.83018609132277,37.52170270489618],[126.83025666169604,37.52171028549202],[126.83026105370938,37.521619922128046],[126.83026152802007,37.5216103722757],[126.83026758154494,37.521485953732046],[126.83027352172255,37.52136162512053],[126.83027458839919,37.52134036319946],[126.83027981153509,37.521232792040905],[126.83028503609663,37.5211245901861],[126.83028764826855,37.52107053430741],[126.83028835972385,37.52105620952734],[126.83029345508163,37.52095503523828],[126.83030068868867,37.520809174721215],[126.83050180195411,37.52081532253605],[126.83163180362708,37.52019616795852],[126.8316523657523,37.52010762976261],[126.83143901849672,37.519860630433605],[126.83105275635654,37.518849517969265],[126.83118140929196,37.518832404464554],[126.83158139848967,37.51877919120587],[126.83192470833892,37.519678877359205],[126.832172354845,37.51996565886193],[126.83228777355319,37.520099261581656],[126.83286212513431,37.5207820458441],[126.83295960704058,37.52079425832032],[126.83316870725845,37.520820324970416],[126.83323576857995,37.52082870968063],[126.83326121341734,37.520831899409714],[126.83326359196435,37.52083055130612],[126.8333834231518,37.52076359784881],[126.83350246127918,37.52069709363814],[126.83346843539478,37.52063631820238],[126.83340894628375,37.520530186493424],[126.83335362616496,37.52043144884363],[126.83325943534334,37.52026354951744],[126.83336979570431,37.52023271245854],[126.83352668294083,37.520188769836814],[126.83356351034774,37.5202587565076],[126.83376795594648,37.52019066154371],[126.83382477278818,37.520277868398],[126.83382984579534,37.52028562415354],[126.83388215374413,37.52036579682007],[126.83394145100813,37.5204567913133],[126.8339610664393,37.520486912358855],[126.83408923441742,37.52053592800692],[126.83411285620198,37.52054497143315],[126.83423616447358,37.52059208794536],[126.83447023567095,37.52068161766987],[126.83431414039043,37.52093061189456],[126.8342842815033,37.52097913322694],[126.83419129149125,37.52113343198714],[126.83409818777368,37.52128782060796],[126.83405901608438,37.521352726778495],[126.83399418320681,37.52146048387762],[126.8338739410014,37.52166033403556],[126.83378730747306,37.5218041899451],[126.83373655310164,37.521888631131404],[126.83371906746282,37.52191761831017],[126.8336119949505,37.522095592731006]]]},"properties":{"OBJECTID":86287,"PRESENT_SN":"11470UQ181PS202406260001","LCLAS_CL":"UQ1200","MLSFC_CL":"UQ1220","SCLAS_CL":"UQ1221","ATRB_SE":"UQ1221","WTNNC_SN":"11470AGZ202403070002","NTFC_SN":"11470NTC202406040001","DGM_NM":"신월7동 2구역 주택정비형 공공재개발구역","SIGNGU_SE":"11470","DRAWING_NO":" ","CREATE_DAT":1719360000000,"DGM_AR":98353.52596654,"DGM_LT":1774.8617609,"SHAPE.AREA":98353.52623,"SHAPE.LEN":1774.86178983394}}]}