{"type":"FeatureCollection","features":[{"type":"Feature","id":86248,"geometry":{"type":"Polygon","coordinates":[[[127.13375311206738,37.49525102158175],[127.1339061574113,37.49546934241178],[127.1342361554172,37.49573927181751],[127.13269218271395,37.496932657104004],[127.13255647886454,37.496930915601745],[127.13160872567022,37.49615079711912],[127.13151948522975,37.49607512135274],[127.1314330684394,37.49599737011561],[127.13134958853584,37.49591763338931],[127.1312691585985,37.4958359110558],[127.13119574397186,37.49575652356325],[127.13120772375765,37.495621720984886],[127.13271895981966,37.49439793742529],[127.13375311206738,37.49525102158175]]]},"properties":{"OBJECTID":86248,"PRESENT_SN":"11000UQ181PS201912151371","LCLAS_CL":"UQ1200","MLSFC_CL":"UQ1240","SCLAS_CL":" ","ATRB_SE":"UQ1240","WTNNC_SN":"11000AGZ201807120617","NTFC_SN":"11000NTC201711230160","DGM_NM":"가락극동아파트 주택재건축 정비사업","SIGNGU_SE":"11000","DRAWING_NO":" ","CREATE_DAT":1576368000000,"DGM_AR":40111.52419999,"DGM_LT":786.53683117,"SHAPE.AREA":40111.5242,"SHAPE.LEN":786.536831168078}},{"type":"Feature","id":84952,"geometry":{"type":"Polygon","coordinates":[[[127.13375311206738,37.49525102158175],[127.1339061574113,37.49546934241178],[127.1342361554172,37.49573927181751],[127.13269218271395,37.496932657104004],[127.13255647886454,37.496930915601745],[127.13160872567022,37.49615079711912],[127.13151948522975,37.49607512135274],[127.1314330684394,37.49599737011561],[127.13134958853584,37.49591763338931],[127.1312691585985,37.4958359110558],[127.13119574397186,37.49575652356325],[127.13120772375765,37.495621720984886],[127.13271895981966,37.49439793742529],[127.13375311206738,37.49525102158175]]]},"properties":{"OBJECTID":84952,"PRESENT_SN":"11000UQ181PS201912151371","LCLAS_CL":"UQ1200","MLSFC_CL":"UQ1240","SCLAS_CL":" ","ATRB_SE":"UQ1240","WTNNC_SN":"11000AGZ201807120617","NTFC_SN":"11000NTC201711230160","DGM_NM":"가락극동아파트 주택재건축 정비사업","SIGNGU_SE":"11000","DRAWING_NO":" ","CREATE_DAT":1576368000000,"DGM_AR":40111.52419999,"DGM_LT":786.53683117,"SHAPE.AREA":40111.5242,"SHAPE.LEN":786.536831168078}}]}