{"type":"FeatureCollection","features":[{"type":"Feature","id":84146,"geometry":{"type":"Polygon","coordinates":[[[127.04212434487201,37.489806207550984],[127.04215334749348,37.48982581235539],[127.0422159625437,37.489879166059026],[127.04222045534719,37.48988614726336],[127.04226133190149,37.48994952755234],[127.04226897061963,37.48996103970113],[127.04238205792157,37.490131559986665],[127.04246600443422,37.490277492956785],[127.04276120838092,37.490506541651335],[127.04281004399972,37.49070976319812],[127.04289315471037,37.490875238834626],[127.04292685203411,37.49104090292723],[127.04264079856986,37.49119285739316],[127.04255507956125,37.49119919419879],[127.0424342756966,37.49135516316676],[127.04229588905656,37.49153382525761],[127.04218058954164,37.4916455259279],[127.04208382266734,37.49171500827256],[127.0419557554263,37.491783257874644],[127.04195214938068,37.49178527734879],[127.04182347334968,37.49185736527496],[127.04176811388017,37.4919678467428],[127.0417254062889,37.49199162065359],[127.04133036705697,37.49187370542101],[127.0414227764274,37.491646099669474],[127.04152493838785,37.491408579534436],[127.04152720840337,37.49140331692553],[127.04157317118562,37.4912927486461],[127.04166877029138,37.4909641214678],[127.04173745802349,37.490637755858586],[127.04176443798819,37.4903433899137],[127.04176713649836,37.490146340247875],[127.04176715804955,37.49014435804004],[127.04175647931018,37.4898407245927],[127.04175628238698,37.48976872572734],[127.04185444788988,37.48975996156055],[127.04204025692819,37.48975209531466],[127.04206800446488,37.489750914494074],[127.04212434487201,37.489806207550984]]]},"properties":{"OBJECTID":84146,"PRESENT_SN":"11000UQ181PS201912150339","LCLAS_CL":"UQ1200","MLSFC_CL":"UQ1240","SCLAS_CL":" ","ATRB_SE":"UQ1240","WTNNC_SN":"11000AGZ201211150060","NTFC_SN":"11000NTC201206216520","DGM_NM":"도곡삼익아파트 주택재건축 정비사업","SIGNGU_SE":"11000","DRAWING_NO":" ","CREATE_DAT":1576368000000,"DGM_AR":17871.10426806,"DGM_LT":625.24661004,"SHAPE.AREA":17871.104268,"SHAPE.LEN":625.2466100351751}}]}