{"type":"FeatureCollection","features":[{"type":"Feature","id":84018,"geometry":{"type":"Polygon","coordinates":[[[126.93975471755452,37.507162012482496],[126.93975822966758,37.50719588281485],[126.93977608565551,37.50728123463124],[126.93979301784887,37.507362234143194],[126.93981010221145,37.507450775079896],[126.93980012631302,37.50745136452688],[126.93963863619214,37.50744499108615],[126.93962507980469,37.50744664181983],[126.93961152341662,37.50744829255198],[126.93951901970306,37.50746111028468],[126.93951905933251,37.507467894816344],[126.93950184293953,37.507479218525724],[126.93950333675376,37.50750821791303],[126.93950757998317,37.50759060464398],[126.93933645288219,37.507598560600506],[126.93923929885928,37.50759976180896],[126.93921816022635,37.507600020962364],[126.93923425368169,37.50770977093526],[126.93923807064068,37.507730405788514],[126.93923550795058,37.5077928345482],[126.93925139690934,37.50786291349209],[126.93924638171222,37.50789597745296],[126.93922552411435,37.5079662622727],[126.93921995184544,37.508002767748096],[126.9392169314788,37.50807151225465],[126.93921252924746,37.50808825947395],[126.93919667245159,37.50811553330988],[126.93919781851599,37.50812463398781],[126.93898811319717,37.50812368975184],[126.93898717067661,37.50810517285626],[126.93900949627674,37.508082735421276],[126.93889484318099,37.5077691726586],[126.9388372896449,37.507646229869486],[126.93879664736268,37.50755666807411],[126.93875978033822,37.507476702089924],[126.9387166299347,37.507384143115495],[126.93868644577587,37.50732350705456],[126.93864768950716,37.50723360112415],[126.93860462762804,37.50712483410801],[126.93853008320896,37.50693571464961],[126.93852394823274,37.506918785238646],[126.93853166009339,37.506919223631435],[126.93852098173613,37.50691059809414],[126.93839602495802,37.50656578359574],[126.93831177224946,37.506528120096505],[126.93848516479075,37.50650249646576],[126.93854565565256,37.506482139150044],[126.93856477528317,37.506475004429156],[126.93871413413869,37.50641975366274],[126.93886567700588,37.50633571699097],[126.93916168403875,37.50616493633099],[126.93935682687902,37.506051486436505],[126.93941028003364,37.50602040310052],[126.9394342627024,37.506026884869804],[126.93950844149423,37.506043024657835],[126.93951807966457,37.506081349147614],[126.93955702171995,37.50624259409995],[126.93958460898992,37.50634892628742],[126.93962823556355,37.50652149920473],[126.93964664891345,37.50658892149024],[126.93965158827805,37.50663373068729],[126.9396733628926,37.50676706270004],[126.93967564761554,37.5067669107265],[126.93969365320794,37.50684890191894],[126.93969477335288,37.506863425684735],[126.93970042112228,37.506898199036655],[126.93972549976384,37.50701615273493],[126.93975471755452,37.507162012482496]]]},"properties":{"OBJECTID":84018,"PRESENT_SN":"11590UQ181PS202504220001","LCLAS_CL":"UQ1200","MLSFC_CL":"UQ1220","SCLAS_CL":"UQ1221","ATRB_SE":"UQ1221","WTNNC_SN":"11000AGZ202504030002","NTFC_SN":"11590NTC202504030001","DGM_NM":"노량진2재정비촉진구역","SIGNGU_SE":"11590","DRAWING_NO":" ","CREATE_DAT":1745280000000,"DGM_AR":16204.18180594,"DGM_LT":617.59005525,"SHAPE.AREA":16204.18151769,"SHAPE.LEN":617.5899456415731}}]}