{"type":"FeatureCollection","features":[{"type":"Feature","id":86853,"geometry":{"type":"Polygon","coordinates":[[[127.06968601014232,37.580038111612474],[127.06969520807891,37.58009360705725],[127.06967831804593,37.58031809754189],[127.06968630425317,37.58037314319116],[127.06974652703498,37.58070264411495],[127.06978951277364,37.580937857747244],[127.06985143184137,37.58127668281076],[127.06986488940797,37.581359790988884],[127.0698986062649,37.58156052017388],[127.06991600696682,37.581671935039964],[127.06994342104606,37.58183869166987],[127.06996114459619,37.5819439886418],[127.06995964522928,37.58195093611323],[127.06994715157903,37.58196878287875],[127.06994347878593,37.5819760109154],[127.06981816810796,37.58200550968354],[127.06966471407728,37.58203655624395],[127.06931662623488,37.582106808326344],[127.06886644957027,37.582197615097705],[127.06860680303684,37.58225615583919],[127.06857546267742,37.58176049619287],[127.06855497958465,37.58136570473686],[127.06854781413331,37.5812277317914],[127.06856061841424,37.581088918595974],[127.06853668569659,37.580583830317394],[127.06856022837168,37.5803887444187],[127.06856825200488,37.580322310144744],[127.06855870279516,37.580290808078026],[127.068564898627,37.58025654906121],[127.06857104486127,37.580230110632975],[127.06871368472031,37.58019975639123],[127.06906254939152,37.580133920455324],[127.06921952321714,37.580105773826396],[127.06933111818775,37.580085374516344],[127.06944462624959,37.58006487489155],[127.0695569456469,37.58004448396096],[127.06968288221833,37.58002203081297],[127.06968601014232,37.580038111612474]]]},"properties":{"OBJECTID":86853,"PRESENT_SN":"11000UQ181PS201912150676","LCLAS_CL":"UQ1200","MLSFC_CL":"UQ1240","SCLAS_CL":" ","ATRB_SE":"UQ1240","WTNNC_SN":"11000AGZ201711030378","NTFC_SN":"11000NTC201709148275","DGM_NM":"장안동 현대아파트 주택재건축 정비","SIGNGU_SE":"11000","DRAWING_NO":" ","CREATE_DAT":1576368000000,"DGM_AR":24579.9054114,"DGM_LT":667.47655542,"SHAPE.AREA":24579.9054115,"SHAPE.LEN":667.476555424434}},{"type":"Feature","id":84120,"geometry":{"type":"Polygon","coordinates":[[[127.06968601014232,37.580038111612474],[127.06969520807891,37.58009360705725],[127.06967831804593,37.58031809754189],[127.06968630425317,37.58037314319116],[127.06974652703498,37.58070264411495],[127.06978951277364,37.580937857747244],[127.06985143184137,37.58127668281076],[127.06986488940797,37.581359790988884],[127.0698986062649,37.58156052017388],[127.06991600696682,37.581671935039964],[127.06994342104606,37.58183869166987],[127.06996114459619,37.5819439886418],[127.06995964522928,37.58195093611323],[127.06994715157903,37.58196878287875],[127.06994347878593,37.5819760109154],[127.06981816810796,37.58200550968354],[127.06966471407728,37.58203655624395],[127.06931662623488,37.582106808326344],[127.06886644957027,37.582197615097705],[127.06860680303684,37.58225615583919],[127.06857546267742,37.58176049619287],[127.06855497958465,37.58136570473686],[127.06854781413331,37.5812277317914],[127.06856061841424,37.581088918595974],[127.06853668569659,37.580583830317394],[127.06856022837168,37.5803887444187],[127.06856825200488,37.580322310144744],[127.06855870279516,37.580290808078026],[127.068564898627,37.58025654906121],[127.06857104486127,37.580230110632975],[127.06871368472031,37.58019975639123],[127.06906254939152,37.580133920455324],[127.06921952321714,37.580105773826396],[127.06933111818775,37.580085374516344],[127.06944462624959,37.58006487489155],[127.0695569456469,37.58004448396096],[127.06968288221833,37.58002203081297],[127.06968601014232,37.580038111612474]]]},"properties":{"OBJECTID":84120,"PRESENT_SN":"11000UQ181PS201912150676","LCLAS_CL":"UQ1200","MLSFC_CL":"UQ1240","SCLAS_CL":" ","ATRB_SE":"UQ1240","WTNNC_SN":"11000AGZ201711030378","NTFC_SN":"11000NTC201709148275","DGM_NM":"장안동 현대아파트 주택재건축 정비","SIGNGU_SE":"11000","DRAWING_NO":" ","CREATE_DAT":1576368000000,"DGM_AR":24579.9054114,"DGM_LT":667.47655542,"SHAPE.AREA":24579.9054115,"SHAPE.LEN":667.476555424434}}]}