{"type":"FeatureCollection","features":[{"type":"Feature","id":85675,"geometry":{"type":"Polygon","coordinates":[[[126.8968472027684,37.5290987077646],[126.89686904310835,37.52912698228557],[126.89694594829675,37.52922592546706],[126.89701128904154,37.52931041543372],[126.89708362068704,37.52940364217498],[126.8971432477689,37.52948054965605],[126.89718199443183,37.52953031874898],[126.89718231062722,37.52953073348543],[126.89732934211735,37.529715260668766],[126.89731247564576,37.52977094522406],[126.89647837522783,37.53018276238485],[126.89606975269996,37.53038682472584],[126.89598059628459,37.5304315334872],[126.89590424431965,37.530469838556705],[126.89558801675128,37.530625346168144],[126.89547915894212,37.5306808938502],[126.89541270275181,37.53066542717535],[126.8953234883737,37.53055100189252],[126.89493389231328,37.53005373492341],[126.89494816803277,37.52999932778514],[126.89541874796502,37.529768123983985],[126.89558772913345,37.529684681460616],[126.89589829468848,37.52953015084249],[126.89596348305062,37.52949732284593],[126.89605417867088,37.529451408132346],[126.8961481233117,37.529403919508134],[126.89624597346047,37.52935462329222],[126.8963422386103,37.529306046378395],[126.89642984313468,37.5292616332816],[126.89652365126283,37.52921434245402],[126.89661679109687,37.529167546504546],[126.89670305890922,37.52912415013969],[126.89677964740237,37.52908532217716],[126.8968472027684,37.5290987077646]]]},"properties":{"OBJECTID":85675,"PRESENT_SN":"11000UQ181PS201912151294","LCLAS_CL":"UQ1200","MLSFC_CL":"UQ1240","SCLAS_CL":" ","ATRB_SE":"UQ1240","WTNNC_SN":"11000AGZ201410170194","NTFC_SN":"11000NTC201407107258","DGM_NM":"유원제일1차아파트 주택재건축정비사","SIGNGU_SE":"11000","DRAWING_NO":" ","CREATE_DAT":1576368000000,"DGM_AR":17695.37291002,"DGM_LT":567.41230484,"SHAPE.AREA":17695.37291,"SHAPE.LEN":567.4123048385711}}]}