{"type":"FeatureCollection","features":[{"type":"Feature","id":84540,"geometry":{"type":"Polygon","coordinates":[[[126.98067042235047,37.49188721538281],[126.98067553285915,37.4919298876436],[126.98068264337546,37.49197779506641],[126.98069191262431,37.49207018523706],[126.98069772493648,37.49211032580941],[126.98069029015106,37.492171367245625],[126.9808011272029,37.49217471142039],[126.98080812876715,37.49216709018823],[126.980851057776,37.49218991102317],[126.98089661003038,37.492213335970206],[126.98089398842151,37.49228913663691],[126.98089069989466,37.492364054206234],[126.98088627725295,37.49245109903517],[126.9808823398748,37.49254163081698],[126.98087881266994,37.49262088215044],[126.98087708088323,37.4926681573112],[126.98087442055544,37.49272016255856],[126.98087268806194,37.492769987547895],[126.9808699391524,37.49281513616996],[126.98086982557405,37.4928169543678],[126.98094168313838,37.49282118808725],[126.9809476780338,37.49282298842777],[126.98110819018969,37.492871517083735],[126.98119378298561,37.492898147372436],[126.98120591202628,37.49295552512717],[126.98122077408848,37.49302579665696],[126.98123624601445,37.49309897851809],[126.98125429287248,37.49318432431504],[126.98127220441528,37.49326841769515],[126.98127568282911,37.49328474440701],[126.98126865585596,37.493386285876596],[126.98126797158771,37.493407756583515],[126.9810759612186,37.49366639153447],[126.98095092735066,37.493592109439774],[126.98089851683783,37.49362734741452],[126.9808751956134,37.493643029747595],[126.9808616952527,37.49363836020971],[126.9808470239632,37.49361521096116],[126.98080357938038,37.493572820325745],[126.98078932230406,37.49352398363997],[126.98076934935973,37.493453801264536],[126.98075477280084,37.49345632150328],[126.98074393925762,37.493458454968454],[126.98074291018533,37.49345865300748],[126.9806241248464,37.49348495927491],[126.98056661873514,37.49348846299109],[126.98055135195497,37.493391364045166],[126.98054249400985,37.493372887472994],[126.98053931831163,37.493354272254166],[126.9804539303243,37.49336237507073],[126.98029597541004,37.49342566005926],[126.98026798317906,37.493444125523204],[126.98024683348656,37.49345806919373],[126.98030626263375,37.49359604095677],[126.98011644575226,37.493723345017834],[126.98010752159189,37.493731082988546],[126.98007267096298,37.493690144251744],[126.97976390789475,37.49388630752172],[126.97947845304537,37.494068544873336],[126.97950132327396,37.49411915017818],[126.97941193790646,37.494189176299535],[126.97928384487267,37.494290397592685],[126.97915414640653,37.49438942901226],[126.9791400694882,37.494278024953424],[126.97914724877364,37.4942482554835],[126.9791481073536,37.494201737936386],[126.97915698257353,37.49416902612173],[126.97915995456835,37.49416058341657],[126.97916079508147,37.49412912517327],[126.97912187041166,37.49413399851671],[126.9791194900523,37.494115158163005],[126.97910589969993,37.493957597776415],[126.97904490892826,37.493905301181],[126.97905418181192,37.493904086594746],[126.97906875963928,37.493897809397666],[126.97907208347397,37.49389637834065],[126.97907573790285,37.49389360305479],[126.97911406923558,37.493864499029485],[126.97916462718713,37.493826117008524],[126.97923183288822,37.49377924167975],[126.97956253152527,37.49359234615201],[126.9795699297196,37.493428095274616],[126.9795831780896,37.49336601885177],[126.98007685352088,37.493061940949886],[126.98014516476502,37.49301986762489],[126.9800767468833,37.49303940692535],[126.97996705590386,37.49305722676587],[126.97993984635636,37.493067394087774],[126.97984729312536,37.49310198455177],[126.97974495012659,37.493048653578946],[126.97965305410672,37.49300076648955],[126.97966028394089,37.49302536512209],[126.97965270596961,37.49303131031877],[126.97951522720578,37.49294839281512],[126.9794654637203,37.49297946803174],[126.97944489278328,37.492947929197],[126.97939673327232,37.492908095998246],[126.97941561925872,37.492863067560926],[126.97942038728654,37.4927610122005],[126.97937346334827,37.4927496868575],[126.97931402744071,37.49271902368836],[126.97929839281686,37.492705433671446],[126.97927239165028,37.492682822692586],[126.97926400354625,37.49267520766422],[126.97927104920574,37.49267210054146],[126.97932691868876,37.492641260811965],[126.97942073224016,37.49258803831112],[126.97955498873486,37.49251233430242],[126.97949932682461,37.49237597562823],[126.97948375628766,37.49233681526943],[126.97943975824694,37.49229745138005],[126.97954693402329,37.49221575066391],[126.97961817993978,37.49215156764452],[126.97972745209033,37.49205314459182],[126.97978654961008,37.49200159124765],[126.97987365232221,37.49192398608736],[126.97989609159856,37.49190700634598],[126.97997317273376,37.49183910304671],[126.98000805366135,37.491810619781745],[126.98004345431883,37.491783515130834],[126.98033954538313,37.49154056886606],[126.9803818122243,37.49150379761242],[126.980440047321,37.49145994733259],[126.98049102566756,37.49142230993],[126.98048907827878,37.49141504121595],[126.98060581856298,37.491330782388225],[126.98065594031212,37.49130694177621],[126.98071958811121,37.49127500353369],[126.98079597665944,37.49125322176272],[126.98081526334973,37.491251298805295],[126.9808487504514,37.491247960155434],[126.98087511983168,37.491247334065086],[126.98097677193057,37.49125748803107],[126.98103180394587,37.49126422805569],[126.98109469502737,37.49126984316321],[126.98117571182236,37.49127658760925],[126.98119448218448,37.491277248569254],[126.98126388690075,37.491281161816715],[126.98133702285591,37.49128604874081],[126.98144617509737,37.491284553652584],[126.98147762339515,37.491277125739785],[126.98142939170744,37.49133789901499],[126.98131212839377,37.49139426360514],[126.98129684955913,37.49140281148204],[126.98123627993094,37.491425974822675],[126.98118310287556,37.49141682053253],[126.98116547530144,37.491413366667366],[126.98111408442408,37.4914058164339],[126.98106695640392,37.49139866335598],[126.98104222785864,37.49139456853314],[126.98102551599054,37.491391916695825],[126.98102511060739,37.49141056912883],[126.98094101478408,37.49139913614018],[126.98093047535555,37.49143490670972],[126.98094010483848,37.49144333814363],[126.98091673078027,37.4914974499358],[126.98090126177583,37.491494149577605],[126.98088613109125,37.49154349470906],[126.98083557109,37.49155707295063],[126.98082784449534,37.49156978470846],[126.98081781007853,37.49158637036163],[126.98078831487074,37.49160440321143],[126.98080032933231,37.491624398509245],[126.98073372267058,37.491682735573505],[126.98069356056162,37.49171430855279],[126.98065360203877,37.49174558422418],[126.98066068671204,37.49180498840528],[126.98067042235047,37.49188721538281]]]},"properties":{"OBJECTID":84540,"PRESENT_SN":"11590UQ181PS202303310001","LCLAS_CL":"UQ1200","MLSFC_CL":"UQ1240","SCLAS_CL":" ","ATRB_SE":"UQ1240","WTNNC_SN":"11590AGZ202303290001","NTFC_SN":"11590NTC202303290002","DGM_NM":"사당3 재건축정비사업","SIGNGU_SE":"11590","DRAWING_NO":" ","CREATE_DAT":1680220800000,"DGM_AR":30236.41099268,"DGM_LT":1242.72987232,"SHAPE.AREA":30236.41063187,"SHAPE.LEN":1242.7298782862401}},{"type":"Feature","id":85484,"geometry":{"type":"Polygon","coordinates":[[[126.98067042235047,37.49188721538281],[126.98067553285915,37.4919298876436],[126.98068264337546,37.49197779506641],[126.98069191262431,37.49207018523706],[126.98069772493648,37.49211032580941],[126.98069029015106,37.492171367245625],[126.9808011272029,37.49217471142039],[126.98080812876715,37.49216709018823],[126.980851057776,37.49218991102317],[126.98089661003038,37.492213335970206],[126.98089398842151,37.49228913663691],[126.98089069989466,37.492364054206234],[126.98088627725295,37.49245109903517],[126.9808823398748,37.49254163081698],[126.98087881266994,37.49262088215044],[126.98087708088323,37.4926681573112],[126.98087442055544,37.49272016255856],[126.98087268806194,37.492769987547895],[126.9808699391524,37.49281513616996],[126.98086982557405,37.4928169543678],[126.98094168313838,37.49282118808725],[126.9809476780338,37.49282298842777],[126.98110819018969,37.492871517083735],[126.98119378298561,37.492898147372436],[126.98120591202628,37.49295552512717],[126.98122077408848,37.49302579665696],[126.98123624601445,37.49309897851809],[126.98125429287248,37.49318432431504],[126.98127220441528,37.49326841769515],[126.98127568282911,37.49328474440701],[126.98126865585596,37.493386285876596],[126.98126797158771,37.493407756583515],[126.9810759612186,37.49366639153447],[126.98095092735066,37.493592109439774],[126.98089851683783,37.49362734741452],[126.9808751956134,37.493643029747595],[126.9808616952527,37.49363836020971],[126.9808470239632,37.49361521096116],[126.98080357938038,37.493572820325745],[126.98078932230406,37.49352398363997],[126.98076934935973,37.493453801264536],[126.98075477280084,37.49345632150328],[126.98074393925762,37.493458454968454],[126.98074291018533,37.49345865300748],[126.9806241248464,37.49348495927491],[126.98056661873514,37.49348846299109],[126.98055135195497,37.493391364045166],[126.98054249400985,37.493372887472994],[126.98053931831163,37.493354272254166],[126.9804539303243,37.49336237507073],[126.98029597541004,37.49342566005926],[126.98026798317906,37.493444125523204],[126.98024683348656,37.49345806919373],[126.98030626263375,37.49359604095677],[126.98011644575226,37.493723345017834],[126.98010752159189,37.493731082988546],[126.98007267096298,37.493690144251744],[126.97976390789475,37.49388630752172],[126.97947845304537,37.494068544873336],[126.97950132327396,37.49411915017818],[126.97941193790646,37.494189176299535],[126.97928384487267,37.494290397592685],[126.97915414640653,37.49438942901226],[126.9791400694882,37.494278024953424],[126.97914724877364,37.4942482554835],[126.9791481073536,37.494201737936386],[126.97915698257353,37.49416902612173],[126.97915995456835,37.49416058341657],[126.97916079508147,37.49412912517327],[126.97912187041166,37.49413399851671],[126.9791194900523,37.494115158163005],[126.97910589969993,37.493957597776415],[126.97904490892826,37.493905301181],[126.97905418181192,37.493904086594746],[126.97906875963928,37.493897809397666],[126.97907208347397,37.49389637834065],[126.97907573790285,37.49389360305479],[126.97911406923558,37.493864499029485],[126.97916462718713,37.493826117008524],[126.97923183288822,37.49377924167975],[126.97956253152527,37.49359234615201],[126.9795699297196,37.493428095274616],[126.9795831780896,37.49336601885177],[126.98007685352088,37.493061940949886],[126.98014516476502,37.49301986762489],[126.9800767468833,37.49303940692535],[126.97996705590386,37.49305722676587],[126.97993984635636,37.493067394087774],[126.97984729312536,37.49310198455177],[126.97974495012659,37.493048653578946],[126.97965305410672,37.49300076648955],[126.97966028394089,37.49302536512209],[126.97965270596961,37.49303131031877],[126.97951522720578,37.49294839281512],[126.9794654637203,37.49297946803174],[126.97944489278328,37.492947929197],[126.97939673327232,37.492908095998246],[126.97941561925872,37.492863067560926],[126.97942038728654,37.4927610122005],[126.97937346334827,37.4927496868575],[126.97931402744071,37.49271902368836],[126.97929839281686,37.492705433671446],[126.97927239165028,37.492682822692586],[126.97926400354625,37.49267520766422],[126.97927104920574,37.49267210054146],[126.97932691868876,37.492641260811965],[126.97942073224016,37.49258803831112],[126.97955498873486,37.49251233430242],[126.97949932682461,37.49237597562823],[126.97948375628766,37.49233681526943],[126.97943975824694,37.49229745138005],[126.97954693402329,37.49221575066391],[126.97961817993978,37.49215156764452],[126.97972745209033,37.49205314459182],[126.97978654961008,37.49200159124765],[126.97987365232221,37.49192398608736],[126.97989609159856,37.49190700634598],[126.97997317273376,37.49183910304671],[126.98000805366135,37.491810619781745],[126.98004345431883,37.491783515130834],[126.98033954538313,37.49154056886606],[126.9803818122243,37.49150379761242],[126.980440047321,37.49145994733259],[126.98049102566756,37.49142230993],[126.98048907827878,37.49141504121595],[126.98060581856298,37.491330782388225],[126.98065594031212,37.49130694177621],[126.98071958811121,37.49127500353369],[126.98079597665944,37.49125322176272],[126.98081526334973,37.491251298805295],[126.9808487504514,37.491247960155434],[126.98087511983168,37.491247334065086],[126.98097677193057,37.49125748803107],[126.98103180394587,37.49126422805569],[126.98109469502737,37.49126984316321],[126.98117571182236,37.49127658760925],[126.98119448218448,37.491277248569254],[126.98126388690075,37.491281161816715],[126.98133702285591,37.49128604874081],[126.98144617509737,37.491284553652584],[126.98147762339515,37.491277125739785],[126.98142939170744,37.49133789901499],[126.98131212839377,37.49139426360514],[126.98129684955913,37.49140281148204],[126.98123627993094,37.491425974822675],[126.98118310287556,37.49141682053253],[126.98116547530144,37.491413366667366],[126.98111408442408,37.4914058164339],[126.98106695640392,37.49139866335598],[126.98104222785864,37.49139456853314],[126.98102551599054,37.491391916695825],[126.98102511060739,37.49141056912883],[126.98094101478408,37.49139913614018],[126.98093047535555,37.49143490670972],[126.98094010483848,37.49144333814363],[126.98091673078027,37.4914974499358],[126.98090126177583,37.491494149577605],[126.98088613109125,37.49154349470906],[126.98083557109,37.49155707295063],[126.98082784449534,37.49156978470846],[126.98081781007853,37.49158637036163],[126.98078831487074,37.49160440321143],[126.98080032933231,37.491624398509245],[126.98073372267058,37.491682735573505],[126.98069356056162,37.49171430855279],[126.98065360203877,37.49174558422418],[126.98066068671204,37.49180498840528],[126.98067042235047,37.49188721538281]]]},"properties":{"OBJECTID":85484,"PRESENT_SN":"11590UQ181PS202303310001","LCLAS_CL":"UQ1200","MLSFC_CL":"UQ1240","SCLAS_CL":" ","ATRB_SE":"UQ1240","WTNNC_SN":"11590AGZ202303290001","NTFC_SN":"11590NTC202303290002","DGM_NM":"사당3 재건축정비사업","SIGNGU_SE":"11590","DRAWING_NO":" ","CREATE_DAT":1680220800000,"DGM_AR":30236.41099268,"DGM_LT":1242.72987232,"SHAPE.AREA":30236.41063187,"SHAPE.LEN":1242.7298782862401}}]}