{"type":"FeatureCollection","features":[{"type":"Feature","id":84817,"geometry":{"type":"Polygon","coordinates":[[[127.03699475744827,37.48969628204263],[127.03665554949221,37.4895905627278],[127.03665551217262,37.4895905510259],[127.03640759646098,37.48951328353054],[127.03640288065174,37.48951184332254],[127.0363791206749,37.48950460629304],[127.03579145572579,37.489325686392824],[127.03558024079773,37.489261334959686],[127.03554235627686,37.48924980406112],[127.03556916797878,37.489179950786735],[127.03536434275138,37.48911674139468],[127.03558766280273,37.48902216226418],[127.03558215592625,37.489146087447914],[127.0355832074211,37.489145915954666],[127.03577074649809,37.48905828359214],[127.03580294943099,37.488892455034765],[127.0362961745166,37.48819641413919],[127.03661652595753,37.48817001018917],[127.03666656919037,37.488165886749485],[127.03669072009282,37.48811545056142],[127.03671607964822,37.48806251823641],[127.03676108287031,37.48796854848138],[127.03687495586007,37.48772784818997],[127.03700509744749,37.4874841425615],[127.0370525834378,37.487405479941835],[127.03713462847331,37.487337510776925],[127.03723354476534,37.487225054051635],[127.0373155074971,37.48726970987023],[127.03731012537911,37.48729338979868],[127.03740785794382,37.487330733658816],[127.03743211581212,37.48734000659441],[127.03744335714615,37.48732101909262],[127.03759058175253,37.48736118589406],[127.03764051391674,37.48736245005931],[127.03762944497578,37.48741062994844],[127.03753850047333,37.48782925359145],[127.03745276783891,37.4882013118421],[127.03743283214898,37.48829309381795],[127.03738461099496,37.48851357428059],[127.03737556816715,37.488708850858345],[127.03723420577022,37.4886609604527],[127.03707963814735,37.48866361997938],[127.03679182985513,37.48905726324924],[127.03680519110617,37.4890970834772],[127.03671961651331,37.489142068925],[127.036688857115,37.48915824203283],[127.03668887997871,37.48915877361625],[127.0366895531337,37.48917163069144],[127.0367658864648,37.48943244754981],[127.03692128890695,37.48951817631711],[127.03704532780878,37.48951381428117],[127.0370090590818,37.48957230010347],[127.03693272658018,37.48955484360277],[127.03691295246291,37.48958377163906],[127.03687456863143,37.48964119487265],[127.03700572030948,37.489685214466405],[127.03703928530881,37.48969553885317],[127.03705296479407,37.489714410695974],[127.03699475744827,37.48969628204263]]]},"properties":{"OBJECTID":84817,"PRESENT_SN":"11680UQ181PS202311130001","LCLAS_CL":"UQ1200","MLSFC_CL":"UQ1240","SCLAS_CL":" ","ATRB_SE":"UQ1240","WTNNC_SN":"11680AGZ202306050001","NTFC_SN":"11680NTC202306050001","DGM_NM":"도곡우성아파트 재건축정비사업","SIGNGU_SE":"11680","DRAWING_NO":" ","CREATE_DAT":1699833600000,"DGM_AR":20873.95527617,"DGM_LT":875.5716418,"SHAPE.AREA":20873.95514317,"SHAPE.LEN":875.5717004334101}}]}