{"type":"FeatureCollection","features":[{"type":"Feature","id":86779,"geometry":{"type":"MultiPolygon","coordinates":[[[[127.16170999714498,37.551567947998954],[127.16152997951536,37.55160854741188],[127.16129107389555,37.55176239958955],[127.16089717054916,37.55182969525494],[127.16071697958495,37.55186911336477],[127.1605689129025,37.55190149625299],[127.16046143893358,37.55186452017905],[127.16031999389318,37.55181758870858],[127.16027146288562,37.551772514368125],[127.16027377100514,37.551686917219804],[127.16029428932015,37.551596790636324],[127.1605036304897,37.55158885055583],[127.16070390107575,37.55157281342265],[127.16089067967587,37.55154499119149],[127.16091107643483,37.55155757752082],[127.16094505711011,37.55151887917824],[127.16105597194802,37.55152440561571],[127.16115675313087,37.55144786546221],[127.16118854119416,37.55138934823339],[127.16124738955826,37.55139025973468],[127.16129158152826,37.55131100292856],[127.16133463246324,37.55128040110982],[127.1613730724338,37.55126332036749],[127.16139008192346,37.55127951516012],[127.16143082176674,37.551279550095394],[127.16145229456475,37.55126609626342],[127.16150893298679,37.5512390799373],[127.16153172235317,37.55110038669381],[127.16144022129049,37.55091193343195],[127.16137574741668,37.550820209842904],[127.16148772446242,37.55089961562417],[127.16157656787139,37.55095652790543],[127.16165939322225,37.55100389778625],[127.16174673526285,37.55104657633172],[127.16184013229538,37.55107998981998],[127.16189698818322,37.550979248600775],[127.16191509176177,37.55088335776895],[127.1619905334782,37.55048375806642],[127.16205177926037,37.55049529669205],[127.16216781387435,37.550514239879924],[127.16216492573867,37.55053947153225],[127.16224120703788,37.55054326901949],[127.16227583921096,37.55054499682795],[127.16244106477409,37.55049458663029],[127.16253228553545,37.550488668915996],[127.1625503667601,37.5504875000027],[127.16269748700256,37.55049027255168],[127.16288311667277,37.550507476617085],[127.16309794428163,37.550527386659574],[127.1631543012004,37.55052776002633],[127.1635481879897,37.55050920041228],[127.16366146177081,37.55050724294995],[127.16371817046956,37.550513291802176],[127.1640469418847,37.5505780714324],[127.1641001640905,37.55059403579058],[127.1641237295423,37.55060652710501],[127.16416792993383,37.550636919696586],[127.16422512177922,37.550736063339116],[127.16426475693176,37.550721569453366],[127.16433814309626,37.55069488908193],[127.16441289306756,37.55067090975373],[127.16448900704853,37.55064972156486],[127.16458889165706,37.55063129357229],[127.16464453511296,37.55061580978774],[127.16472361011135,37.55060326686179],[127.16480337016365,37.55059351600489],[127.16511917939296,37.55057785215782],[127.165166575176,37.55062031321518],[127.1651233774129,37.551825447162145],[127.16470814751221,37.5518159306458],[127.16463342035595,37.55107190629824],[127.16460911148693,37.55102995374029],[127.16342488917613,37.55105591010201],[127.16341364708015,37.55103278809184],[127.16335658813857,37.55093400787835],[127.16325778455885,37.55097018465324],[127.16319525148255,37.55099216434535],[127.16311767088767,37.551015786379864],[127.16303883842589,37.55103616651164],[127.1629586409412,37.55105330489287],[127.16287753129863,37.55106729100099],[127.16279562209098,37.551077854383344],[127.16271313985395,37.55108508482799],[127.16263031112307,37.55108907212374],[127.16254736165843,37.551089545664944],[127.16246440521823,37.5510867755933],[127.16238178092223,37.55108058124879],[127.16230652731694,37.551071843226545],[127.16228014221991,37.551178567180756],[127.16204849114983,37.551442151602615],[127.1617892319951,37.55155008197117],[127.16170999714498,37.551567947998954]]],[[[127.16506055508087,37.55357967112343],[127.16502888562955,37.55358791398647],[127.16499522459823,37.55356516555557],[127.1650225664551,37.55354449503718],[127.16500336589505,37.55351019391742],[127.16490711174572,37.55353447366425],[127.16490599382288,37.55354078213845],[127.16485728765684,37.55352093765146],[127.16483645934356,37.55350820844763],[127.16479960755133,37.55348569863095],[127.16475777135105,37.553450527779056],[127.16473640913487,37.55341091376463],[127.16466739976084,37.55331802700026],[127.1646199406223,37.5532990816811],[127.16438979126536,37.55310784894601],[127.16405136894807,37.55279927577385],[127.16388995455996,37.55265209591533],[127.16398766630714,37.55256979124778],[127.16407286399085,37.5525094878769],[127.16419809520305,37.55243642534173],[127.16443189656306,37.55243493172234],[127.16451443525081,37.552453017812766],[127.16510098116734,37.55245175622281],[127.16508852490658,37.55279928342575],[127.16506055508087,37.55357967112343]]]]},"properties":{"OBJECTID":86779,"PRESENT_SN":"11000UQ181PS201912151155","LCLAS_CL":"UQ1200","MLSFC_CL":"UQ1240","SCLAS_CL":" ","ATRB_SE":"UQ1240","WTNNC_SN":"11000AGZ201109059973","NTFC_SN":"11000NTC201104286069","DGM_NM":"고덕주공4단지아파트 주택재건축 정","SIGNGU_SE":"11000","DRAWING_NO":" ","CREATE_DAT":1576368000000,"DGM_AR":34559.610407,"DGM_LT":1710.41873313,"SHAPE.AREA":34559.610407,"SHAPE.LEN":1710.4187331268902}},{"type":"Feature","id":85995,"geometry":{"type":"MultiPolygon","coordinates":[[[[127.16170999714498,37.551567947998954],[127.16152997951536,37.55160854741188],[127.16129107389555,37.55176239958955],[127.16089717054916,37.55182969525494],[127.16071697958495,37.55186911336477],[127.1605689129025,37.55190149625299],[127.16046143893358,37.55186452017905],[127.16031999389318,37.55181758870858],[127.16027146288562,37.551772514368125],[127.16027377100514,37.551686917219804],[127.16029428932015,37.551596790636324],[127.1605036304897,37.55158885055583],[127.16070390107575,37.55157281342265],[127.16089067967587,37.55154499119149],[127.16091107643483,37.55155757752082],[127.16094505711011,37.55151887917824],[127.16105597194802,37.55152440561571],[127.16115675313087,37.55144786546221],[127.16118854119416,37.55138934823339],[127.16124738955826,37.55139025973468],[127.16129158152826,37.55131100292856],[127.16133463246324,37.55128040110982],[127.1613730724338,37.55126332036749],[127.16139008192346,37.55127951516012],[127.16143082176674,37.551279550095394],[127.16145229456475,37.55126609626342],[127.16150893298679,37.5512390799373],[127.16153172235317,37.55110038669381],[127.16144022129049,37.55091193343195],[127.16137574741668,37.550820209842904],[127.16148772446242,37.55089961562417],[127.16157656787139,37.55095652790543],[127.16165939322225,37.55100389778625],[127.16174673526285,37.55104657633172],[127.16184013229538,37.55107998981998],[127.16189698818322,37.550979248600775],[127.16191509176177,37.55088335776895],[127.1619905334782,37.55048375806642],[127.16205177926037,37.55049529669205],[127.16216781387435,37.550514239879924],[127.16216492573867,37.55053947153225],[127.16224120703788,37.55054326901949],[127.16227583921096,37.55054499682795],[127.16244106477409,37.55049458663029],[127.16253228553545,37.550488668915996],[127.1625503667601,37.5504875000027],[127.16269748700256,37.55049027255168],[127.16288311667277,37.550507476617085],[127.16309794428163,37.550527386659574],[127.1631543012004,37.55052776002633],[127.1635481879897,37.55050920041228],[127.16366146177081,37.55050724294995],[127.16371817046956,37.550513291802176],[127.1640469418847,37.5505780714324],[127.1641001640905,37.55059403579058],[127.1641237295423,37.55060652710501],[127.16416792993383,37.550636919696586],[127.16422512177922,37.550736063339116],[127.16426475693176,37.550721569453366],[127.16433814309626,37.55069488908193],[127.16441289306756,37.55067090975373],[127.16448900704853,37.55064972156486],[127.16458889165706,37.55063129357229],[127.16464453511296,37.55061580978774],[127.16472361011135,37.55060326686179],[127.16480337016365,37.55059351600489],[127.16511917939296,37.55057785215782],[127.165166575176,37.55062031321518],[127.1651233774129,37.551825447162145],[127.16470814751221,37.5518159306458],[127.16463342035595,37.55107190629824],[127.16460911148693,37.55102995374029],[127.16342488917613,37.55105591010201],[127.16341364708015,37.55103278809184],[127.16335658813857,37.55093400787835],[127.16325778455885,37.55097018465324],[127.16319525148255,37.55099216434535],[127.16311767088767,37.551015786379864],[127.16303883842589,37.55103616651164],[127.1629586409412,37.55105330489287],[127.16287753129863,37.55106729100099],[127.16279562209098,37.551077854383344],[127.16271313985395,37.55108508482799],[127.16263031112307,37.55108907212374],[127.16254736165843,37.551089545664944],[127.16246440521823,37.5510867755933],[127.16238178092223,37.55108058124879],[127.16230652731694,37.551071843226545],[127.16228014221991,37.551178567180756],[127.16204849114983,37.551442151602615],[127.1617892319951,37.55155008197117],[127.16170999714498,37.551567947998954]]],[[[127.16506055508087,37.55357967112343],[127.16502888562955,37.55358791398647],[127.16499522459823,37.55356516555557],[127.1650225664551,37.55354449503718],[127.16500336589505,37.55351019391742],[127.16490711174572,37.55353447366425],[127.16490599382288,37.55354078213845],[127.16485728765684,37.55352093765146],[127.16483645934356,37.55350820844763],[127.16479960755133,37.55348569863095],[127.16475777135105,37.553450527779056],[127.16473640913487,37.55341091376463],[127.16466739976084,37.55331802700026],[127.1646199406223,37.5532990816811],[127.16438979126536,37.55310784894601],[127.16405136894807,37.55279927577385],[127.16388995455996,37.55265209591533],[127.16398766630714,37.55256979124778],[127.16407286399085,37.5525094878769],[127.16419809520305,37.55243642534173],[127.16443189656306,37.55243493172234],[127.16451443525081,37.552453017812766],[127.16510098116734,37.55245175622281],[127.16508852490658,37.55279928342575],[127.16506055508087,37.55357967112343]]]]},"properties":{"OBJECTID":85995,"PRESENT_SN":"11000UQ181PS201912151155","LCLAS_CL":"UQ1200","MLSFC_CL":"UQ1240","SCLAS_CL":" ","ATRB_SE":"UQ1240","WTNNC_SN":"11000AGZ201109059973","NTFC_SN":"11000NTC201104286069","DGM_NM":"고덕주공4단지아파트 주택재건축 정","SIGNGU_SE":"11000","DRAWING_NO":" ","CREATE_DAT":1576368000000,"DGM_AR":34559.610407,"DGM_LT":1710.41873313,"SHAPE.AREA":34559.610407,"SHAPE.LEN":1710.4187331268902}}]}