{"type":"FeatureCollection","features":[{"type":"Feature","id":84101,"geometry":{"type":"Polygon","coordinates":[[[127.01932072930991,37.57965504249353],[127.01950581889089,37.57971908358852],[127.01945540689624,37.57981365880041],[127.01933257253924,37.580041762122576],[127.01929318181118,37.58011559488877],[127.01922143946383,37.580253465601366],[127.01919812803582,37.580295022587926],[127.01914227224798,37.580399752588626],[127.01902912206242,37.580607645002324],[127.01898994611692,37.58068267594024],[127.01894748775032,37.58076100495882],[127.01886650917518,37.58091198615468],[127.01883523086497,37.580968987140686],[127.01875400911834,37.58109838065837],[127.01872445104408,37.58115358839935],[127.01866681641775,37.58125782287667],[127.01862008004828,37.58134516225368],[127.0185734903647,37.58143083476517],[127.01852636854416,37.58151679564928],[127.01848154397084,37.58159901709052],[127.01838079367316,37.581786815066394],[127.01831137789522,37.5819143415334],[127.01828023390257,37.58201874322475],[127.01833385494639,37.58233651340373],[127.01836415613484,37.58251103909772],[127.01838388047034,37.582622785582515],[127.0183955564894,37.582689339753095],[127.01838217223924,37.58272891297251],[127.018276859398,37.58282350447222],[127.01823794463976,37.58286002695316],[127.01815512138268,37.582929081211695],[127.01806352643823,37.58300970530112],[127.01795850706235,37.583103873007815],[127.01785544575985,37.58319679698804],[127.01778937159949,37.5831865889323],[127.01774555160864,37.583106713547416],[127.01773441679379,37.583079739557185],[127.0177126658326,37.583015907685734],[127.01769783993738,37.58293510929431],[127.01769257552752,37.58288296995543],[127.01770895321692,37.582758226195885],[127.01770930143837,37.582745567294374],[127.0177234096124,37.582596893651534],[127.017725859098,37.582563457722685],[127.01773357201446,37.582525453071405],[127.01776589491595,37.58242342997423],[127.01780367014985,37.58230097174971],[127.01780792380087,37.58228646528662],[127.0178605647477,37.58211679331595],[127.01788777225816,37.5820246817339],[127.01790603199531,37.58196634935746],[127.01797002064684,37.581764672723864],[127.01802398691692,37.581601694808114],[127.0180914132273,37.58138491708619],[127.01809358545549,37.581378438690145],[127.01810087602323,37.5813772483645],[127.01813462224034,37.581265539344216],[127.0181302187052,37.58121634611392],[127.01811725897997,37.58117878581917],[127.01809695001796,37.581132946491074],[127.0179619401932,37.58095418266258],[127.01792819332789,37.58090871457902],[127.01790204659063,37.58087984159899],[127.01774897920474,37.58069469203051],[127.01769089830213,37.58062456722339],[127.01762385105488,37.5805535696536],[127.01756717614221,37.5804925535644],[127.01747300723967,37.58038386232038],[127.01739867239343,37.58021899182989],[127.01743839180534,37.58013787968227],[127.01746189570653,37.580092043330396],[127.01751156231381,37.579993198399244],[127.01757456039077,37.57987353884566],[127.01760287837732,37.57978834671921],[127.01763618170565,37.579722660261915],[127.01771922574345,37.57969401554435],[127.01782331082907,37.57964493349015],[127.01794866478393,37.57958237863731],[127.01798784940969,37.5795446308521],[127.01798953592649,37.57954328814688],[127.01801555913609,37.579527355071576],[127.0180249421742,37.57951839795398],[127.01807630277732,37.57945708763806],[127.01814225565107,37.57934376129171],[127.01819680933863,37.5792353739237],[127.01824102411703,37.579114302102205],[127.0182523368406,37.579057866302904],[127.01825729946712,37.57904587887366],[127.01826799985324,37.57900523385032],[127.01829386096573,37.57887339781659],[127.01830954904553,37.57876128581923],[127.01831756376703,37.57865878843743],[127.018325812453,37.57858997891173],[127.01831075786836,37.5785484996275],[127.01827045664456,37.57845013562661],[127.01815831858286,37.57826923335438],[127.01811929296494,37.57820392632062],[127.0180746281884,37.578131709495864],[127.01806521470245,37.57810457309486],[127.01803193614066,37.57796985320464],[127.01801459004345,37.577905570223436],[127.0180125173884,37.5779011376581],[127.01799049127924,37.577815862334184],[127.01792364122055,37.577807879889484],[127.0179951958238,37.57774253036235],[127.01801191355645,37.57772975203515],[127.01805892884836,37.57763090720437],[127.01809068022853,37.577566725460215],[127.0181600570514,37.577585807612216],[127.01817705076631,37.57759256261678],[127.0182384459176,37.577608528434205],[127.01837378163458,37.577649819435734],[127.01841819548713,37.57766366125382],[127.01855094030104,37.577611330882824],[127.0186785218621,37.57755517191868],[127.01877370717145,37.577513919877774],[127.01885906149958,37.57759922181475],[127.0189154854835,37.577657074887256],[127.01901968014067,37.57770467664037],[127.01904187459179,37.577711185680805],[127.01913113925518,37.57773736588606],[127.01912256440148,37.57776358948479],[127.01909389855425,37.57785125616652],[127.01905457581152,37.577969714745194],[127.01914157141213,37.57800246166991],[127.0193710257188,37.57808024542165],[127.01935956422813,37.578106844283035],[127.01934816053625,37.57823345266176],[127.0193294505287,37.57838903787155],[127.01933143173952,37.57838939796732],[127.01931196228672,37.57849369912287],[127.01931068316641,37.57849421287806],[127.01929076380186,37.5786110288009],[127.01931845567215,37.578616574706864],[127.01927150080108,37.578679407576885],[127.01926480153581,37.57869046369036],[127.01921529966454,37.57875441414352],[127.0191622563477,37.578827023586086],[127.01908307004503,37.57893431587136],[127.01907142477944,37.57895065249071],[127.01917714347985,37.57902007576315],[127.01929852039486,37.57909506468012],[127.0192066195658,37.57924540809596],[127.01919530040662,37.57925253659508],[127.01920248272938,37.57927328524008],[127.01906877856614,37.57944516837676],[127.01908369275621,37.57951293836577],[127.01919358157167,37.57950019102526],[127.01922201132581,37.57951293572487],[127.01934363844865,37.57954170394304],[127.0193323567598,37.57956368971703],[127.0193559731873,37.57956807395553],[127.01936685230282,37.579566973107724],[127.01932072930991,37.57965504249353]]]},"properties":{"OBJECTID":84101,"PRESENT_SN":"11000UQ181PS201912150169","LCLAS_CL":"UQ1200","MLSFC_CL":"UQ1220","SCLAS_CL":"UQ1221","ATRB_SE":"UQ1221","WTNNC_SN":"11000AGZ201205078140","NTFC_SN":"11000NTC201203296453","DGM_NM":"보문제3주택재개발정비사업","SIGNGU_SE":"11000","DRAWING_NO":" ","CREATE_DAT":1576368000000,"DGM_AR":52487.62059186,"DGM_LT":1529.81394395,"SHAPE.AREA":52487.6205918,"SHAPE.LEN":1529.8139439528102}},{"type":"Feature","id":84119,"geometry":{"type":"Polygon","coordinates":[[[127.01932072930991,37.57965504249353],[127.01950581889089,37.57971908358852],[127.01945540689624,37.57981365880041],[127.01933257253924,37.580041762122576],[127.01929318181118,37.58011559488877],[127.01922143946383,37.580253465601366],[127.01919812803582,37.580295022587926],[127.01914227224798,37.580399752588626],[127.01902912206242,37.580607645002324],[127.01898994611692,37.58068267594024],[127.01894748775032,37.58076100495882],[127.01886650917518,37.58091198615468],[127.01883523086497,37.580968987140686],[127.01875400911834,37.58109838065837],[127.01872445104408,37.58115358839935],[127.01866681641775,37.58125782287667],[127.01862008004828,37.58134516225368],[127.0185734903647,37.58143083476517],[127.01852636854416,37.58151679564928],[127.01848154397084,37.58159901709052],[127.01838079367316,37.581786815066394],[127.01831137789522,37.5819143415334],[127.01828023390257,37.58201874322475],[127.01833385494639,37.58233651340373],[127.01836415613484,37.58251103909772],[127.01838388047034,37.582622785582515],[127.0183955564894,37.582689339753095],[127.01838217223924,37.58272891297251],[127.018276859398,37.58282350447222],[127.01823794463976,37.58286002695316],[127.01815512138268,37.582929081211695],[127.01806352643823,37.58300970530112],[127.01795850706235,37.583103873007815],[127.01785544575985,37.58319679698804],[127.01778937159949,37.5831865889323],[127.01774555160864,37.583106713547416],[127.01773441679379,37.583079739557185],[127.0177126658326,37.583015907685734],[127.01769783993738,37.58293510929431],[127.01769257552752,37.58288296995543],[127.01770895321692,37.582758226195885],[127.01770930143837,37.582745567294374],[127.0177234096124,37.582596893651534],[127.017725859098,37.582563457722685],[127.01773357201446,37.582525453071405],[127.01776589491595,37.58242342997423],[127.01780367014985,37.58230097174971],[127.01780792380087,37.58228646528662],[127.0178605647477,37.58211679331595],[127.01788777225816,37.5820246817339],[127.01790603199531,37.58196634935746],[127.01797002064684,37.581764672723864],[127.01802398691692,37.581601694808114],[127.0180914132273,37.58138491708619],[127.01809358545549,37.581378438690145],[127.01810087602323,37.5813772483645],[127.01813462224034,37.581265539344216],[127.0181302187052,37.58121634611392],[127.01811725897997,37.58117878581917],[127.01809695001796,37.581132946491074],[127.0179619401932,37.58095418266258],[127.01792819332789,37.58090871457902],[127.01790204659063,37.58087984159899],[127.01774897920474,37.58069469203051],[127.01769089830213,37.58062456722339],[127.01762385105488,37.5805535696536],[127.01756717614221,37.5804925535644],[127.01747300723967,37.58038386232038],[127.01739867239343,37.58021899182989],[127.01743839180534,37.58013787968227],[127.01746189570653,37.580092043330396],[127.01751156231381,37.579993198399244],[127.01757456039077,37.57987353884566],[127.01760287837732,37.57978834671921],[127.01763618170565,37.579722660261915],[127.01771922574345,37.57969401554435],[127.01782331082907,37.57964493349015],[127.01794866478393,37.57958237863731],[127.01798784940969,37.5795446308521],[127.01798953592649,37.57954328814688],[127.01801555913609,37.579527355071576],[127.0180249421742,37.57951839795398],[127.01807630277732,37.57945708763806],[127.01814225565107,37.57934376129171],[127.01819680933863,37.5792353739237],[127.01824102411703,37.579114302102205],[127.0182523368406,37.579057866302904],[127.01825729946712,37.57904587887366],[127.01826799985324,37.57900523385032],[127.01829386096573,37.57887339781659],[127.01830954904553,37.57876128581923],[127.01831756376703,37.57865878843743],[127.018325812453,37.57858997891173],[127.01831075786836,37.5785484996275],[127.01827045664456,37.57845013562661],[127.01815831858286,37.57826923335438],[127.01811929296494,37.57820392632062],[127.0180746281884,37.578131709495864],[127.01806521470245,37.57810457309486],[127.01803193614066,37.57796985320464],[127.01801459004345,37.577905570223436],[127.0180125173884,37.5779011376581],[127.01799049127924,37.577815862334184],[127.01792364122055,37.577807879889484],[127.0179951958238,37.57774253036235],[127.01801191355645,37.57772975203515],[127.01805892884836,37.57763090720437],[127.01809068022853,37.577566725460215],[127.0181600570514,37.577585807612216],[127.01817705076631,37.57759256261678],[127.0182384459176,37.577608528434205],[127.01837378163458,37.577649819435734],[127.01841819548713,37.57766366125382],[127.01855094030104,37.577611330882824],[127.0186785218621,37.57755517191868],[127.01877370717145,37.577513919877774],[127.01885906149958,37.57759922181475],[127.0189154854835,37.577657074887256],[127.01901968014067,37.57770467664037],[127.01904187459179,37.577711185680805],[127.01913113925518,37.57773736588606],[127.01912256440148,37.57776358948479],[127.01909389855425,37.57785125616652],[127.01905457581152,37.577969714745194],[127.01914157141213,37.57800246166991],[127.0193710257188,37.57808024542165],[127.01935956422813,37.578106844283035],[127.01934816053625,37.57823345266176],[127.0193294505287,37.57838903787155],[127.01933143173952,37.57838939796732],[127.01931196228672,37.57849369912287],[127.01931068316641,37.57849421287806],[127.01929076380186,37.5786110288009],[127.01931845567215,37.578616574706864],[127.01927150080108,37.578679407576885],[127.01926480153581,37.57869046369036],[127.01921529966454,37.57875441414352],[127.0191622563477,37.578827023586086],[127.01908307004503,37.57893431587136],[127.01907142477944,37.57895065249071],[127.01917714347985,37.57902007576315],[127.01929852039486,37.57909506468012],[127.0192066195658,37.57924540809596],[127.01919530040662,37.57925253659508],[127.01920248272938,37.57927328524008],[127.01906877856614,37.57944516837676],[127.01908369275621,37.57951293836577],[127.01919358157167,37.57950019102526],[127.01922201132581,37.57951293572487],[127.01934363844865,37.57954170394304],[127.0193323567598,37.57956368971703],[127.0193559731873,37.57956807395553],[127.01936685230282,37.579566973107724],[127.01932072930991,37.57965504249353]]]},"properties":{"OBJECTID":84119,"PRESENT_SN":"11000UQ181PS201912150169","LCLAS_CL":"UQ1200","MLSFC_CL":"UQ1220","SCLAS_CL":"UQ1221","ATRB_SE":"UQ1221","WTNNC_SN":"11000AGZ201205078140","NTFC_SN":"11000NTC201203296453","DGM_NM":"보문제3주택재개발정비사업","SIGNGU_SE":"11000","DRAWING_NO":" ","CREATE_DAT":1576368000000,"DGM_AR":52487.62059186,"DGM_LT":1529.81394395,"SHAPE.AREA":52487.6205918,"SHAPE.LEN":1529.8139439528102}}]}