{"type":"FeatureCollection","features":[{"type":"Feature","id":86484,"geometry":{"type":"Polygon","coordinates":[[[127.0874015890724,37.5652753178121],[127.0871789787603,37.56525126095676],[127.08706611713897,37.565239062311555],[127.0869369092996,37.565225091428104],[127.08678464245547,37.56520864131977],[127.08679723467935,37.56513430067385],[127.08696520261232,37.56515266751986],[127.0871225779203,37.56517243833945],[127.08725296355034,37.5651870208368],[127.08738544347086,37.56520184493395],[127.0875429065158,37.56521898334181],[127.08754436692041,37.56521923545552],[127.08767595174966,37.56523316790013],[127.08781100284372,37.56524746706999],[127.08796583854263,37.565265184367384],[127.08815788534835,37.56528645108634],[127.08814953671138,37.56535883361626],[127.08813958553311,37.56544508353274],[127.08813403143763,37.565614230167334],[127.08812887752362,37.56592375049459],[127.08799970297704,37.56609643851246],[127.08795826076653,37.56615184360411],[127.08783333477089,37.56631884308684],[127.08764345986685,37.56657394341322],[127.08763940213323,37.56657894685803],[127.08761720328692,37.56660633507207],[127.0874898972531,37.56676214564063],[127.08755593305065,37.56699924665197],[127.0874438197026,37.567020023996264],[127.08743008137688,37.567022574780445],[127.08738741784344,37.567030471443765],[127.08737597679183,37.56703260609629],[127.08714992785698,37.56707449502375],[127.0871380793804,37.567076693017896],[127.08709456688129,37.56708460821075],[127.086844502828,37.56713011790985],[127.08685085634646,37.56709354220685],[127.0868871335102,37.566885036317224],[127.08691026489855,37.56675210580331],[127.08694097536409,37.56657556196575],[127.08702254612678,37.5660861671524],[127.08705145919834,37.565912102285985],[127.08707218832589,37.565787246314926],[127.08709288369631,37.565662624619065],[127.08713535338583,37.56540687528951],[127.08736789255455,37.56543255579644],[127.0874015890724,37.5652753178121]]]},"properties":{"OBJECTID":86484,"PRESENT_SN":"11215UQ181PS202206230001","LCLAS_CL":"UQ1200","MLSFC_CL":"UQ1240","SCLAS_CL":" ","ATRB_SE":"UQ1240","WTNNC_SN":"11215AGZ202205030001","NTFC_SN":"11000NTC202206070005","DGM_NM":"신향빌라 재건축사업","SIGNGU_SE":"11215","DRAWING_NO":" ","CREATE_DAT":1655942400000,"DGM_AR":15684.77577645,"DGM_LT":687.28887225,"SHAPE.AREA":15684.77841815,"SHAPE.LEN":687.288834548876}},{"type":"Feature","id":85477,"geometry":{"type":"Polygon","coordinates":[[[127.0874015890724,37.5652753178121],[127.0871789787603,37.56525126095676],[127.08706611713897,37.565239062311555],[127.0869369092996,37.565225091428104],[127.08678464245547,37.56520864131977],[127.08679723467935,37.56513430067385],[127.08696520261232,37.56515266751986],[127.0871225779203,37.56517243833945],[127.08725296355034,37.5651870208368],[127.08738544347086,37.56520184493395],[127.0875429065158,37.56521898334181],[127.08754436692041,37.56521923545552],[127.08767595174966,37.56523316790013],[127.08781100284372,37.56524746706999],[127.08796583854263,37.565265184367384],[127.08815788534835,37.56528645108634],[127.08814953671138,37.56535883361626],[127.08813958553311,37.56544508353274],[127.08813403143763,37.565614230167334],[127.08812887752362,37.56592375049459],[127.08799970297704,37.56609643851246],[127.08795826076653,37.56615184360411],[127.08783333477089,37.56631884308684],[127.08764345986685,37.56657394341322],[127.08763940213323,37.56657894685803],[127.08761720328692,37.56660633507207],[127.0874898972531,37.56676214564063],[127.08755593305065,37.56699924665197],[127.0874438197026,37.567020023996264],[127.08743008137688,37.567022574780445],[127.08738741784344,37.567030471443765],[127.08737597679183,37.56703260609629],[127.08714992785698,37.56707449502375],[127.0871380793804,37.567076693017896],[127.08709456688129,37.56708460821075],[127.086844502828,37.56713011790985],[127.08685085634646,37.56709354220685],[127.0868871335102,37.566885036317224],[127.08691026489855,37.56675210580331],[127.08694097536409,37.56657556196575],[127.08702254612678,37.5660861671524],[127.08705145919834,37.565912102285985],[127.08707218832589,37.565787246314926],[127.08709288369631,37.565662624619065],[127.08713535338583,37.56540687528951],[127.08736789255455,37.56543255579644],[127.0874015890724,37.5652753178121]]]},"properties":{"OBJECTID":85477,"PRESENT_SN":"11215UQ181PS202206230001","LCLAS_CL":"UQ1200","MLSFC_CL":"UQ1240","SCLAS_CL":" ","ATRB_SE":"UQ1240","WTNNC_SN":"11215AGZ202205030001","NTFC_SN":"11000NTC202206070005","DGM_NM":"신향빌라 재건축사업","SIGNGU_SE":"11215","DRAWING_NO":" ","CREATE_DAT":1655942400000,"DGM_AR":15684.77577645,"DGM_LT":687.28887225,"SHAPE.AREA":15684.77841815,"SHAPE.LEN":687.288834548876}}]}