{"type":"FeatureCollection","features":[{"type":"Feature","id":86913,"geometry":{"type":"Polygon","coordinates":[[[126.85796725304384,37.50420365005198],[126.85776308829358,37.504218448446295],[126.85754444390692,37.50418200714379],[126.85730184085705,37.504118965779796],[126.8570894438836,37.5040451849212],[126.85708304726815,37.50404282549777],[126.85703738958152,37.50402592101716],[126.85690991535311,37.50397584979506],[126.85690667749589,37.50395413179519],[126.85685314380308,37.503933811831914],[126.85681644949649,37.50391956717373],[126.856781322061,37.50390213489311],[126.85675412411062,37.50388390142131],[126.85674349718114,37.503858426212865],[126.85674907554585,37.50382182552527],[126.85676186810808,37.503791711848294],[126.85677725502184,37.5037651242482],[126.85678832482346,37.50374864955795],[126.85680964978788,37.5037158793758],[126.85685644328332,37.503671517512444],[126.85689812647487,37.50363805144316],[126.85695021964165,37.5036018050063],[126.85705057941306,37.50353717309114],[126.85714894606652,37.50347383609049],[126.85727825925458,37.503390651781324],[126.85731539739946,37.503368082082844],[126.85741118612086,37.50331008462993],[126.85754391679008,37.503213749632486],[126.85763778860608,37.50315259616662],[126.8576391472792,37.50315178692358],[126.85781850413287,37.503038569637376],[126.85785156748952,37.503017616607714],[126.857852813065,37.50301680722466],[126.85793150820845,37.502966987634814],[126.85794237840291,37.50296006316507],[126.85805557971653,37.50288930119014],[126.85817927186193,37.502801685160584],[126.85820010879253,37.50278711427993],[126.85830225163718,37.502717410837334],[126.85848366204918,37.502593743448465],[126.8585024683579,37.50257646706255],[126.85868029742674,37.50243270278581],[126.85899631050017,37.502177201113135],[126.85901057990853,37.5021667667538],[126.85903730633764,37.50214742754017],[126.8591042464616,37.50215282413984],[126.85915230938446,37.50221297861265],[126.85926456931111,37.502353489273446],[126.85940097382263,37.502524392491715],[126.85943775736006,37.502569036116945],[126.85957415754075,37.5027426421172],[126.85966067976527,37.50285888462914],[126.8597642448698,37.50299334767697],[126.85978455185665,37.50301968116969],[126.85979910508111,37.50303861957697],[126.85981918624701,37.503064772593156],[126.85987322570728,37.503134754805615],[126.85987321659854,37.50313478723062],[126.86001490715338,37.5033335188601],[126.86007570370583,37.50341882602758],[126.86017373603714,37.503549407791475],[126.86020701496884,37.50359386677762],[126.86021939022726,37.503610400467046],[126.86031079001447,37.503732009255856],[126.860326357793,37.50375284090336],[126.86036821102398,37.503808482458055],[126.8604098386373,37.503863853428705],[126.86042405290048,37.503882791351664],[126.86043079108353,37.50390802732653],[126.86044291931583,37.503953722378746],[126.86040538030493,37.50400935918436],[126.86047892386738,37.50399232805726],[126.86048548673061,37.503990533897394],[126.86045070827635,37.504021576783856],[126.86025544144518,37.50405630215374],[126.8602586328728,37.504043151408005],[126.8601676984787,37.50404646643077],[126.8601111471721,37.504048561147776],[126.860109743556,37.5040486198345],[126.86010922439637,37.50404864894599],[126.86001952858751,37.50405484852891],[126.86001828063768,37.50405691932814],[126.85999563708475,37.50406995666655],[126.85979516450485,37.50410629683398],[126.85961542368118,37.50412383072002],[126.85952100251166,37.50411695978635],[126.85939102048496,37.504135994724614],[126.85917070173456,37.504162107059514],[126.85915704244493,37.504163730415385],[126.85915697457793,37.50416373573958],[126.85915155117208,37.50416400220619],[126.85895056095212,37.50417186429411],[126.85883315962865,37.504176497842245],[126.85855115357131,37.504172615981865],[126.85843406281897,37.504180430029834],[126.85827422919718,37.50418456112351],[126.85817822242898,37.50419073453665],[126.8580913322169,37.50419632248001],[126.85808997628726,37.504195690135674],[126.85796725304384,37.50420365005198]]]},"properties":{"OBJECTID":86913,"PRESENT_SN":"11000UQ181PS201912151180","LCLAS_CL":"UQ1200","MLSFC_CL":"UQ1220","SCLAS_CL":"UQ1221","ATRB_SE":"UQ1221","WTNNC_SN":"11000AGZ201406248369","NTFC_SN":"11000NTC201403137120","DGM_NM":"고척제4 주택재개발정비사업","SIGNGU_SE":"11000","DRAWING_NO":" ","CREATE_DAT":1576368000000,"DGM_AR":41675.20310167,"DGM_LT":881.35676286,"SHAPE.AREA":41675.20310171,"SHAPE.LEN":881.356762863233}}]}