{"type":"FeatureCollection","features":[{"type":"Feature","id":85711,"geometry":{"type":"Polygon","coordinates":[[[127.15913028792427,37.55703789521625],[127.15897907609363,37.55671076669042],[127.15897414933278,37.556682121803675],[127.15884307173212,37.55651020757985],[127.15862461740892,37.55611919880243],[127.15860770028648,37.555877666075084],[127.15861536508413,37.5558090004904],[127.15864351024585,37.55579238483792],[127.15867836681912,37.55579206815337],[127.16499874405967,37.55667888986608],[127.16526138109731,37.55671222294562],[127.1655085060347,37.55674215322649],[127.16864144300445,37.55711779775806],[127.16868213966286,37.55714774308518],[127.16855814494818,37.559246682015],[127.1683692251688,37.559285961935686],[127.1683187759092,37.55924783129291],[127.16825735188195,37.559211247807404],[127.16818436493647,37.559166211317525],[127.16814774176723,37.55913626008156],[127.16812186286666,37.55910286991741],[127.16809925991726,37.559066682060646],[127.16804097553461,37.55896594363314],[127.16800765943599,37.558896254084345],[127.16798771252493,37.55883294269783],[127.16797212429302,37.55879566373851],[127.16794908863967,37.5587683962499],[127.1679188198966,37.558745733992964],[127.16787576278121,37.55872336004296],[127.16783680168643,37.55871071098665],[127.16778823998877,37.55870681502828],[127.16775452668504,37.55871289912186],[127.16771008718186,37.558730530959856],[127.16766894659355,37.55875572644491],[127.16757744419816,37.5588328897073],[127.16753993577122,37.55886285527932],[127.16750726175597,37.55887830812416],[127.16747683188835,37.558885018214696],[127.16743177639019,37.55888012609418],[127.16739598165167,37.55886630115816],[127.16734361055745,37.55882880348722],[127.1673085557998,37.55879137157919],[127.16728980594533,37.55875725042916],[127.16719005345458,37.55853322441709],[127.16713323853311,37.558379775621475],[127.16709822848914,37.55831125946948],[127.16705564228155,37.55824572719111],[127.16702003182509,37.558212710817855],[127.16697889509497,37.55818844176985],[127.16694117299316,37.55817290751583],[127.16684447741807,37.55815349148524],[127.16660274953112,37.55810986143583],[127.16650674986633,37.558098012462104],[127.16636628775841,37.55809334330514],[127.16629635016544,37.558095783495645],[127.16624046066879,37.55810469116804],[127.16616435329173,37.55813209727987],[127.16610945159796,37.558178484650945],[127.16607763084087,37.55822168637035],[127.16603897919153,37.55829805398953],[127.16601914335057,37.55833592315847],[127.1659954440456,37.55836676999243],[127.16595973435784,37.558391416725385],[127.16588179953524,37.55841143709049],[127.16578566323203,37.55844058271468],[127.16572211833784,37.55846815126067],[127.16567091596902,37.558498585778516],[127.16562018681347,37.55853838990038],[127.16557942841376,37.5585833157832],[127.16554120942358,37.55865085294374],[127.16552435473736,37.55870646736613],[127.16548753724575,37.55874219765627],[127.16545057002702,37.55876125984967],[127.1653994744074,37.55878890103507],[127.16525683957008,37.558863540412084],[127.16526395692394,37.558872160212815],[127.16531342009812,37.558925970737796],[127.16534756633509,37.55896241341108],[127.16569533370357,37.55931097341865],[127.1657016876738,37.55931826259237],[127.1657134921722,37.559333743183736],[127.16572303390882,37.55934958731616],[127.16573269080459,37.55936633227635],[127.16574155545922,37.55938307833753],[127.16575019356416,37.55939973461426],[127.16575758276021,37.55941459065007],[127.1657966866845,37.55949229157633],[127.16580509885378,37.55950912836077],[127.16581339784875,37.55952596530205],[127.16582113135227,37.55954298322732],[127.16582898080726,37.55956126237482],[127.16583569314201,37.55957711043474],[127.16584297414079,37.55959421908702],[127.16584969400034,37.55961349089256],[127.16585402603825,37.55962772048442],[127.16585780366297,37.55964717658204],[127.16586101183606,37.559665011692466],[127.16586433338699,37.55968293674379],[127.16591637652216,37.55998334400678],[127.16587977841913,37.560016100843995],[127.16269097118764,37.56028700906102],[127.16261267185935,37.56029675649199],[127.16253482968702,37.560308575521404],[127.16247136049378,37.5603200145125],[127.16245755803763,37.56032255609453],[127.16238096969674,37.560338517861105],[127.16230506485236,37.560356550920986],[127.16222995667812,37.560376655121495],[127.16209775182257,37.560107889887966],[127.16183379980563,37.559571349403384],[127.16126627869444,37.558066386017394],[127.16117782065167,37.55808785909848],[127.16100327043411,37.55807268807819],[127.16089430446233,37.55813653512606],[127.16065366926495,37.55823254470768],[127.16048558351554,37.558330348223485],[127.15997321721687,37.55821616082051],[127.15993024427661,37.558178287746465],[127.15983529745526,37.5581286804976],[127.15975041389703,37.55807455474189],[127.1596135901471,37.55802401233638],[127.15949474632225,37.55796623780568],[127.15941566088357,37.55787065855535],[127.15937961588814,37.55773727027566],[127.15927235237213,37.557428553679266],[127.15914913999359,37.5570897390948],[127.15913028792427,37.55703789521625]]]},"properties":{"OBJECTID":85711,"PRESENT_SN":"11000UQ181PS201912150618","LCLAS_CL":"UQ1200","MLSFC_CL":"UQ1240","SCLAS_CL":" ","ATRB_SE":"UQ1240","WTNNC_SN":"11000AGZ201303220088","NTFC_SN":"11000NTC201212056690","DGM_NM":"고덕주공2단지아파트 주택재건축정비","SIGNGU_SE":"11000","DRAWING_NO":" ","CREATE_DAT":1576368000000,"DGM_AR":246210.73068262,"DGM_LT":2733.85870042,"SHAPE.AREA":246210.73068246,"SHAPE.LEN":2733.85870042061}}]}