{"type":"FeatureCollection","features":[{"type":"Feature","id":84598,"geometry":{"type":"Polygon","coordinates":[[[127.03521120514982,37.57681388323023],[127.03521001582872,37.576817419042314],[127.03519023023935,37.57681817250618],[127.03519297723864,37.576809563693665],[127.03510761333946,37.576792829654764],[127.03506651602746,37.576783921569735],[127.03505896382141,37.57679078112702],[127.03504478957039,37.5768036575532],[127.03504478804855,37.57680278810125],[127.03504450463386,37.57667310642988],[127.03504491823111,37.576585620479854],[127.03504646302183,37.57649624213465],[127.0350467823567,37.576451012498],[127.03505203726266,37.57630451052164],[127.03505475778763,37.576060162070156],[127.03505484561794,37.57600358005915],[127.03505812135059,37.57573517508224],[127.03508274646506,37.57460776283646],[127.03508623691707,37.57431367959569],[127.03509085192145,37.574214885024816],[127.03514334300388,37.57417428781568],[127.0373152361828,37.57422779139597],[127.0373536279841,37.574815515366616],[127.03742096643768,37.57587513326892],[127.03746711734081,37.576690312436696],[127.03742003997658,37.57672780962046],[127.0371865312236,37.57673876432121],[127.03655136750601,37.576768559136866],[127.03649045850014,37.57677022149643],[127.03634769674603,37.57677411902268],[127.03626876956262,37.576777123646735],[127.03625161935341,37.57677777650321],[127.03625200493991,37.57677682584856],[127.03626051046177,37.57675586909301],[127.03626850148774,37.576736181978795],[127.03626239581895,37.576735014294776],[127.0362501607065,37.576732673526855],[127.03625875270569,37.57670780375958],[127.03625735000549,37.57670759874732],[127.03617508884084,37.57669557492671],[127.03607097200079,37.5766777217549],[127.03607070594892,37.576677675882415],[127.03607797876947,37.57673767948341],[127.03610987811872,37.57678291049665],[127.03611005709965,37.57678316452252],[127.03606946486808,37.57678470988889],[127.03606680051944,37.576778419977934],[127.03606633700694,37.57677732631544],[127.03600259774065,37.5767664430086],[127.03599015050831,37.57678772795481],[127.03596877896419,37.57678854147734],[127.03596395313147,37.57678872488481],[127.0359824379252,37.57674608659088],[127.03598876108343,37.576727910036546],[127.03598933427162,37.57672626286507],[127.03591121646059,37.57671186985713],[127.03585608305404,37.57670584929315],[127.0358476042085,37.576730899195624],[127.03576167117707,37.57670749849164],[127.0357336252137,37.576770395510714],[127.03572373835807,37.57679611254239],[127.03569333501245,37.57679869726884],[127.03568632338336,37.57679929304867],[127.03569470658168,37.576762984453154],[127.035618701692,37.576749697052016],[127.03556271773274,37.576740351954975],[127.03554016996195,37.57679582320992],[127.03553687986962,37.57680497998708],[127.03552536941056,37.576805418479914],[127.03549460768464,37.576806588708926],[127.0354993237352,37.57679151023649],[127.03541076588077,37.576771389625215],[127.03532053332124,37.57675276506522],[127.03523414935756,37.57673323835023],[127.03521120514982,37.57681388323023]]]},"properties":{"OBJECTID":84598,"PRESENT_SN":"11000UQ181PS201912151076","LCLAS_CL":"UQ1200","MLSFC_CL":"UQ1220","SCLAS_CL":"UQ1221","ATRB_SE":"UQ1221","WTNNC_SN":"11000AGZ201108048006","NTFC_SN":"11000NTC201104076043","DGM_NM":"용두제1주택재개발정비구역","SIGNGU_SE":"11000","DRAWING_NO":" ","CREATE_DAT":1576368000000,"DGM_AR":58262.40677348,"DGM_LT":1046.60494113,"SHAPE.AREA":58262.406773395,"SHAPE.LEN":1046.6049411317101}}]}