{"type":"Feature","id":"moa-urban-8881","properties":{"id":"moa-urban-8881","project_name":"중화동 329-38번지 일대","district":"중랑구","status":"관리지역고시","data_reference_date":"2026-04-16","source_url":"https://urban.seoul.go.kr/view/html/PMNU1100000001?seq=8881","source_api_url":"https://urban.seoul.go.kr/bsns/getBsnsInfo.json","present_sn":"11260UQ120PS202604200001","source_crs":"EPSG:5174","coordinate_transformation":"Official supplied boundary transformed locally from EPSG:5174 using the official website Proj4 definition to EPSG:4326; no geocoding or centroid inference.","point_coordinates":null},"geometry":{"type":"Polygon","coordinates":[[[127.0766055454553,37.60090142170803],[127.07667050252618,37.60090443470081],[127.07676203828525,37.60090727935244],[127.07689711671412,37.600912636906514],[127.07697394172891,37.600915886319044],[127.07708270193186,37.600920268499706],[127.07710912391329,37.60091183730009],[127.07711161131175,37.60089678027872],[127.0771275444491,37.60082861159899],[127.07714477968933,37.60073680929351],[127.07716433167907,37.60064153671405],[127.0772020605206,37.600455218033915],[127.07723780968047,37.600272198204514],[127.07725620422706,37.6001748000244],[127.07726531573853,37.60014708083351],[127.07728211157243,37.60004774655919],[127.07729906336061,37.59996712560367],[127.07727110785557,37.5999246892155],[127.07719151150702,37.59981051360855],[127.07705886746989,37.599871277095794],[127.07687676179565,37.5999561913449],[127.07674981261788,37.600016366109436],[127.07663369463346,37.60007090179816],[127.07659638860402,37.600088683913484],[127.07650438872132,37.60013125799414],[127.0763789095324,37.60018989975278],[127.07633457452687,37.60021103699951],[127.07629875213439,37.60012505183763],[127.07621946118662,37.600043238704664],[127.07607016305329,37.59988854326545],[127.07604199368441,37.59985802672961],[127.07597477382463,37.59978790056997],[127.07589121115849,37.59970162913751],[127.07583399609835,37.5996427120321],[127.07586016765389,37.59964466870505],[127.07597138114836,37.599577630317086],[127.07608209208712,37.59951101830627],[127.07614576256175,37.599473110638186],[127.07624460581319,37.59941335975712],[127.07634268134115,37.59935493372498],[127.0764345194624,37.59929983619856],[127.07648957668879,37.599266492786214],[127.07658676741168,37.59920804008245],[127.07662831581011,37.59918550708562],[127.0767395955853,37.59911818051328],[127.07678016828767,37.599095035415736],[127.0768620236229,37.59904537684938],[127.07679372619124,37.598972368687235],[127.07672835352824,37.598902430073665],[127.0766616321423,37.59883118675653],[127.07659595313332,37.5987615284687],[127.07652899338521,37.59868947344028],[127.07646252150259,37.59861822984929],[127.07638750260492,37.59853798180641],[127.07633257585385,37.59848060416113],[127.07638576181998,37.598448371990536],[127.07649107636273,37.59838429206754],[127.07641003034202,37.59830094757933],[127.07633919819847,37.59822861649028],[127.07627040609846,37.598157923855965],[127.07620179394034,37.59808699591007],[127.07613434970862,37.59801639244017],[127.07615372405003,37.59800456829635],[127.07608827193255,37.59793299047715],[127.07605758106581,37.597951974666],[127.07598490068663,37.59787648207437],[127.07596388491194,37.59785470053701],[127.07584917547081,37.59792225469873],[127.07577904475477,37.59784837223397],[127.07570686318574,37.59777306836239],[127.07563477121003,37.59769775537954],[127.0755636774896,37.597622945375306],[127.07554245843086,37.597600371023766],[127.07556079182586,37.59758939545487],[127.07549290456687,37.59751630517498],[127.07536866915007,37.59738269410771],[127.07527503168191,37.59743732343504],[127.07518045376952,37.59749264703198],[127.07507431073736,37.597554699098296],[127.07503670395687,37.59757665156872],[127.07492076445257,37.597644302903944],[127.07480598534221,37.5977107289673],[127.07477027968098,37.59773156385323],[127.0746516632758,37.597800875294595],[127.07454862078906,37.597861636557624],[127.07451136436426,37.597883211130736],[127.07439762565996,37.59795014070208],[127.07439132211894,37.597953982784055],[127.07430956747503,37.59800284761977],[127.07418057821019,37.59808315698102],[127.0740430031551,37.59816242633495],[127.07404043370654,37.59816349107426],[127.07396527484086,37.59820669344046],[127.07389534409359,37.59824643277599],[127.07382150803548,37.59828884047243],[127.07374109779872,37.59833524440326],[127.07373599340865,37.59833794957606],[127.07366906211006,37.598376551702266],[127.0735981467064,37.598417147396916],[127.07353739458384,37.59845216876985],[127.07351058200987,37.59846724867003],[127.07342770421295,37.59851511258343],[127.07339054863627,37.59853625426709],[127.07329536788815,37.59859051355082],[127.0732537196656,37.59861474739552],[127.07320357031251,37.59864334714878],[127.07319879417723,37.59864595389167],[127.0731060685639,37.598698283426145],[127.07300149358569,37.59875770179426],[127.07292302805664,37.598802040734554],[127.07291141656093,37.59884582564488],[127.07296121178197,37.59891203582167],[127.07302131506526,37.59899233111415],[127.07304385466259,37.599022572482724],[127.07307386608244,37.5990626210273],[127.0730751363454,37.59906470152903],[127.0731009055517,37.59909731051484],[127.0731513006872,37.59916172818861],[127.07316812637346,37.59918489127024],[127.07321513462193,37.59924809374301],[127.07333495277015,37.59917765589947],[127.07334735635457,37.59916998999295],[127.0734760270617,37.59909701575548],[127.07354832069059,37.59917092438197],[127.07362058067216,37.5992461943697],[127.07353980717336,37.59929403905066],[127.07350182602106,37.59931665798223],[127.0734735100613,37.59933368581386],[127.07345740494938,37.599342803671725],[127.07343917258353,37.59935362658319],[127.0733374293907,37.59941456617899],[127.07332965473458,37.59941962542609],[127.07332230951089,37.59942377441818],[127.07331058487314,37.59943097950628],[127.07328389764295,37.59944728551476],[127.07330038046187,37.59946588079907],[127.07336658547842,37.599544577456406],[127.07339215957656,37.59957417721017],[127.07343020445319,37.59961877974406],[127.0734730786018,37.59966881315213],[127.0734910725638,37.599692561112626],[127.07354171750801,37.599758094778885],[127.07356380458937,37.59978833632016],[127.0736326088405,37.59988444724484],[127.07370753062835,37.59999477190302],[127.07374980628506,37.60005901317878],[127.07379450746755,37.60012427106462],[127.0738723131652,37.600254820921826],[127.07389953672082,37.600303367228676],[127.07394457167476,37.60038673461333],[127.07396352863474,37.6004234650763],[127.07398180561117,37.600459619324205],[127.07401643723271,37.60053355076134],[127.07404602054031,37.600599204352754],[127.0740707814244,37.60065366258014],[127.0740860441675,37.60068762026416],[127.07413008863305,37.60078839517637],[127.074171362304,37.60089858885193],[127.07417377974633,37.600904146430025],[127.07418126760017,37.60093011716517],[127.07421827428007,37.60103776997289],[127.07424056537415,37.60110242881067],[127.07425464631966,37.60114364912232],[127.07427349983267,37.6012017139736],[127.07427918076874,37.601221072598904],[127.07429246102383,37.60126566307555],[127.07432376457372,37.60137619439709],[127.0743953191071,37.60142182107186],[127.07440798789906,37.60143036357859],[127.07452920265506,37.60143201134209],[127.07465606875519,37.60143423210865],[127.07470108295237,37.60143472677798],[127.07483792552118,37.60143677898615],[127.07494628749085,37.601438596481394],[127.07498303509853,37.6014391682641],[127.07507951713032,37.601440119076955],[127.07517744938927,37.601441806811074],[127.07522398116211,37.60144242737252],[127.0753481858633,37.60144439678174],[127.0754547690996,37.60144534907796],[127.07547259391504,37.60144586949119],[127.07550356608236,37.60144633751331],[127.0756250746545,37.60144731723973],[127.07582550164366,37.60144945450237],[127.07592377479897,37.60145115131341],[127.07600510427709,37.60145130814452],[127.07603214015916,37.601305297583906],[127.07604967046493,37.60121381060302],[127.07605486492936,37.60118663367243],[127.0760714519974,37.60110321108102],[127.07608942846473,37.60100386723634],[127.07609445809672,37.60097722018526],[127.0761083354159,37.60089740503235],[127.07610861965117,37.60089740485273],[127.07620418386652,37.60089734622547],[127.07620105793802,37.60090820505034],[127.07636799406923,37.60092896788015],[127.07652756840228,37.600947401605964],[127.07653783422067,37.60089713914278],[127.0766055454553,37.60090142170803]]]}}