{"type":"Feature","id":"moa-urban-8871","properties":{"id":"moa-urban-8871","project_name":"면목3,8동 44-6번지 일대","district":"중랑구","status":"관리지역고시","data_reference_date":"2025-11-30","source_url":"https://urban.seoul.go.kr/view/html/PMNU1100000001?seq=8871","source_api_url":"https://urban.seoul.go.kr/bsns/getBsnsInfo.json","present_sn":"11000UQ120PS202503070024","source_crs":"EPSG:5174","coordinate_transformation":"Official supplied boundary transformed locally from EPSG:5174 using the official website Proj4 definition to EPSG:4326; no geocoding or centroid inference.","point_coordinates":null},"geometry":{"type":"Polygon","coordinates":[[[127.09561149995801,37.58749856853677],[127.0954317184726,37.587166707689775],[127.09541324373663,37.58713290841301],[127.09520208783485,37.586744481264084],[127.09511864468386,37.586590614128454],[127.09505349154504,37.58646769029279],[127.0949853431718,37.58633959713454],[127.09487051401257,37.586346832809774],[127.09483080061636,37.58646786653054],[127.09478921353988,37.58659362287865],[127.09474040314628,37.58674681090412],[127.09472907952453,37.58678181411174],[127.09468274861952,37.58692608940721],[127.09464598199257,37.587040966999744],[127.09456805249587,37.58728654690835],[127.09453334913623,37.58739473752295],[127.09444572779226,37.587668138382206],[127.09438139563098,37.58786873927351],[127.09434672684021,37.58797784880031],[127.09433027749877,37.588033984092014],[127.09425698785796,37.5882702889711],[127.09425039011276,37.58829104383848],[127.09424178508063,37.58831830539372],[127.09420614709447,37.58843138897608],[127.09419634719131,37.58846294015398],[127.09417608199514,37.58852817836345],[127.09414212935626,37.588621799325004],[127.09407577718743,37.58882911394047],[127.09404201998593,37.588934483558305],[127.09401228022243,37.58902917334613],[127.0939985027519,37.58906723273174],[127.09398067147552,37.58912327894873],[127.09396751018025,37.58916522109222],[127.0939515491991,37.589213852535785],[127.09395158317504,37.58921385971707],[127.0938760036444,37.589449823732046],[127.09382873672214,37.58959979358456],[127.09388427684245,37.58967609058038],[127.09397785770324,37.58969524433502],[127.09413759368832,37.58973116751373],[127.09419793660523,37.589744887200034],[127.0942957767757,37.589765578042126],[127.09454645791618,37.58982211576369],[127.09470127961885,37.58985733027335],[127.09474483808646,37.58986721572298],[127.09492712437948,37.589908390781254],[127.09508533274295,37.5899443138845],[127.09513000091209,37.589954198312206],[127.09528687284308,37.58998966270257],[127.09538402446829,37.590011551498066],[127.09541131918175,37.5900175663886],[127.09550241203527,37.590038405753425],[127.09552736233768,37.59004388189279],[127.09562124209135,37.59006591725595],[127.09564301050263,37.59007116165132],[127.09573892838098,37.590093204305454],[127.09586352317324,37.59012183719318],[127.0960794257289,37.59016991216986],[127.09617638533692,37.59019180046612],[127.09637990825641,37.59023719087462],[127.09649223685902,37.59026236416335],[127.09669506993599,37.59030810596673],[127.0968967592844,37.590353533000574],[127.09702936105312,37.59038300511178],[127.09706508267035,37.59039111209506],[127.09714413870759,37.59032197859617],[127.09707601005256,37.59019715729137],[127.09703932874845,37.59012909055701],[127.09702901421237,37.59011156574092],[127.09700571613331,37.59007006721452],[127.09697746372059,37.59001466148587],[127.09693609269142,37.58993584075201],[127.0969227468794,37.58991186732564],[127.09688141266808,37.58983519088506],[127.09682227303023,37.589726660974975],[127.09680866561321,37.58970169666279],[127.09675054848557,37.58959574270524],[127.09669130941988,37.58948707855838],[127.09669136374322,37.58948705959391],[127.09667236526684,37.5894518734339],[127.09665169928952,37.58941422892595],[127.09662161267244,37.589358437160364],[127.09656199854955,37.58925014174898],[127.09651149305475,37.589154921275785],[127.09646136411752,37.589061898879585],[127.09640894324777,37.58896497703842],[127.09640247376461,37.58895255765733],[127.09628334430776,37.588732362546345],[127.09626911336295,37.58870647966349],[127.09613396089209,37.58845721345782],[127.09603082595918,37.58826862081478],[127.09602633179851,37.588260263272254],[127.09590572461227,37.5880435467382],[127.09586055673566,37.58795985430648],[127.0957629574974,37.58777849189846],[127.09574920246662,37.587752626588234],[127.09561149995801,37.58749856853677]]]}}