{"type":"Feature","id":"moa-urban-8874","properties":{"id":"moa-urban-8874","project_name":"면목3,8동 453-1번지 일대","district":"중랑구","status":"관리지역고시","data_reference_date":"2026-08-06","source_url":"https://urban.seoul.go.kr/view/html/PMNU1100000001?seq=8874","source_api_url":"https://urban.seoul.go.kr/bsns/getBsnsInfo.json","present_sn":"11260UQ120PS202608140002","source_crs":"EPSG:5174","coordinate_transformation":"Official supplied boundary transformed locally from EPSG:5174 using the official website Proj4 definition to EPSG:4326; no geocoding or centroid inference.","point_coordinates":null},"geometry":{"type":"Polygon","coordinates":[[[127.09326000020559,37.58195096297091],[127.09324254651273,37.5818155313108],[127.09323486583156,37.58175617131099],[127.09322248280293,37.58166581203429],[127.09321976982187,37.58164146949954],[127.09320952110546,37.581565145924145],[127.09319565052404,37.5814618496374],[127.09319364617674,37.581442975536206],[127.09318608784248,37.581391003520075],[127.0931486543078,37.58134935296577],[127.09313064228215,37.581330824651644],[127.09308338194893,37.58127984748583],[127.09305372668148,37.58124787646774],[127.09300084517754,37.58119200226215],[127.09299869526617,37.58118365178709],[127.09293243902384,37.58118885675098],[127.09287612178545,37.58119328814849],[127.09286145079459,37.581194272565895],[127.09285695288291,37.581163669548516],[127.09275263794757,37.581171291464535],[127.09264698720793,37.58117900441816],[127.09263960930029,37.58113075960469],[127.09257290571203,37.58113581424743],[127.09255593648665,37.58113675535016],[127.09244614297968,37.58114507497937],[127.09244174423861,37.581112093266114],[127.09232794542179,37.58112234398042],[127.09232422026594,37.581094893799204],[127.09229461973237,37.581097421305216],[127.09218122778924,37.581107103944014],[127.09217676071256,37.58108302401588],[127.09216273509182,37.58108405290017],[127.09205319275496,37.581094083844704],[127.09204888892621,37.58106454381061],[127.0920437369236,37.58102920658093],[127.09197760885888,37.58103455957342],[127.09195784428456,37.581036286590034],[127.09184727046318,37.58104523695043],[127.091728252027,37.58105498652821],[127.0917218678364,37.58105574823475],[127.09173575628013,37.58116621653862],[127.0916064364885,37.581176865841584],[127.09159592051253,37.58107462095267],[127.09146880353308,37.581081159927486],[127.09147582577481,37.58113741305046],[127.09141110377651,37.58114192313315],[127.09141110491726,37.5811419303402],[127.09140864842944,37.58114209438814],[127.09127231268046,37.58115159450392],[127.0912582169083,37.581031937145056],[127.09114717740663,37.5810396888922],[127.09103613788172,37.58104744053494],[127.09105156193714,37.58116481831896],[127.09090401889509,37.58117870620201],[127.09090046836106,37.58115010528439],[127.09083472929464,37.58115618894289],[127.09075983696137,37.58116312010447],[127.0907140128738,37.58116635323635],[127.0907077341433,37.5811226691636],[127.09060630873974,37.58113264758376],[127.09059453572186,37.58113344933528],[127.09059263217608,37.581120705422016],[127.0905701372861,37.581122764027214],[127.09045469700581,37.58113332951925],[127.09045262075567,37.58112004153819],[127.09032067566454,37.58113179061358],[127.09025250513295,37.58113625670483],[127.09011510494152,37.581149478257956],[127.090119604346,37.581182288795276],[127.09002922700745,37.581191249322934],[127.09001908398169,37.581191851578055],[127.09002187587905,37.58121585175485],[127.0899873368667,37.58121831931554],[127.08989609617652,37.5812248387159],[127.0898851262446,37.581225054154515],[127.08988626032558,37.58123629761214],[127.08984012068488,37.58124081905116],[127.08977627540014,37.58124587628219],[127.08975439319823,37.581247208079105],[127.08976631067009,37.58134000073868],[127.08977892955208,37.58143234237811],[127.08978175756793,37.58144959414701],[127.0897816266489,37.58145377482025],[127.08978644767282,37.58149061253589],[127.08979791954094,37.58157029617454],[127.08980911014855,37.58165145763842],[127.08981124602262,37.58166738547413],[127.08982193827077,37.5817483310715],[127.08983355245671,37.581833420512744],[127.08983710507204,37.58186026723801],[127.08984925215752,37.58194600498731],[127.0898613100211,37.58203286002347],[127.08987066864285,37.58210606713986],[127.08991193220935,37.58213269642524],[127.08992649055209,37.58213200077432],[127.08999783019657,37.582126036859776],[127.09011107644287,37.5821160591029],[127.09012647164661,37.58211459696122],[127.09014509284464,37.58211265487314],[127.09025454822346,37.58210419348094],[127.09033443470565,37.58209766432704],[127.09048488948953,37.5820839911994],[127.09056655390417,37.5820779110415],[127.0906769816087,37.58206843941991],[127.09071222109931,37.582065403507244],[127.0908230563104,37.5820559134214],[127.09091127381039,37.582048269361856],[127.09101743900105,37.582037877138795],[127.09103249033247,37.582142600840236],[127.09105062001805,37.58226911254812],[127.09105291571909,37.58228591419468],[127.09107388293417,37.58243728194505],[127.09107535576217,37.58244761513613],[127.09108353502268,37.582508713794795],[127.09108596840775,37.582527028991855],[127.09110063269912,37.582633604495385],[127.09110063892787,37.58263880317918],[127.09111330033363,37.58272727939296],[127.09111584532731,37.5827442430252],[127.091129357844,37.582843809725475],[127.0911311530858,37.58285864759959],[127.09113140110446,37.582867215786685],[127.09114538481037,37.58296315115243],[127.09114641856304,37.58298496323444],[127.09116058651068,37.583074005915094],[127.09117085620471,37.58315050983093],[127.09118127322824,37.58322712175121],[127.09118935963726,37.58328617522717],[127.09120693416114,37.58340245210956],[127.09121454131392,37.58345834348611],[127.09122532167527,37.58353575699971],[127.0912360204192,37.58361117939487],[127.09124639526216,37.5836902690461],[127.09125616400925,37.583764295616426],[127.09126337474493,37.583819989070825],[127.09126744863524,37.58385050416108],[127.09127273579051,37.583890110175155],[127.09127525369489,37.583908964990094],[127.09128167643371,37.58395707724667],[127.09128575490992,37.58398762747053],[127.09130220063439,37.584106436952695],[127.09130819545207,37.584158320156554],[127.09130968802211,37.58417560893574],[127.0913213366141,37.584259337679875],[127.091330160969,37.58432932853965],[127.09136096882956,37.584349631332834],[127.09137467914641,37.584358919069324],[127.09139900734975,37.58435729679462],[127.09144966644176,37.58435302358099],[127.09156105981567,37.584343622477626],[127.09176918582158,37.58432550690394],[127.09181410512396,37.584321490197844],[127.09202362381338,37.58430358033697],[127.0920642646818,37.58430052186049],[127.0921553823196,37.5842922890078],[127.092185902752,37.584290130234976],[127.0922323624251,37.58428667079776],[127.09229693365816,37.58428073772548],[127.09235848325261,37.58427582505685],[127.09241624236356,37.58423552455959],[127.0924887567149,37.58424443350906],[127.09250324647897,37.5842335834853],[127.09251562221691,37.58422529388847],[127.09283567503402,37.58419962994386],[127.09284450500907,37.58419892034441],[127.09290148058105,37.58419401093109],[127.09291866360276,37.584200691951686],[127.09297266949763,37.58420224487016],[127.09298814546062,37.584201710308236],[127.0930178396869,37.5841998222562],[127.09301783967591,37.58419981324635],[127.0930181226934,37.58419979500727],[127.09309761670178,37.58419472388571],[127.09311089742798,37.584176648820495],[127.09312753898828,37.58417568987269],[127.0931307290887,37.58417542611126],[127.09313073137511,37.58417544412919],[127.09317131515544,37.58417208799061],[127.09332733417308,37.584159785431154],[127.0933552767508,37.58416973760764],[127.09345242505026,37.584158706006676],[127.09344657601167,37.584149248410476],[127.0937800233205,37.584119464781786],[127.09368775898228,37.583941096646534],[127.09365479306734,37.58387877417222],[127.0936435358619,37.583857483656374],[127.09359359047401,37.583760621612186],[127.09355127628173,37.58365486086728],[127.09354227009888,37.58363192879201],[127.09353068360862,37.58360060154031],[127.0935106703011,37.58354791848277],[127.0934714803669,37.583423171501096],[127.09346921215952,37.58341078471386],[127.09346370974694,37.58339222869323],[127.09345658323761,37.58336029429871],[127.09341826294461,37.583187623184614],[127.09341162818015,37.583132028516715],[127.09338672640293,37.58295212103345],[127.0933758306731,37.58286549071537],[127.09336867751058,37.58281178851561],[127.09334891567606,37.582677836303944],[127.09334353693379,37.582640071160576],[127.09332717955736,37.58253104657252],[127.09330981018594,37.58239995762236],[127.09330459936766,37.582360615619486],[127.09331376108335,37.5823536528847],[127.09330419467898,37.582279959675205],[127.09328797022926,37.58215921314459],[127.09327263227348,37.5820412229372],[127.09326000020559,37.58195096297091]]]}}