{"type":"Feature","id":"moa-urban-8800","properties":{"id":"moa-urban-8800","project_name":"자양1동 799번지 일대 모아타운","district":"광진구","status":"관리지역고시","data_reference_date":"2026-07-09","source_url":"https://urban.seoul.go.kr/view/html/PMNU1100000001?seq=8800","source_api_url":"https://urban.seoul.go.kr/bsns/getBsnsInfo.json","present_sn":"11000UQ120PS202503070083","source_crs":"EPSG:5174","coordinate_transformation":"Official supplied boundary transformed locally from EPSG:5174 using the official website Proj4 definition to EPSG:4326; no geocoding or centroid inference.","point_coordinates":null},"geometry":{"type":"Polygon","coordinates":[[[127.0807471473276,37.53593813379969],[127.0807099222369,37.53584082447913],[127.08070110665268,37.53581775595582],[127.08065312602017,37.53569229778996],[127.08064361841728,37.53566744575898],[127.0805977709695,37.5355475903157],[127.08056503908645,37.53546201787545],[127.08053590135776,37.53544787376101],[127.08052578090927,37.53542117509346],[127.08054062132103,37.53539609052386],[127.08054364616925,37.5353891148125],[127.08058641209142,37.53528024620892],[127.08030168253144,37.535208230892145],[127.08029827605493,37.53520736821098],[127.08016620443583,37.535173939287134],[127.08003752812846,37.53514140895131],[127.07998761939719,37.53512878316708],[127.07996362700115,37.53512271740124],[127.07990251430559,37.535107260893554],[127.07973569936176,37.535065024807615],[127.07970740654672,37.53505792569541],[127.07966972045281,37.53504840011078],[127.07950482964456,37.53500661292157],[127.07942164874953,37.53498558457667],[127.07930383756012,37.534955839351845],[127.07926773592187,37.53494667299247],[127.07918828994474,37.53492672321602],[127.0790682156481,37.53489652874747],[127.07892482830016,37.53486049298235],[127.07875665676119,37.53481825640039],[127.0787337963006,37.53481250499168],[127.07869056523779,37.534801721328634],[127.07856607763371,37.53477035794117],[127.07843502637998,37.53473746700853],[127.07836123937551,37.534718954578466],[127.07828869723541,37.534700711591036],[127.07816522860418,37.53466970751533],[127.07810411674009,37.53465434017435],[127.07809253261041,37.53461155050243],[127.07808537774862,37.53458515603639],[127.07807913133375,37.53456200455698],[127.0780576666079,37.53448264095557],[127.0780385870842,37.534412285737446],[127.07793838010289,37.53433630677958],[127.07788040727712,37.53429228570101],[127.07777385980869,37.53421144533691],[127.07772381313133,37.53417345571837],[127.07770694222766,37.53416067249666],[127.07767594759117,37.53416636874579],[127.07748907455114,37.53420054665189],[127.07744348743859,37.53420886510667],[127.07727686247216,37.53423924548589],[127.07717358440325,37.53425814245162],[127.07702539773673,37.5342851769876],[127.07697030845364,37.53429521322175],[127.0768231357367,37.534318102286484],[127.0766727954489,37.534341443680155],[127.07662290827969,37.53434922395828],[127.07641736386265,37.53438115955662],[127.07619077835919,37.53441635167877],[127.0762349384349,37.53456507775396],[127.07627410330511,37.53469659799809],[127.07631463104633,37.5348331629257],[127.07635277468395,37.534961440208534],[127.0763953456569,37.53510440085965],[127.07644007396833,37.53525483836724],[127.07644302575109,37.53526492761896],[127.07646504854992,37.53534492725096],[127.07647194626931,37.535368118043216],[127.07650602631963,37.53548277482619],[127.07653897114317,37.53559353101766],[127.07654691792382,37.535620294477134],[127.0765802488898,37.53573238387902],[127.07661335292053,37.53584372558929],[127.07662102727214,37.535869552182966],[127.07665552778293,37.53598557815497],[127.07666750478383,37.536025853937275],[127.07668803466761,37.53609919973192],[127.07672124434275,37.53621401917095],[127.07673110963839,37.53624701626567],[127.07676698348702,37.53636697866261],[127.07680003069039,37.53647750945073],[127.07683335044291,37.53658894104669],[127.07686665895324,37.53670034560848],[127.07690010380755,37.53681221858804],[127.07693461589375,37.53692764078683],[127.07707691451023,37.53690210579029],[127.07720184854195,37.53687970819712],[127.07720223262247,37.536879104285674],[127.07727589834464,37.53686537998082],[127.07742577499612,37.5368374791008],[127.0775620457412,37.536803811426864],[127.07768191456223,37.53677418161311],[127.07770502412318,37.536768481441506],[127.07790252409684,37.53671967321663],[127.07804465378878,37.53668455059705],[127.07805882716681,37.53668105456921],[127.0782339977101,37.53663776532637],[127.07825669996102,37.536632155410594],[127.07824961007803,37.53661421223612],[127.07822696783805,37.536556896758256],[127.07814063039943,37.53633830882031],[127.0781304891149,37.53631264610679],[127.07822328838354,37.53631163982863],[127.07824501888084,37.53631841920074],[127.07844390050623,37.53632745292519],[127.0786769983766,37.53633803169315],[127.07882687533109,37.536344835286016],[127.07893953868977,37.53632906618388],[127.07911649657379,37.53634134771085],[127.07920464946534,37.5363549127722],[127.07923531626818,37.536359631819195],[127.07950659883045,37.53640138520527],[127.07961694288848,37.53641835907618],[127.07969933283232,37.53643882017565],[127.0798315706709,37.53647779061045],[127.07995805025527,37.5365605710026],[127.08005826546312,37.53659644501109],[127.08013760917109,37.53662484557835],[127.0801666359023,37.536608347089484],[127.0801766987375,37.5364724345994],[127.08018405079183,37.53637331145749],[127.08018743113178,37.53632770093725],[127.08019470480012,37.5362293797283],[127.08019783973803,37.53618712556936],[127.08025598050087,37.536172954744856],[127.08029449590725,37.53616355873239],[127.08030817141234,37.5361602159353],[127.08047236796844,37.53612017426552],[127.08050450354062,37.53611219700854],[127.0806135793294,37.536085499662214],[127.08076164536772,37.536049252562805],[127.08078029943908,37.536024823131775],[127.0807471473276,37.53593813379969]]]}}