{"type":"Feature","id":"moa-urban-8775","properties":{"id":"moa-urban-8775","project_name":"천호동 338번지 일대","district":"강동구","status":"관리지역고시","data_reference_date":"2026-06-25","source_url":"https://urban.seoul.go.kr/view/html/PMNU1100000001?seq=8775","source_api_url":"https://urban.seoul.go.kr/bsns/getBsnsInfo.json","present_sn":"11000UQ120PS202503070098","source_crs":"EPSG:5174","coordinate_transformation":"Official supplied boundary transformed locally from EPSG:5174 using the official website Proj4 definition to EPSG:4326; no geocoding or centroid inference.","point_coordinates":null},"geometry":{"type":"Polygon","coordinates":[[[127.12045288476673,37.54284570688394],[127.1205023807605,37.542947108699316],[127.12056061821164,37.54306643141662],[127.12058305044026,37.543112377400966],[127.12062466823573,37.5431976413312],[127.1206283918598,37.54320529600527],[127.12067728662153,37.543305445968734],[127.12073184636183,37.54341718595468],[127.12075900152234,37.543472866855026],[127.12078049175852,37.54351689463737],[127.1208210542386,37.54360000618787],[127.12083829867578,37.54363531664867],[127.12097909313167,37.54392375291905],[127.12099210324071,37.54395041811915],[127.12121821589784,37.5439472969628],[127.12135671455249,37.54394538154468],[127.12135524920602,37.54409031654001],[127.12148797913494,37.54408960514043],[127.121614146127,37.54408893630573],[127.12161370665576,37.544061861955484],[127.12175742608571,37.54396386802412],[127.12183428725605,37.54391144212871],[127.12194156492745,37.54383827137278],[127.12205774921912,37.5437590367641],[127.12209550147848,37.543733319962165],[127.12218039861114,37.543675398595376],[127.1222926036974,37.5435988527746],[127.12235583269812,37.543555720691955],[127.12241896524708,37.54349494725711],[127.12254366824172,37.543436237045256],[127.12255155769463,37.5434098479233],[127.12248848443934,37.54333212092763],[127.12248235058705,37.5433245588805],[127.12244041143178,37.54327287589822],[127.12242996917561,37.54326001141868],[127.12238162415379,37.54320043327613],[127.12237687356117,37.54319458169189],[127.12231054667902,37.54311283950474],[127.12224728118603,37.54303487831471],[127.12217731512067,37.542948643821745],[127.12202968514111,37.542766713139336],[127.12191359753294,37.542623654939845],[127.12176641099926,37.54244226406037],[127.12175113152895,37.542439864959405],[127.12174015295531,37.542438146231916],[127.12167401713516,37.54247461361074],[127.12165365133534,37.54248272523694],[127.12156376356408,37.54251851394026],[127.12153853238473,37.54251970186505],[127.12151319342333,37.542524241583564],[127.12150606596049,37.542524969618995],[127.12128975149781,37.54254609221393],[127.12111423018003,37.542603663276545],[127.12095804614499,37.5426610433334],[127.12080594520336,37.54271038221215],[127.12074136829634,37.542731440533025],[127.12071309453738,37.54274056909086],[127.12060621998437,37.54277527499817],[127.12046315494655,37.542821730158686],[127.12045288476673,37.54284570688394]]]}}