{"type":"Feature","id":"moa-urban-8878","properties":{"id":"moa-urban-8878","project_name":"묵2동 243-7","district":"중랑구","status":"관리지역고시","data_reference_date":"2026-05-14","source_url":"https://urban.seoul.go.kr/view/html/PMNU1100000001?seq=8878","source_api_url":"https://urban.seoul.go.kr/bsns/getBsnsInfo.json","present_sn":"11000UQ120PS202503070034","source_crs":"EPSG:5174","coordinate_transformation":"Official supplied boundary transformed locally from EPSG:5174 using the official website Proj4 definition to EPSG:4326; no geocoding or centroid inference.","point_coordinates":null},"geometry":{"type":"Polygon","coordinates":[[[127.0733304492306,37.60761580657692],[127.0733162028773,37.60767542422167],[127.07331314743627,37.607689652588014],[127.07330072119953,37.607781290027155],[127.0732953879188,37.607817557800374],[127.07327014684574,37.60799726501545],[127.07326484937735,37.60802368503015],[127.07325334364715,37.60810694276643],[127.07324936557416,37.608127487575054],[127.07324449589451,37.60816304328627],[127.0732399273719,37.608193787569945],[127.07323222338678,37.60824982432425],[127.0732172738799,37.60835581592264],[127.07328352290244,37.60836374034017],[127.07337029597768,37.60837444527199],[127.07347635804679,37.608387282718724],[127.07379300466401,37.60842623691083],[127.07386716025394,37.60843561574956],[127.07389841075569,37.608439840214515],[127.07399784635703,37.60845126671416],[127.07416883401612,37.608473280695954],[127.0742710345247,37.60848620089349],[127.07439568417696,37.608501593853376],[127.07453026906697,37.608519971796184],[127.07461620489804,37.60853115384994],[127.07466365690588,37.60850708625235],[127.07474744781786,37.608517198272246],[127.07473005438638,37.60860841456752],[127.07470560911229,37.60874172100001],[127.07468712495697,37.60884450747091],[127.07465652227039,37.609004757064206],[127.07463302729296,37.6091257014123],[127.07456744269625,37.60947376428843],[127.07459414530744,37.60950569657451],[127.07462882805936,37.60951008089671],[127.0748378179319,37.60953492647021],[127.07559015212618,37.609623311537014],[127.07583919332365,37.609652076494235],[127.07604557789938,37.60967567821379],[127.07608963065042,37.6096497201321],[127.07611446967039,37.6095159446751],[127.07611868129003,37.609491822729574],[127.07613691701299,37.60939157697244],[127.07614206816756,37.609366994930845],[127.0761566424349,37.609286122593566],[127.07616956239367,37.60921581080731],[127.0761859080556,37.60912830611725],[127.07620810620325,37.60901546210912],[127.07623499871153,37.608874387359364],[127.07628162067356,37.60863233606642],[127.07631710443763,37.60844167480769],[127.07634017722391,37.608320514143415],[127.07635138389375,37.60825867264288],[127.07636254732043,37.60819890342676],[127.0763832265171,37.608096529742554],[127.07640194305478,37.60795692871942],[127.07644421875406,37.6077298634146],[127.07646449314055,37.60761932706709],[127.07648527911395,37.60751079957925],[127.0765237266233,37.607306486460025],[127.07652469620228,37.6073021250902],[127.07656749329018,37.60707623066166],[127.07658663454465,37.60697669599435],[127.07660537214993,37.60688124302853],[127.07665551600931,37.60661891716494],[127.07662150474691,37.60658281843236],[127.07638436513179,37.60655447101974],[127.07621155906013,37.60653362365691],[127.07619160636037,37.60663750151899],[127.07615586054352,37.606826054665795],[127.076101258891,37.60711725059525],[127.07608277392517,37.60721690189484],[127.07606460190381,37.60731243550368],[127.07604644300402,37.60740981611332],[127.0759920637802,37.60769777729739],[127.07594731265887,37.60793101573029],[127.0749259880316,37.60780789646781],[127.07489266764874,37.60777154453954],[127.07480304675745,37.60776659075981],[127.07481243221385,37.60771725616156],[127.07486455550806,37.607433909950664],[127.0748704156339,37.60740444419235],[127.07491670776889,37.6071573931302],[127.07492329725308,37.6071210794496],[127.07494469264778,37.607008245148954],[127.07495998010766,37.60692622823542],[127.07499685563347,37.60673171925672],[127.07502957113324,37.606556601990036],[127.07504509784644,37.606476224698],[127.07505476367595,37.60642442120358],[127.07502518336008,37.60639038249821],[127.07475233208925,37.6063566301268],[127.07449434065968,37.60632417436197],[127.07441779893307,37.606316238958634],[127.0743998916839,37.60631366419824],[127.0743431488647,37.606308689760894],[127.07430590820694,37.60630433395869],[127.07424120031416,37.60629560728771],[127.07419722074583,37.60629065194499],[127.07403924063514,37.60627021573147],[127.07395649177083,37.60626106751639],[127.07392597852491,37.606257076868005],[127.07370712173714,37.60623114550866],[127.07366446553516,37.60622440521286],[127.07365369457554,37.606223420715615],[127.07363466792509,37.606304745998656],[127.07363415521463,37.606313278614614],[127.07360720131888,37.60643008941893],[127.0736012786687,37.60645387896919],[127.07357622067099,37.60656385015016],[127.0735668578111,37.60660208454453],[127.07355106865508,37.606670352599394],[127.07353659993535,37.6067338896888],[127.07352823056883,37.606768943005385],[127.07346033451515,37.60706023592859],[127.07343790011988,37.60715490679198],[127.07341551262452,37.60725129849703],[127.07340921853996,37.60727760200095],[127.07339964439505,37.60732006211256],[127.07338503918233,37.6073832478765],[127.07337142738274,37.60744313543848],[127.07337011774317,37.6074473708519],[127.07334873359956,37.60753917592961],[127.0733304492306,37.60761580657692]]]}}