{"type":"Feature","id":"moa-urban-8822","properties":{"id":"moa-urban-8822","project_name":"답십리동 489","district":"동대문구","status":"관리지역고시","data_reference_date":"2026-05-21","source_url":"https://urban.seoul.go.kr/view/html/PMNU1100000001?seq=8822","source_api_url":"https://urban.seoul.go.kr/bsns/getBsnsInfo.json","present_sn":"11230UQ120PS202607010001","source_crs":"EPSG:5174","coordinate_transformation":"Official supplied boundary transformed locally from EPSG:5174 using the official website Proj4 definition to EPSG:4326; no geocoding or centroid inference.","point_coordinates":null},"geometry":{"type":"Polygon","coordinates":[[[127.05198960764692,37.56888554060375],[127.05196178834238,37.56890748254476],[127.05195939050006,37.56896057880205],[127.05201079805765,37.56900400247768],[127.05201305172778,37.56900567735183],[127.0520500643643,37.56903703392426],[127.05216859933905,37.569136263016894],[127.05225756310459,37.569210790596344],[127.0522800565584,37.56923035038979],[127.05235502216858,37.56929358552112],[127.05244336240578,37.56936614907288],[127.05247480169585,37.56939077753279],[127.05249005701275,37.569402736069726],[127.05252559613336,37.56943057927341],[127.05254618572945,37.56944670707322],[127.05264846566152,37.56952685076367],[127.05267659805489,37.56954888575553],[127.05270790159823,37.56957341510269],[127.05272914815468,37.569590065158465],[127.05284201779737,37.56967849317553],[127.05289603568579,37.56968101046798],[127.0529180261468,37.56967645991686],[127.0529368087581,37.569665423644715],[127.05295451957181,37.56965955049806],[127.05299309898837,37.56963090028411],[127.05303347726972,37.569600960859624],[127.0530472458626,37.56959065655772],[127.05306017725226,37.56958098331133],[127.05315857155884,37.56950804137174],[127.05315651975548,37.56950369950661],[127.05316958018297,37.56950062142439],[127.0531776465789,37.56949437404789],[127.05326166109973,37.56943205195196],[127.05335639024976,37.569363012730406],[127.0534266474144,37.569311148017235],[127.05343594703204,37.569304116221055],[127.05345531579553,37.56928979100142],[127.0534726823001,37.56927729566552],[127.0535696281355,37.56920608391438],[127.05364187650088,37.56915320908723],[127.05365679878773,37.5691418860876],[127.05375306660537,37.56907280982559],[127.05377512345945,37.56905506771764],[127.0538738095661,37.568975683882314],[127.05391722903025,37.56894146311007],[127.05399504033883,37.568880548781124],[127.05407413025556,37.5688191472975],[127.05414539051024,37.56876256953738],[127.05416409063544,37.56874749667805],[127.0542504321028,37.568680694922065],[127.05431694093322,37.568628254714994],[127.05433180626429,37.56861671541737],[127.05439391415256,37.568567601781446],[127.05440656201954,37.5685576582165],[127.05443879297701,37.56853289362794],[127.05451177123737,37.56847353983022],[127.0545450651329,37.56844736919356],[127.05455433024827,37.568439868809946],[127.05461442333333,37.56839118843599],[127.05475864880921,37.56829043805168],[127.05479618610588,37.56826268870043],[127.05487062672933,37.56820717222849],[127.05494873260422,37.568148788907784],[127.05496927719233,37.568133372709184],[127.0550464663908,37.56807544924214],[127.05512329344445,37.56801778717513],[127.05519973643426,37.56796138661583],[127.05523309878514,37.567936621293626],[127.05531967737235,37.56787163863558],[127.05540475147087,37.56780818828016],[127.05543893953218,37.567782800840384],[127.05552176208616,37.56772095518725],[127.05559074884033,37.56766960331704],[127.05559427330913,37.567612821416674],[127.05546389922452,37.56750172612117],[127.05538461598383,37.56743260245051],[127.05528963708116,37.56735289025137],[127.05522733229803,37.567298958414185],[127.05513909172717,37.56722367588965],[127.05505323026665,37.56715110419462],[127.05503002187665,37.56712911257784],[127.05499495700334,37.56709943188583],[127.05493661727046,37.56704966967337],[127.054861027285,37.5669837695132],[127.05480232367596,37.56693141255098],[127.05478280965998,37.56691538376111],[127.05474193421884,37.566879894238305],[127.05466937791078,37.56687751227384],[127.05461022185544,37.56692098455325],[127.05460591180656,37.56692448232652],[127.0545924494354,37.56693465152875],[127.05458611420818,37.56693944763501],[127.05455328436041,37.56696460897426],[127.05453896163635,37.56697464340853],[127.05451303366533,37.56699602649521],[127.05449642564905,37.56700769273909],[127.05448757860182,37.5670139135288],[127.05442117020146,37.56706211915528],[127.05431217951161,37.567142265812436],[127.05427975598224,37.56716603036106],[127.05418859501837,37.567233735293726],[127.05417598087821,37.5672430751602],[127.05415860394834,37.56725600308281],[127.0540730195056,37.567318659903776],[127.05398886071471,37.56738073939595],[127.0539664039572,37.56739721944164],[127.05388143057864,37.56746010109795],[127.05382987624158,37.56749817269035],[127.05369303193962,37.56760015304621],[127.05365930887655,37.56762758501961],[127.05359800239401,37.56767303991066],[127.05358424556763,37.567683371304504],[127.0535714162949,37.56769282832907],[127.05350862794296,37.567739779467246],[127.05349061731958,37.56775329321194],[127.05340798626756,37.567816281611464],[127.05324434188947,37.56794154574559],[127.05311783797318,37.56803815100663],[127.0529333430904,37.568180425464604],[127.05280028519896,37.568277961253465],[127.05267985196731,37.56836494084854],[127.05261647407772,37.568412162059126],[127.05255584610414,37.568458544127544],[127.05253475791405,37.56847441063449],[127.05246001016774,37.56853065556471],[127.05244520052291,37.56854125757511],[127.05229335131834,37.56865532501469],[127.05211913548872,37.568787151312144],[127.05206609818462,37.56882769146946],[127.05199852309366,37.56887940106277],[127.05198960764692,37.56888554060375]]]}}