{"type":"Feature","id":"moa-urban-8782","properties":{"id":"moa-urban-8782","project_name":"수유동 392-9","district":"강북구","status":"관리지역고시","data_reference_date":"2026-05-21","source_url":"https://urban.seoul.go.kr/view/html/PMNU1100000001?seq=8782","source_api_url":"https://urban.seoul.go.kr/bsns/getBsnsInfo.json","present_sn":"11305UQ120PS202606300001","source_crs":"EPSG:5174","coordinate_transformation":"Official supplied boundary transformed locally from EPSG:5174 using the official website Proj4 definition to EPSG:4326; no geocoding or centroid inference.","point_coordinates":null},"geometry":{"type":"Polygon","coordinates":[[[127.02006048585733,37.63770253490651],[127.0200643297186,37.637669378324524],[127.02005899880427,37.637645413156235],[127.02004289363475,37.63757694138211],[127.020017601785,37.63746945871135],[127.02001125060467,37.63744297096243],[127.0199851653244,37.63733368645112],[127.01997665932798,37.637298279357466],[127.01995397630968,37.637202238677126],[127.01992913852214,37.63709727864725],[127.01992823124162,37.637093584780004],[127.01992312742662,37.637071331425524],[127.01988961176868,37.63692243205182],[127.0198489448264,37.63690189608207],[127.01979576582629,37.63691039154091],[127.01966955201476,37.636901347184406],[127.01953434102083,37.63688599722223],[127.01939562795117,37.636865259788436],[127.01927108882394,37.63684688963176],[127.0191179527817,37.63682373941964],[127.01894818461163,37.63679882554981],[127.0188093244675,37.63677759191037],[127.01869009811864,37.636754535277035],[127.01864788812654,37.63672244858165],[127.0186158536462,37.63669706367223],[127.01849730245938,37.63660310880088],[127.01839641748404,37.63652321554779],[127.0183691017557,37.6365221833267],[127.01834392940718,37.636530457894835],[127.0182325007827,37.63661961647576],[127.01816430909334,37.63667416230157],[127.01809312681259,37.636731015010696],[127.0180609225094,37.63675645413282],[127.01794054475188,37.6368542901049],[127.01789013439509,37.636882885134185],[127.01772685315098,37.63699053847812],[127.01769797812767,37.6370095801006],[127.01754798436629,37.637109753256986],[127.01752171434926,37.637125460864446],[127.01749803841514,37.63713934813971],[127.01738260534151,37.6372136042793],[127.01732529103782,37.63727803187775],[127.0173138536578,37.637411369101564],[127.0173059876214,37.63750312572314],[127.01731081608887,37.63751269346022],[127.01729781675066,37.63765360810839],[127.01727941685056,37.63786599802952],[127.01726880150686,37.63797628811832],[127.01726630310937,37.63800224561692],[127.01726698392125,37.638007110805205],[127.01726449839732,37.63804039324991],[127.01726128977512,37.63808319912409],[127.0172545563042,37.63817364015336],[127.01725476517771,37.63819705653304],[127.01724872489709,37.638297417230824],[127.01724642168983,37.63833571809424],[127.01724507812888,37.638357954399574],[127.0172412137251,37.63840727442601],[127.01723333803562,37.63850791466697],[127.01722394140663,37.638595635090404],[127.01721975952468,37.63864392804203],[127.01721558860523,37.638690500124596],[127.01721955756975,37.63876105514507],[127.01721956067844,37.63877583117563],[127.01721176426811,37.63887665159376],[127.01720701312155,37.63891188044492],[127.01719875121303,37.63900822306376],[127.01719033105981,37.63910644874432],[127.0171877993718,37.639136046189556],[127.01717145719184,37.63933101086375],[127.01717019141329,37.63934615646192],[127.01716868826813,37.63936398700419],[127.0171606527559,37.63945983404533],[127.01715321623078,37.639548608332596],[127.01714635455208,37.639623219177714],[127.01712985032165,37.639802813178015],[127.01711319906578,37.63998405597841],[127.01737689609395,37.63999031866921],[127.01742964910325,37.63999158194655],[127.01744742581444,37.639990894805706],[127.0175644756423,37.63998633802302],[127.01757942012006,37.63998696487228],[127.01759152412748,37.63998747227652],[127.01769144139531,37.639991663486825],[127.01780568282072,37.63999381913066],[127.01781841673511,37.63998892506572],[127.01789144157236,37.640000906964865],[127.01791794325898,37.640004011656785],[127.01799765270883,37.64001529880855],[127.01807328321692,37.64002593777501],[127.018137945913,37.640035082615746],[127.01816457195119,37.640036835768754],[127.0182062560632,37.6400404608202],[127.01826436911517,37.64004561518819],[127.01830705072851,37.64005122221251],[127.01844684390365,37.64006370780732],[127.01850022208609,37.64006855910889],[127.01852581384018,37.64007088535078],[127.0186070883757,37.64007827153438],[127.01861864510781,37.64007854015353],[127.01868515369377,37.64008323359895],[127.01870271558788,37.640084474391664],[127.01870177699288,37.64009229501125],[127.01870113242771,37.64009771898841],[127.01871688270171,37.64010411363285],[127.01872524416031,37.64010352677876],[127.0187890540972,37.64009905761999],[127.0187996249124,37.64009844340794],[127.01884627018642,37.64009571561672],[127.01895106991641,37.640081014252296],[127.01907071406958,37.64007514016533],[127.01910991548996,37.64007252149404],[127.01930671516106,37.64005735557505],[127.019355206485,37.640051672098764],[127.01943802696472,37.64004210919237],[127.01947858737685,37.64003705755351],[127.01953772867138,37.640030291208134],[127.01957851735047,37.640032177025276],[127.01961738035821,37.64003586507829],[127.01966756966365,37.640024054567554],[127.01978221726279,37.63997250097789],[127.0197856162124,37.6399722301586],[127.01987591382832,37.63996041334379],[127.0199125020308,37.63992851304953],[127.0199179282348,37.63987895845093],[127.01993138348098,37.639767505456106],[127.01994709988199,37.63963659099351],[127.01996597797667,37.639462609312645],[127.01999633211507,37.63942142989689],[127.02000731522044,37.63939331768186],[127.0200334778715,37.639354751747156],[127.02001965085424,37.63933673436756],[127.01998407164861,37.63932403615868],[127.01998565449777,37.639310521249826],[127.02000136693641,37.639164380251806],[127.02001176807758,37.63907401058483],[127.02002171586346,37.638983100400175],[127.02002985551391,37.63891102092616],[127.02003186094252,37.638774162131625],[127.02003095120035,37.638760647611896],[127.02002765226476,37.638707130065775],[127.02002173708019,37.63861171747476],[127.02001946244452,37.63857675990348],[127.02001604933373,37.63851963846311],[127.02000967866454,37.6384148557733],[127.02000740363876,37.63837827644109],[127.02000296666876,37.63830421678057],[127.02000497779969,37.6381902428021],[127.02001142208945,37.638135011866204],[127.02002091836997,37.6380513996564],[127.02003041449512,37.63796724685811],[127.02003527580241,37.637924990244926],[127.02004002373972,37.63788246335575],[127.02004951982192,37.63779831055349],[127.02005799864851,37.63772397856555],[127.02006048585733,37.63770253490651]]]}}