{"type":"Feature","id":"moa-urban-4758608","properties":{"id":"moa-urban-4758608","project_name":"자양1동 226-1번지 일대 모아타운","district":"광진구","status":"관리지역고시","data_reference_date":"2026-07-30","source_url":"https://urban.seoul.go.kr/view/html/PMNU1100000001?seq=4758608","source_api_url":"https://urban.seoul.go.kr/bsns/getBsnsInfo.json","present_sn":"11215UQ120PS202608030002","source_crs":"EPSG:5174","coordinate_transformation":"Official supplied boundary transformed locally from EPSG:5174 using the official website Proj4 definition to EPSG:4326; no geocoding or centroid inference.","point_coordinates":null},"geometry":{"type":"Polygon","coordinates":[[[127.07514414320708,37.53919887604196],[127.07515363287632,37.53921839463602],[127.0752023285485,37.539318653753874],[127.07520326959165,37.53932059931079],[127.07523204476527,37.53937972250925],[127.07536671053653,37.53935359068075],[127.07543283021249,37.53928068604292],[127.07547024144795,37.53923942418932],[127.07548206833255,37.539276753917626],[127.07566593565498,37.53925577163044],[127.07574929959117,37.53925226845925],[127.07589694016514,37.539246048816835],[127.07599293086066,37.539242014944904],[127.0761237583327,37.539236517404554],[127.07625157616961,37.53923113875291],[127.07635672010801,37.53922672037576],[127.07634770181875,37.53926028806583],[127.07640079517407,37.53925330775962],[127.07674746861669,37.53920771344606],[127.07678376165958,37.539202942090384],[127.07677981507003,37.53919394368911],[127.07678547158977,37.53919307513122],[127.07685778449274,37.539181937802624],[127.07690937613364,37.539155713022886],[127.07686676322804,37.53907556088241],[127.07687328746519,37.539048716148365],[127.0770366194111,37.53902958285302],[127.07703077254665,37.53899876363264],[127.07701675838956,37.538924990302576],[127.07706266632307,37.53891775300394],[127.07721561726929,37.53889362559137],[127.07722594014957,37.53896457214754],[127.07736545778384,37.53900475699864],[127.07745147517286,37.53901848691138],[127.07753042099291,37.539021193162974],[127.07770621778006,37.5390205753272],[127.07778826078832,37.53902027009288],[127.07782962026724,37.539013125532875],[127.07785993240155,37.5390130248529],[127.07793768711028,37.539012722286714],[127.0780461273388,37.539012318699754],[127.07814535739602,37.53901195702918],[127.07819786897724,37.53901175175718],[127.07824270369251,37.53900621757291],[127.07845857315516,37.53897953388867],[127.07846799516246,37.538976437345084],[127.07846279904662,37.53886374456727],[127.07842210662945,37.53884821993889],[127.07840933172193,37.53883664149112],[127.07840192472662,37.53880762533897],[127.07839939142464,37.538797770128134],[127.07837782421882,37.538664175958615],[127.07840322403176,37.53866251961873],[127.07839393180633,37.53851645672763],[127.07836309463929,37.538517432750155],[127.07836035099776,37.53846246406742],[127.07729243985409,37.53849780626682],[127.0772497662687,37.5384695694968],[127.07723229408452,37.53837774250821],[127.07720746241334,37.53824737576142],[127.07716223805132,37.53825883833528],[127.07713889060015,37.53826475479004],[127.07657978155017,37.538404341885865],[127.07635782055195,37.538459758657446],[127.07629868218102,37.538474527350324],[127.07613341586509,37.53851578923048],[127.0760542101435,37.538535570987484],[127.07609270290149,37.53863802560082],[127.07600215420395,37.53868640298371],[127.07597347216,37.538698530411935],[127.07592954138441,37.53871419032358],[127.07584825292015,37.53873339661878],[127.07585359733446,37.53874869211121],[127.07587100883394,37.538793549686375],[127.0758460817715,37.53880308076134],[127.07573212908292,37.538846652352554],[127.07566305615329,37.53887305878457],[127.07560562841331,37.53877605791113],[127.07547228451102,37.53881053237885],[127.07534274125652,37.53884401322812],[127.0753275213191,37.53871609078653],[127.07517820338838,37.538752980555486],[127.07513494641657,37.53876367528137],[127.07509011705875,37.53877474938792],[127.07511213829292,37.5389272557114],[127.07514414320708,37.53919887604196]]]}}