{"type":"Feature","id":"moa-urban-8796","properties":{"id":"moa-urban-8796","project_name":"신림동 655-78번지 일대","district":"관악구","status":"관리지역고시","data_reference_date":"2025-11-30","source_url":"https://urban.seoul.go.kr/view/html/PMNU1100000001?seq=8796","source_api_url":"https://urban.seoul.go.kr/bsns/getBsnsInfo.json","present_sn":"11000UQ120PS202503070068","source_crs":"EPSG:5174","coordinate_transformation":"Official supplied boundary transformed locally from EPSG:5174 using the official website Proj4 definition to EPSG:4326; no geocoding or centroid inference.","point_coordinates":null},"geometry":{"type":"Polygon","coordinates":[[[126.92168337102926,37.46791137283756],[126.92173803516016,37.46783895104855],[126.92174205010747,37.46782641178961],[126.92180430941026,37.467733641425326],[126.92184504644099,37.46767218441309],[126.92186880425999,37.46762190640825],[126.92187947637461,37.467567538034515],[126.9218336366291,37.46747365860129],[126.9217691939803,37.46733411274376],[126.92175413802619,37.46730134209124],[126.9217030823742,37.46719100675633],[126.92158410769973,37.466947610306974],[126.92154425490193,37.46686889869329],[126.92148693444658,37.466846280737556],[126.92134265735054,37.466894026241334],[126.92097224932884,37.467001714609545],[126.92093632436432,37.467013349106736],[126.9208804877397,37.467030087709134],[126.92075245906852,37.467065412428774],[126.920716442043,37.46707535020618],[126.92067754933805,37.46709259584812],[126.92067187650787,37.4671014848735],[126.92066102283022,37.46712426383022],[126.92068177697774,37.46718921065732],[126.92068542490254,37.4672006225615],[126.9206900359253,37.46721203242121],[126.92070002457604,37.46723677180206],[126.92070988259667,37.4672673586061],[126.92069403447053,37.46726736578858],[126.92070273323839,37.467298510422495],[126.92071143201342,37.467329655055615],[126.92069891620109,37.46739064173829],[126.9206818412939,37.46747384945523],[126.92065976108913,37.46755062688546],[126.92064441897357,37.467628615365534],[126.9206289699744,37.46770715518364],[126.92058115188414,37.467834992867175],[126.92057425891745,37.46785365693938],[126.92053684136592,37.467938640987676],[126.92049548198898,37.46803097450903],[126.92048816668235,37.46804291770094],[126.92048736267645,37.468044231713755],[126.92048049092602,37.4680547200886],[126.92046505467343,37.46807828065513],[126.92043418213912,37.46812540178182],[126.92040374231605,37.468172704298745],[126.92037351939825,37.46822009435369],[126.92035696703877,37.468246048105264],[126.92031793813321,37.46829452231157],[126.92035896138955,37.46830955039702],[126.9204686194109,37.46834896526683],[126.92051104960846,37.468364437558],[126.9205500111862,37.468378312681374],[126.92072082906243,37.468439878026146],[126.92082103773747,37.468473553923566],[126.92086294934742,37.46848785442955],[126.9209355517866,37.468512573431504],[126.92104921996133,37.46854989836584],[126.9210963085309,37.46856458974535],[126.92112446743629,37.46857485331342],[126.92123817019362,37.46861172758753],[126.92125048919608,37.4686246473343],[126.92125031889233,37.46862111168122],[126.92124865364065,37.468586362452285],[126.92123385395368,37.468535914227296],[126.92127546018308,37.46849759577901],[126.9214114471405,37.46837092135553],[126.92144088008008,37.46830055040737],[126.92145438685021,37.468259667516236],[126.92152302646303,37.468099393943],[126.92154737092504,37.46807176763181],[126.92160048552554,37.4680110218655],[126.9216575723742,37.46794593592203],[126.92168337102926,37.46791137283756]]]}}