{"type":"Feature","id":"moa-urban-8824","properties":{"id":"moa-urban-8824","project_name":"사당동 202-29","district":"동작구","status":"관리지역고시","data_reference_date":"2026-05-21","source_url":"https://urban.seoul.go.kr/view/html/PMNU1100000001?seq=8824","source_api_url":"https://urban.seoul.go.kr/bsns/getBsnsInfo.json","present_sn":"11590UQ120PS202607010001","source_crs":"EPSG:5174","coordinate_transformation":"Official supplied boundary transformed locally from EPSG:5174 using the official website Proj4 definition to EPSG:4326; no geocoding or centroid inference.","point_coordinates":null},"geometry":{"type":"Polygon","coordinates":[[[126.96621298986622,37.48802653875217],[126.96627291989759,37.48792476159123],[126.96636794450461,37.487852025084635],[126.9664118427299,37.487818674080835],[126.96647824403865,37.487756542764394],[126.96651361419534,37.48772848707692],[126.96649695960788,37.48772708559082],[126.96656789500186,37.48766468526654],[126.9665821816747,37.48765197637177],[126.9666289766476,37.487613535488606],[126.96669493371164,37.48755767488187],[126.96675214578553,37.487511722672934],[126.96684981791404,37.487433193117724],[126.966940194912,37.48735886000953],[126.96699621941629,37.48731298842331],[126.96708901645569,37.48723725034554],[126.96712333489516,37.487208536435936],[126.96723337004153,37.48711835120745],[126.96726230387777,37.48709488852896],[126.96737364996804,37.48700541533868],[126.96740486319362,37.486991891322226],[126.96750536486464,37.48690414479643],[126.9675143233229,37.486896651048056],[126.96764603002175,37.486787649757595],[126.96764516636811,37.4867721973458],[126.9676130114548,37.48674309480675],[126.96754825867939,37.486689430618874],[126.96746111616798,37.48661582079498],[126.9673692949361,37.48653750632937],[126.96735217160123,37.48652316645565],[126.96728253530138,37.48646807712668],[126.96724954230794,37.486442578247946],[126.96713817053447,37.48634284113769],[126.96704482054757,37.486221854568505],[126.96694726268542,37.486129869912034],[126.9668381641791,37.48603069179953],[126.9667268173136,37.485928503579515],[126.96668175640129,37.48588736861941],[126.96660325762996,37.48581570866532],[126.96641680876077,37.48595287407026],[126.96624159117871,37.48609042275358],[126.96618020673753,37.486138364690945],[126.9661329274918,37.48617420136852],[126.96610309040764,37.48619492446065],[126.96603766758786,37.486246415056186],[126.96598726579234,37.4862859178108],[126.9659720751659,37.48629771635381],[126.9659229517915,37.486335489543485],[126.9658433675142,37.486397652623694],[126.96576736938295,37.486455591040624],[126.96571192351533,37.48649706534198],[126.96569568126716,37.48650886353032],[126.96552846852288,37.48664181846471],[126.96552513015655,37.486647746033405],[126.96551685779353,37.48666243883699],[126.96552561707337,37.48666981169234],[126.96553142645692,37.48667469688634],[126.96553521272985,37.486677878572365],[126.96558914780766,37.48672229630587],[126.96559158912899,37.48672430628002],[126.96593145631368,37.486999196354994],[126.9659705725413,37.48703505895064],[126.96596042223695,37.487075799151924],[126.96585857811782,37.487152786006284],[126.96570782540132,37.48726571689935],[126.96559086884524,37.48735485343924],[126.9654447964094,37.48746778541559],[126.96537940591807,37.487519338715025],[126.96531134509446,37.48748088118883],[126.96531144689644,37.48748080012999],[126.96531413890588,37.48747883677328],[126.96531436512375,37.48747867466246],[126.9652496892458,37.48743175774084],[126.96519884642075,37.48739880153746],[126.96512202839628,37.487349015630194],[126.96511603032528,37.487360105101516],[126.96495723647641,37.487589739176464],[126.96487415271744,37.487705338857694],[126.96485260307351,37.48772534339773],[126.96482773948262,37.48774734712624],[126.96480080671802,37.48776929614643],[126.96476660102914,37.48779632454223],[126.96469168883583,37.487848739456645],[126.96463414477141,37.48787691381842],[126.96453813020888,37.48791295987389],[126.96428492173357,37.488000935148676],[126.964135669275,37.48804480279379],[126.96400491297756,37.488092748646416],[126.96396233143535,37.488113530214086],[126.96390878556767,37.48814975142734],[126.96386332141245,37.4881915613956],[126.96383579335735,37.48824972121827],[126.96381687128776,37.48828275487386],[126.96380911245473,37.488309548155364],[126.96380560791863,37.48835320952496],[126.96378820294105,37.48840479526132],[126.96377989377953,37.48842414609994],[126.96377181103273,37.488442947399896],[126.96374217284857,37.48849223166863],[126.96371903516545,37.48852119143685],[126.9636841942219,37.488550841224026],[126.96363552204384,37.4885855682102],[126.9635883461229,37.48861286240201],[126.96328668121711,37.48874863605871],[126.96324544495184,37.488768841160464],[126.96321361557915,37.48879033772842],[126.96313240463002,37.488839965511154],[126.96309955566069,37.48886514680888],[126.96303022148324,37.48895034087095],[126.96301791072042,37.48896695130916],[126.96298068543976,37.4890367937406],[126.96296513457378,37.489065494542466],[126.96295662346762,37.4890812052132],[126.96293720223579,37.4891162748212],[126.96289342056785,37.489204270241316],[126.96286748110182,37.489249428911045],[126.96284117831388,37.48929741659717],[126.96279082655566,37.48938608557599],[126.9627460618306,37.489472134454296],[126.96269725968786,37.48955936229842],[126.96264612340816,37.4895422156669],[126.96257740850409,37.489519174282606],[126.96238594742329,37.489862419197536],[126.9624494001201,37.48988550670507],[126.96241971734987,37.48993730350477],[126.96238448140382,37.48998493673695],[126.9623448862774,37.4900458411487],[126.96243918109705,37.490062438165126],[126.96246242579379,37.49006653008519],[126.96259466472686,37.49008985556988],[126.9626082549528,37.490092247696865],[126.96276669164158,37.49011854590417],[126.96293316054704,37.490049394549835],[126.96298550785595,37.48995064397759],[126.96302794312314,37.4898649005969],[126.96302936921167,37.48986224311043],[126.96311305755225,37.48983487993135],[126.96318168166513,37.4898572470253],[126.96325111094283,37.48987510032837],[126.9633938229535,37.489915628407175],[126.96349377119786,37.4899440123917],[126.96358946856154,37.48997118848763],[126.96358781427317,37.48997794095403],[126.96357913122587,37.49002067261161],[126.96354939948189,37.490029916334485],[126.96353413355904,37.49007651116415],[126.96351418720518,37.49016608220043],[126.96352513440725,37.49018515088727],[126.96357244706641,37.49031427042187],[126.9636141910303,37.49043209861525],[126.96362868910165,37.490473017686774],[126.96359763482596,37.49057053199064],[126.96358071405697,37.4906247938028],[126.9635591448767,37.4906363737383],[126.96355155338604,37.49066698728675],[126.96372386376551,37.490697487326536],[126.96385578758144,37.490720838326794],[126.96398393511706,37.49074352123998],[126.96402868500417,37.49075372575949],[126.9641817866836,37.490779569873744],[126.96433380208396,37.49080716138808],[126.96434978943198,37.49081005862896],[126.9644029558452,37.4908197088358],[126.96446263932424,37.49083054137298],[126.96464441746005,37.49041627689014],[126.9647505079703,37.4902484292727],[126.96481575689091,37.490182290008235],[126.96487064074174,37.49012665766113],[126.9648982930576,37.49009862890698],[126.96485791670065,37.49006617587004],[126.96482218022933,37.49003745169858],[126.9647832371479,37.49000615055935],[126.96480967179475,37.49001017723639],[126.96483316332923,37.48999762458781],[126.96486003180564,37.48997001726675],[126.96489202575252,37.48993573511585],[126.96493365790116,37.489892490987344],[126.96495190528708,37.48987477395905],[126.96499320999983,37.48980718467817],[126.96504200165435,37.48975962693171],[126.96510139301057,37.489702170437965],[126.96511360336906,37.489705354731974],[126.96512712261877,37.48969091586054],[126.96526963218712,37.4896369537033],[126.96534380337327,37.48959991828859],[126.96542720125359,37.48953935151531],[126.96547747144942,37.48949650627047],[126.96554218510444,37.48939791149669],[126.96556879610749,37.4893403006189],[126.96560426782172,37.48926770879076],[126.9656611535433,37.48915165017949],[126.96569369520886,37.489081778454306],[126.96569539334871,37.489077472186914],[126.96572156222756,37.4890217712585],[126.96574916806634,37.48896400746761],[126.96578945119856,37.488878370548306],[126.96579327678795,37.48887047894062],[126.96581930887527,37.488816796188345],[126.9658414147263,37.48876859933754],[126.96587809726215,37.488692872303716],[126.96589930817787,37.48864803590311],[126.96591100018847,37.488623352012326],[126.96592963214631,37.488580388909675],[126.96596385855952,37.488509499479974],[126.96599520929745,37.4884462136198],[126.96601924869942,37.48839747671356],[126.9660528641859,37.48832695648251],[126.96615329905447,37.48812421369671],[126.9661680413975,37.4881046510777],[126.96621298986622,37.48802653875217]]]}}