{"type":"Feature","id":"moa-urban-8794","properties":{"id":"moa-urban-8794","project_name":"난곡동 697-20 일대","district":"관악구","status":"관리지역고시","data_reference_date":"2026-01-08","source_url":"https://urban.seoul.go.kr/view/html/PMNU1100000001?seq=8794","source_api_url":"https://urban.seoul.go.kr/bsns/getBsnsInfo.json","present_sn":"11620UQ120PS202602250001","source_crs":"EPSG:5174","coordinate_transformation":"Official supplied boundary transformed locally from EPSG:5174 using the official website Proj4 definition to EPSG:4326; no geocoding or centroid inference.","point_coordinates":null},"geometry":{"type":"Polygon","coordinates":[[[126.91950694086087,37.4653077828977],[126.91947484607014,37.46526983736657],[126.91942970015496,37.46521740362888],[126.91938180895664,37.465161592804805],[126.9193737834316,37.46515225282602],[126.9193737506058,37.465152294249364],[126.91936707861096,37.46514457701801],[126.91928401277987,37.465047625283475],[126.91923761433893,37.464993451661385],[126.91918376510823,37.464930605171865],[126.91913945860443,37.46487585632503],[126.91906531087261,37.464748934245684],[126.91902746658364,37.46465631255607],[126.91900750442667,37.46449695696023],[126.91900745368166,37.46449684700231],[126.91894056175713,37.464546148272866],[126.91890201843265,37.46456515054035],[126.91879147183396,37.46458393122481],[126.91874951159419,37.46463659256057],[126.91869252956944,37.4646373905735],[126.91868927559351,37.46463608183716],[126.91862726917692,37.46461125174297],[126.91862222029984,37.46460780636634],[126.9185585476981,37.464617843922774],[126.91856344866152,37.46462216317219],[126.91853314257797,37.464633566626766],[126.91850271430029,37.464632797423526],[126.91818172471358,37.464401229719506],[126.91815127838849,37.46435571655194],[126.91818145861735,37.46436600027355],[126.91821084088878,37.46435177611473],[126.91820305701415,37.46434795938046],[126.91831542912827,37.464303492904975],[126.91832053203244,37.46430915480291],[126.91851592670032,37.46423528371974],[126.9185053019577,37.46422458133893],[126.91848721796421,37.46404937740018],[126.91845496425893,37.46405385975612],[126.918448529778,37.46403597030215],[126.91835126382817,37.46404596611092],[126.91834894406409,37.46402786330602],[126.91823184897828,37.46404045797238],[126.9182243995209,37.46402051350155],[126.91821383639126,37.463893203184966],[126.91820378596225,37.46389471879725],[126.91820455216991,37.46380521358701],[126.9181862970356,37.46373402138931],[126.91810451148355,37.463728728859564],[126.91801140127897,37.46375271991673],[126.91797131967644,37.463762629664586],[126.91785229728973,37.46379081897481],[126.91783955314295,37.463795486163605],[126.91783951483288,37.463795377115005],[126.91780135220483,37.463758917084796],[126.91780129795754,37.46375890893733],[126.9178013205081,37.46375895940954],[126.91764998412035,37.463825382257085],[126.9175361713744,37.46387469448206],[126.91745313001276,37.46391070263807],[126.9173521683467,37.463953553714866],[126.91735216490416,37.46395359966364],[126.91735210837692,37.46395360863341],[126.91729490860557,37.46397766974381],[126.91726120856785,37.463991737426895],[126.91715918108196,37.464034309167985],[126.91720983641655,37.46410070426614],[126.91735599017817,37.464292289822886],[126.91737867461329,37.46432403933789],[126.91752149834713,37.46452246994286],[126.91763219149142,37.464676259849014],[126.91765512398167,37.46470877533849],[126.91794592803569,37.46511717217376],[126.91791277295715,37.465138898958486],[126.91787292045953,37.46515555735175],[126.9177391686951,37.46520267521672],[126.91756958085416,37.4652629401569],[126.91755160150093,37.46526881994978],[126.91744193708573,37.465275832884664],[126.91737446073833,37.46528024483111],[126.91751680525735,37.465615627656796],[126.91751025868376,37.46561718174008],[126.9175432993952,37.46566768846784],[126.91757757917283,37.46575245223195],[126.91759295274456,37.465792431680306],[126.91743094493064,37.46583547460433],[126.91750410864637,37.466022025416486],[126.91750223047143,37.46602359182791],[126.91758949809774,37.46609197695222],[126.9176790105652,37.466012779184105],[126.91770887192389,37.465985211628066],[126.91781169402122,37.46595187527962],[126.91785821463807,37.46593658214578],[126.91787210059283,37.465932122995895],[126.91795289497507,37.465905888861535],[126.91798924556244,37.465897715424546],[126.91815658743499,37.46585567561237],[126.91836942565904,37.46580426110144],[126.91855025453675,37.46576032009105],[126.91868977930086,37.465726783487014],[126.91874621104168,37.465713217866075],[126.91892729066491,37.465677277367725],[126.91893305760664,37.46570623966161],[126.91910993457947,37.465709282383195],[126.91926715479988,37.465711986799754],[126.91931811876294,37.46581928676585],[126.91935861166914,37.46585787788744],[126.91944282494558,37.46586773031405],[126.91952709577788,37.46585594961863],[126.9195511436778,37.46585147930092],[126.91962454265214,37.465837537595895],[126.91975892931028,37.46591321585382],[126.91976297352208,37.46591553423142],[126.91983382311668,37.46595911972695],[126.91987867912297,37.46601895034501],[126.91990533484625,37.466048782971704],[126.91986017405031,37.466144447389375],[126.91989471422653,37.466200243384414],[126.91987944278586,37.46622107305334],[126.91986195249504,37.46624493756992],[126.91987602534049,37.46624527165397],[126.91980154319589,37.466340149933224],[126.91979052873037,37.46633396143094],[126.91972163594808,37.466413436359424],[126.91967325647201,37.46646453482698],[126.91963617089334,37.46646248187948],[126.91962562521842,37.46646176277944],[126.91955522912527,37.4664891044915],[126.91941849129464,37.4665056961684],[126.91935551063544,37.466512157646086],[126.91933260821676,37.46654393814293],[126.91927124872717,37.46662860782566],[126.91930215585342,37.46668832983681],[126.91930757560002,37.46669390180997],[126.91937369848142,37.466760135520516],[126.91944588880658,37.466828977307784],[126.91945005401506,37.46687576031126],[126.91954752007307,37.466944547504504],[126.91958502398732,37.46696744999454],[126.9196134400946,37.467020980298926],[126.91962280581556,37.46704648519278],[126.91958151760916,37.46706266562962],[126.91954994050447,37.46706751816208],[126.91940969187496,37.46709950554373],[126.91937182238877,37.46715243121049],[126.91937080281367,37.46720612130792],[126.91936939596907,37.46725216161493],[126.91937053273656,37.467256667423186],[126.91931383489947,37.467243878797326],[126.91928781143596,37.46723521105814],[126.91923706637357,37.46721614654203],[126.91918268108348,37.46723866979507],[126.91913618450471,37.4672315645135],[126.91909506859544,37.467265656851716],[126.91900808738232,37.467232457242716],[126.91897466444658,37.46721963965159],[126.91894548725303,37.46723151251671],[126.91885407779465,37.467267650938346],[126.91873461094247,37.46731487901286],[126.9186905510626,37.467363493325436],[126.91867537399585,37.467380232344226],[126.91868435178758,37.46745997745454],[126.91869059539088,37.467466766387574],[126.91872792149604,37.46750740077329],[126.91882208841633,37.46754406546918],[126.91895012472902,37.46759895403004],[126.91899859051898,37.46760414162194],[126.91905488884485,37.46761036180367],[126.91914038409999,37.46760744811796],[126.91913547341485,37.467756011169875],[126.91931472975708,37.467748099041984],[126.91935441121468,37.467609804572085],[126.91941386663785,37.46758204092336],[126.91945836145769,37.467559213366954],[126.91951871949118,37.467512240895715],[126.91968899940659,37.46752548654478],[126.91968902653313,37.46752548926657],[126.91968902767631,37.46752547755432],[126.91968962472998,37.46752529055899],[126.9198339187254,37.467487989722805],[126.91983444333897,37.46748788917303],[126.91995604900139,37.467469322388126],[126.91999203635774,37.46746303118432],[126.91999204767149,37.467463022182095],[126.92000838901672,37.46746688073935],[126.92009538278079,37.46745789463192],[126.92009539181613,37.467457901846174],[126.92009541447779,37.467457852306595],[126.92016434054999,37.46745354342248],[126.92016441855215,37.46745353897118],[126.92016471685261,37.467453653603975],[126.92027669355731,37.46749682203195],[126.92027670140772,37.46749687970157],[126.92034645965934,37.467555137872964],[126.92035853674314,37.46752593833454],[126.9203585537439,37.467525896900064],[126.92037187898605,37.46748395262056],[126.9203718608997,37.46748395260814],[126.9203955766579,37.46736883865048],[126.92039994638832,37.467289670462726],[126.92038820966695,37.46716712591302],[126.92036828693064,37.46708829243595],[126.92034543295327,37.46703367591951],[126.92028021983182,37.466877811535326],[126.92026955393457,37.466852332828964],[126.92025261933458,37.4668118480997],[126.92018939094905,37.46666071529395],[126.92017214073826,37.4666194825016],[126.92013034187872,37.466512675771675],[126.92008739492648,37.466419183267426],[126.92008735082501,37.466419198554085],[126.92007659718658,37.4663934449618],[126.92001119246784,37.46622766923914],[126.91994979993599,37.46607315879252],[126.91992204601091,37.46600329381857],[126.91983486277894,37.46580351708427],[126.91983485150463,37.46580349004636],[126.91981958762673,37.465775872737716],[126.91979132751445,37.4657247122197],[126.91974402431941,37.4656391021518],[126.91972962920342,37.46561303515858],[126.91972975469778,37.46561301362132],[126.91972966089983,37.46561299283333],[126.91971559654414,37.46559148694879],[126.9197155456629,37.465591500428616],[126.91962881681587,37.465463164442376],[126.9195280180317,37.465332259778364],[126.91952746439947,37.46533203414329],[126.91950694086087,37.4653077828977]]]}}