{"type":"Feature","id":"moa-urban-8832","properties":{"id":"moa-urban-8832","project_name":"천연동 89-16번지 일대","district":"서대문구","status":"관리지역고시","data_reference_date":"2025-11-30","source_url":"https://urban.seoul.go.kr/view/html/PMNU1100000001?seq=8832","source_api_url":"https://urban.seoul.go.kr/bsns/getBsnsInfo.json","present_sn":"11410UQ120PS202603190001","source_crs":"EPSG:5174","coordinate_transformation":"Official supplied boundary transformed locally from EPSG:5174 using the official website Proj4 definition to EPSG:4326; no geocoding or centroid inference.","point_coordinates":null},"geometry":{"type":"Polygon","coordinates":[[[126.96146390183193,37.56897454161559],[126.96151103155063,37.568875836320466],[126.96145939731657,37.568867809027175],[126.96143422613363,37.568862430594265],[126.96125339468422,37.56883163635364],[126.96119366762245,37.56882288539325],[126.96117064650218,37.568818678923094],[126.96116469315241,37.56881759570257],[126.96092810995343,37.56877442934636],[126.96072351182616,37.568737517420345],[126.96062718481356,37.568717103743545],[126.96058004543781,37.56870741079404],[126.96043754466051,37.56867118661926],[126.96039866854235,37.568661208156],[126.96036442081362,37.56865339366509],[126.96032478675225,37.56864264006342],[126.96026485971224,37.568627527586315],[126.96020815899628,37.568611839575226],[126.96014853651262,37.56859873634933],[126.96008937818313,37.56858555216721],[126.95995938382232,37.56857293769429],[126.95985538767285,37.568564089376416],[126.95975061085862,37.56855463702865],[126.95966345699168,37.56854717301084],[126.95958849353505,37.568540443059184],[126.95946377437278,37.56852733437033],[126.95936278643987,37.56852348717474],[126.95927531337469,37.56852015829243],[126.95927532590991,37.56851800493502],[126.95921572105522,37.56851418142308],[126.95915274320237,37.56851014043354],[126.95906626272009,37.568513037581255],[126.95904414511469,37.56853270720946],[126.9590293547406,37.5685458563158],[126.95901459545209,37.56856405096555],[126.95899280639831,37.56858315307964],[126.9589803152318,37.56865351575983],[126.9589829455216,37.56880533321989],[126.95902665566484,37.56897329315621],[126.9590058428176,37.56904511514286],[126.95903932721822,37.56904374598044],[126.95903940988433,37.56907756910547],[126.95903948340725,37.56910756032441],[126.95904035334951,37.56911045641331],[126.95904726940127,37.56911053908939],[126.95904775125678,37.56913507407087],[126.95905948089927,37.569173955027],[126.95906375154736,37.56918814712588],[126.95908492106228,37.56924380877316],[126.95914707707645,37.56924103803336],[126.95914838749985,37.569305612322275],[126.95914810394456,37.56932660524356],[126.95918735604845,37.5693125729191],[126.95930408254311,37.56926988985669],[126.95931060352584,37.569268036152636],[126.95934044611656,37.56925947842059],[126.95936333805838,37.56925193631606],[126.95937242886595,37.56924947986405],[126.95940718825676,37.56927362973912],[126.95948617417203,37.569274351646634],[126.95956027056152,37.56927431493366],[126.95970527071937,37.569275258354175],[126.95978357748949,37.5692759618024],[126.95988001821954,37.569275977834714],[126.9599622530812,37.56927617799638],[126.96013141965145,37.56927780513832],[126.96027402103927,37.56927708920126],[126.96038065971285,37.569278522938134],[126.96041265822586,37.56926019897498],[126.96042519070579,37.56923599378669],[126.96046458261814,37.56925544180491],[126.96042221031836,37.56936580711774],[126.9604171657928,37.56937930216361],[126.96040486734786,37.56941013870436],[126.96040419665894,37.569477099906315],[126.96040386959426,37.56949551598904],[126.96040338006144,37.56958298374176],[126.96040217533543,37.56967421737423],[126.96040112531405,37.56977229856829],[126.96040083958742,37.5698390616828],[126.96042243557636,37.56986233271316],[126.96052343672115,37.56986612494731],[126.96056296323275,37.56986780549343],[126.96056061783783,37.569871958234614],[126.96058012017413,37.569873848063686],[126.96068821092489,37.56989174307772],[126.96073731004897,37.56990010319692],[126.9607484308345,37.56989073676224],[126.96080455406002,37.56984639147891],[126.9608448149195,37.56980903237207],[126.96086905039809,37.56978708364027],[126.96089580000891,37.569762856268724],[126.9609440899576,37.56971863436086],[126.96095396538045,37.56970959183421],[126.96096060134025,37.56970235737794],[126.9609890082906,37.56967141999512],[126.96100384305949,37.5696596762024],[126.96102078688384,37.5696411847306],[126.96104342825117,37.56961548730515],[126.96109697900204,37.569554995292236],[126.96117028772001,37.56948383329945],[126.96117029142331,37.56947696777143],[126.96122693394217,37.56941316111846],[126.96123847599115,37.56939900152381],[126.96128992200535,37.56933669771686],[126.96129923570741,37.5693406382081],[126.96132133481936,37.5692915328718],[126.96133507797879,37.56924873701011],[126.96134509130017,37.56923353534203],[126.96138078732697,37.569158729427805],[126.96141592018148,37.569078580450736],[126.96146390183193,37.56897454161559]]]}}