{"type":"Feature","id":"moa-urban-4901096","properties":{"id":"moa-urban-4901096","project_name":"자양1동 655번지 일대 모아타운","district":"광진구","status":"대상지선정","data_reference_date":null,"source_url":"https://urban.seoul.go.kr/view/html/PMNU1100000001?seq=4901096","source_api_url":"https://urban.seoul.go.kr/bsns/getBsnsInfo.json","present_sn":"11215UQ120PS202609180004","source_crs":"EPSG:5174","coordinate_transformation":"Official supplied boundary transformed locally from EPSG:5174 using the official website Proj4 definition to EPSG:4326; no geocoding or centroid inference.","point_coordinates":null},"geometry":{"type":"Polygon","coordinates":[[[127.08383180802448,37.53314799044102],[127.08387343145431,37.53303452633752],[127.08391376351601,37.53293412932678],[127.08381139910149,37.53290203342464],[127.08369052454262,37.53286301446505],[127.08374927112361,37.53274613182818],[127.0839014528606,37.532795202903756],[127.08396558555224,37.53281295998216],[127.08399586642149,37.532743600175216],[127.0840455217691,37.532629769996696],[127.08409653153882,37.53251314576794],[127.08410905802896,37.53248430521275],[127.08413848998352,37.53241689030341],[127.08429039437107,37.532068949930405],[127.08422952956728,37.53204395665899],[127.0840724185824,37.53197225558187],[127.08394134233824,37.53191234004733],[127.08387875407155,37.5318898579656],[127.08379703762533,37.531860001029315],[127.0836612936163,37.53181025434668],[127.08359829549059,37.531914332287215],[127.08354566897175,37.53200131474288],[127.08337238529197,37.531936383219815],[127.08326360046624,37.531891516997185],[127.08322317433634,37.531874846853974],[127.08309963394618,37.53185241912369],[127.08304158071117,37.53183948489989],[127.08307302696576,37.531751066693666],[127.08307632045744,37.53174179319371],[127.08291474489988,37.531705783819824],[127.0829152862806,37.531704242747374],[127.082748199966,37.531667155750654],[127.0827620740903,37.53158076162793],[127.08271062868477,37.53157341426246],[127.08253502408546,37.53155560327379],[127.0824898975159,37.53155256633668],[127.08244487164997,37.53154953742226],[127.08229324139897,37.531543872159354],[127.08226733223539,37.53154298888251],[127.08215261382992,37.53154360605411],[127.08209004989288,37.53154400914926],[127.08201255668689,37.531547754262206],[127.08191300184285,37.531552506337874],[127.0818848347599,37.53155504738947],[127.08174591678576,37.531567573748404],[127.08173675361809,37.53156839086687],[127.08170096911698,37.531573104839225],[127.08170996685773,37.531633348184236],[127.08171099222291,37.531640014841976],[127.081723983928,37.531727943011596],[127.08153745053754,37.53175491915333],[127.0815409922817,37.53176709999124],[127.08149696930482,37.53177521893282],[127.08134252049652,37.531801461250105],[127.08135896737689,37.531862150081615],[127.0811540922231,37.53191933932529],[127.08112066317706,37.531925258865],[127.08108667533517,37.531931277880986],[127.08097289450346,37.53196415065279],[127.08078786640705,37.53202455146433],[127.08088867055795,37.53223720837701],[127.08085688910339,37.53224678026393],[127.08080461608382,37.53213653373937],[127.08063778804922,37.53218322699064],[127.08059401636704,37.532087841072325],[127.08060577852825,37.53208395892359],[127.0805506611242,37.53195812699649],[127.08050302897614,37.53184940891645],[127.08037391443835,37.53188751983207],[127.0803315013391,37.531900071054466],[127.08020799537249,37.53193655175195],[127.08016558212296,37.531949012815396],[127.08003845561632,37.53198657693872],[127.0799056285914,37.53202578001223],[127.07994576849518,37.53211440213607],[127.0799646560652,37.532108352934465],[127.07998471521084,37.53214068528345],[127.07994049340756,37.53215486025629],[127.07999186073255,37.532264659971474],[127.07999718678896,37.53226314907008],[127.08003707743472,37.5323479691315],[127.08004198381792,37.532358388564326],[127.08009741274444,37.532476500799625],[127.08012891568846,37.532524773095076],[127.08016184556983,37.53253123832659],[127.08022480883425,37.53258705798955],[127.0803155169433,37.532667546336114],[127.08034484706596,37.53269356547962],[127.08040601753736,37.53274417849779],[127.0803719539671,37.53276787034768],[127.08047186963887,37.532856938892586],[127.08050108846201,37.53288457985923],[127.08061057286545,37.53298143547979],[127.08071726468809,37.53307986059861],[127.08074701492541,37.53310701461041],[127.08085768741334,37.533203382664375],[127.08092376707806,37.53315625233279],[127.08105279344176,37.53326558216842],[127.08114469579631,37.53320137941461],[127.0811745695216,37.53322849899704],[127.08120438890916,37.53325556905382],[127.08131763349206,37.53335478207804],[127.08137338391865,37.533403632303695],[127.08141196646196,37.53343742950614],[127.08152860885144,37.53353952320531],[127.08155624563268,37.53356833627067],[127.0816361421522,37.533640046228456],[127.08165454612282,37.53365656787342],[127.08165438219602,37.5336566851138],[127.08156819616411,37.533719361706005],[127.08140888344644,37.53383522020777],[127.08152281042263,37.533936685046854],[127.08169005031479,37.53381712693938],[127.08177491788648,37.53389240135946],[127.08181521146666,37.53392824251946],[127.08186453078044,37.533971952208034],[127.08192836868955,37.5340286893662],[127.08193274000341,37.5340325156119],[127.08205580675799,37.53414174928242],[127.08210101111642,37.53418200276297],[127.08217979136572,37.53412589728486],[127.08224931919794,37.53407636722158],[127.08228753120672,37.534049149114324],[127.08237706941046,37.53398547771208],[127.08243352894532,37.53398796182544],[127.08252627998328,37.53407060943745],[127.08262503341054,37.53415856871435],[127.0826551577791,37.53418539762544],[127.08274745625633,37.53426759487499],[127.08282197467204,37.534333946809525],[127.08284451153098,37.53435411354377],[127.08291733134583,37.53441893489805],[127.08296874693157,37.53446466991159],[127.08305187286943,37.53453876430467],[127.08313273389673,37.53461078791881],[127.0831758825025,37.53464923050738],[127.08318848898898,37.5346931001641],[127.08325377346718,37.534709531464955],[127.08329282867844,37.53461112767403],[127.08333659809188,37.53449279693741],[127.08337608063347,37.534386001868384],[127.0834140962775,37.534282901874235],[127.08344771265506,37.53419196832851],[127.08347399633911,37.5341206815162],[127.08350456686605,37.534038039204646],[127.08352791778313,37.533974953454376],[127.08357033262814,37.53386013743358],[127.08360409521485,37.53376875323865],[127.08360496382213,37.53376641005201],[127.08364658843165,37.533653396536],[127.08367343535929,37.533580217195],[127.08370659884807,37.53348955417804],[127.08371618719846,37.53346359889293],[127.08375329877514,37.53336230139],[127.08378950781335,37.53326343718489],[127.08383180802448,37.53314799044102]]]}}