{"type":"Feature","id":"moa-urban-8875","properties":{"id":"moa-urban-8875","project_name":"면목본동 63-1번지 일대","district":"중랑구","status":"관리지역고시","data_reference_date":"2025-11-30","source_url":"https://urban.seoul.go.kr/view/html/PMNU1100000001?seq=8875","source_api_url":"https://urban.seoul.go.kr/bsns/getBsnsInfo.json","present_sn":"11000UQ120PS202503070028","source_crs":"EPSG:5174","coordinate_transformation":"Official supplied boundary transformed locally from EPSG:5174 using the official website Proj4 definition to EPSG:4326; no geocoding or centroid inference.","point_coordinates":null},"geometry":{"type":"Polygon","coordinates":[[[127.0888961991017,37.58467142860892],[127.08890746269205,37.58475734726531],[127.08891879891392,37.584837580646784],[127.08892984065938,37.58491769711598],[127.08894040684334,37.58499775086621],[127.08895131342867,37.58507842604229],[127.08896294971828,37.58516345243569],[127.08899691179474,37.585276879366994],[127.08903925890351,37.58564757646439],[127.08904433684839,37.585691189403924],[127.0890446712884,37.58569640586153],[127.08905419812496,37.58577819025341],[127.08906805488135,37.58590287635655],[127.08907826555576,37.585988480414414],[127.08908634359307,37.58606087760672],[127.08912454898379,37.58608479745098],[127.08921511502906,37.58607714390899],[127.08924649613564,37.58607447169538],[127.08934820177029,37.58606587274762],[127.0894574810724,37.58605672747935],[127.08954489982592,37.58604929226535],[127.08972973362187,37.58603368437574],[127.08986803907267,37.58602197625556],[127.08989712200827,37.58601948578601],[127.09005906509424,37.58600577757528],[127.09018407992016,37.585995205284156],[127.09028491362979,37.58598666925323],[127.09043380507187,37.585975150726405],[127.09051867685879,37.58596825730084],[127.09055687318589,37.58596521019653],[127.09067483568296,37.58595575091667],[127.09079842452668,37.585945800731814],[127.0908324549188,37.585943198171755],[127.09095539785793,37.58593281583824],[127.09108060492613,37.58592226047174],[127.09111472558074,37.58591941449577],[127.09123786116096,37.58590923894851],[127.09136270386888,37.585897034756485],[127.09142381216678,37.58589117687701],[127.091553858673,37.585878313503166],[127.09156597686172,37.58596325546765],[127.09158262361821,37.58608843468329],[127.09159275379665,37.586161199539916],[127.09160492809337,37.586248468698514],[127.09161256785964,37.586302747233354],[127.0916558065487,37.58633117635183],[127.09176524396916,37.58632162338346],[127.09188900181357,37.58631060876535],[127.09192283933783,37.586307573565755],[127.09202469154003,37.586298458638446],[127.09212704215378,37.586289568487075],[127.09215960068846,37.58628686756586],[127.09226367227485,37.586278039043556],[127.09236614790915,37.58626959007155],[127.09239624975045,37.58626703513328],[127.0925022117629,37.58625797969904],[127.09260525309664,37.58624925077801],[127.0926364416693,37.58624656880204],[127.09274302668999,37.58623780999591],[127.09284568321029,37.586229234329885],[127.09288094743646,37.58622637794893],[127.09298250554755,37.58621767687609],[127.09305400734898,37.586211710991286],[127.09308267142917,37.58620929214062],[127.09311530890416,37.58620639267781],[127.0932205690286,37.58619753536011],[127.09330609733233,37.586190522292654],[127.09332620278326,37.58618870468753],[127.0933711911953,37.586184804464025],[127.09347591895286,37.58617580317521],[127.09360925378834,37.58616411256382],[127.09369712515662,37.586156700951676],[127.09382142652338,37.58614619744483],[127.09394393860889,37.58613537986316],[127.09408788335777,37.58614315069652],[127.09416372330844,37.586157092513226],[127.094193496756,37.586163709404936],[127.09426950704481,37.5861780294337],[127.09431429716102,37.58618772487496],[127.09461047254648,37.58624708285392],[127.09468648809107,37.586010207903314],[127.09473053968266,37.58587256563614],[127.09462786328066,37.58568280003729],[127.09460933247627,37.585648847502476],[127.09445428879603,37.585365177278184],[127.09428080630937,37.58504659912895],[127.0942521466184,37.584997400808554],[127.0941945383658,37.584894211129395],[127.09419191703644,37.58488935687535],[127.09414914729966,37.58481004965857],[127.09413097990391,37.58477664635941],[127.09407857816507,37.58468115596132],[127.094071087715,37.584666493789456],[127.09402687585977,37.584583529654445],[127.09400809663714,37.58454966731182],[127.09395137675824,37.584441043866704],[127.09390406818115,37.58435307262714],[127.09388898660374,37.58432462229385],[127.09380757487075,37.584170302082725],[127.0935285391081,37.58419472036964],[127.09347754053005,37.58419894068073],[127.09344575273181,37.58420156928692],[127.09335648141969,37.58421033328078],[127.09326290876895,37.584219821338536],[127.09311226426705,37.58422958787333],[127.09302342220897,37.58423762148391],[127.09289375836003,37.58424885810148],[127.09276395909659,37.58426049111499],[127.09264399659811,37.58427075590473],[127.09257555320823,37.58427652096635],[127.09247929439398,37.58428373999112],[127.09243095543725,37.58428727305166],[127.09242512974578,37.58429133197323],[127.0923832767669,37.58432174543015],[127.092351683933,37.584345141309925],[127.0923475911059,37.5843497484955],[127.09230283009923,37.584353585085715],[127.09217486400551,37.58436467545027],[127.09213667053969,37.58436935386029],[127.09201448798032,37.584378989024465],[127.09187543796473,37.58439010558042],[127.09174658759281,37.58440031319166],[127.09161620956017,37.5844111795477],[127.09148220857237,37.58442204852076],[127.09138867927274,37.58443034575878],[127.0912382463641,37.58443774014888],[127.09113026059465,37.58444712034119],[127.09099242315558,37.584459424237565],[127.09097132173393,37.584461179131246],[127.09083108428425,37.584473673864785],[127.09072267994095,37.584483414395166],[127.09069127659001,37.58448581672272],[127.09046757284536,37.58450523054384],[127.09043636264113,37.58450821829865],[127.09032383133506,37.58451785525491],[127.09023774509298,37.58452558556863],[127.09008680304295,37.58453351946541],[127.08995598499311,37.58454607817087],[127.08980860438723,37.584559532085535],[127.08978666526751,37.584561422541775],[127.08962511110792,37.584575904937985],[127.0895965041592,37.584578331916724],[127.08946313749708,37.584589972972196],[127.08933683539281,37.58460151852331],[127.0892164307695,37.58461215857266],[127.08920978569307,37.58461278518905],[127.08917676379242,37.58461565682848],[127.08906586810416,37.58462526253949],[127.08893178773675,37.584636669267695],[127.0888979635317,37.58466993166685],[127.0888961991017,37.58467142860892]]]}}