{"type":"Feature","id":"moa-urban-8854","properties":{"id":"moa-urban-8854","project_name":"목2동 231-27","district":"양천구","status":"대상지선정","data_reference_date":"2025-11-30","source_url":"https://urban.seoul.go.kr/view/html/PMNU1100000001?seq=8854","source_api_url":"https://urban.seoul.go.kr/bsns/getBsnsInfo.json","present_sn":"11000UQ120PS202503070031","source_crs":"EPSG:5174","coordinate_transformation":"Official supplied boundary transformed locally from EPSG:5174 using the official website Proj4 definition to EPSG:4326; no geocoding or centroid inference.","point_coordinates":null},"geometry":{"type":"Polygon","coordinates":[[[126.87309439698149,37.540851556637556],[126.87326763661444,37.5406290809546],[126.87327115886644,37.540624518552306],[126.87310769986856,37.540405634132824],[126.87310335144254,37.54039974592672],[126.87313131513667,37.54036944893907],[126.87328688773951,37.54018386404131],[126.87327519198517,37.54015450873314],[126.87312625185099,37.53978070818975],[126.87311961308093,37.539766386910394],[126.87310349233775,37.53973168118596],[126.87304457000616,37.53958340389612],[126.87299139711219,37.53944756652245],[126.87298756662828,37.539437921737516],[126.87296942683179,37.53939303258398],[126.87296018814794,37.539370047227024],[126.87295770771202,37.539364908871484],[126.8729058378128,37.53926114819485],[126.87286716142931,37.539183530640805],[126.87283806937232,37.53912529484914],[126.87270501475984,37.53918695786206],[126.87262111021647,37.539222996101685],[126.87259109553536,37.539240712884634],[126.8724709517798,37.539295181788965],[126.87222319660582,37.53940375065666],[126.87220032159168,37.539414807814055],[126.87215411972963,37.53943647112448],[126.87204609090622,37.53948590730835],[126.87193251628024,37.53953614820064],[126.87164545754896,37.53966746781757],[126.87137581641697,37.53980240989678],[126.87124015792341,37.539863527785506],[126.8710750554389,37.53993902887222],[126.87091131135067,37.54001399063394],[126.87082275805352,37.54005452740833],[126.87073986635622,37.54009263770715],[126.87063580122476,37.5401390136103],[126.87062638812355,37.54015143686772],[126.87062961966777,37.54030938434992],[126.87063467450034,37.54050916150004],[126.87074984298822,37.5406645984733],[126.8708910455588,37.5408641442589],[126.87096667657856,37.54096721126686],[126.87110110117764,37.541153260549464],[126.87102083830717,37.54118991253177],[126.87052283897506,37.541422093686684],[126.87033079820645,37.54151092373219],[126.87020476132652,37.54154829644949],[126.8692258212022,37.54170001028494],[126.86919814688986,37.5417286533436],[126.86925222463536,37.54197508921717],[126.86927758033993,37.54207341220641],[126.86933013557149,37.54227369392716],[126.86935933662414,37.54241292081422],[126.86939614322114,37.542521763949665],[126.869495268423,37.54261613655414],[126.86949578483402,37.54261717417283],[126.86950162209095,37.54262504815741],[126.86954940739228,37.542678523162685],[126.86960749436444,37.542694666255684],[126.86971510084841,37.54265472020614],[126.8698513342162,37.54260616456786],[126.87018207224467,37.54249012293164],[126.87018204048768,37.54249016524297],[126.87043278331255,37.54240245659289],[126.87053938895193,37.54237075725753],[126.87057987462514,37.54234959100711],[126.87067812347772,37.54230060035836],[126.8710434712637,37.542118844770414],[126.87111141890946,37.54212029383409],[126.87112030239383,37.542117750232855],[126.87136841320688,37.54212509131113],[126.87161524449674,37.541890357402565],[126.87163329852044,37.541884768586655],[126.87191367471804,37.541773296878205],[126.8719328588937,37.5417638908534],[126.87192667221095,37.54175513092932],[126.87228897644981,37.541577814521546],[126.87262082053341,37.54152300044624],[126.87262936703623,37.54152157899914],[126.87290181420721,37.54124736543698],[126.87312251346104,37.54125290702805],[126.87315816288621,37.54124756866188],[126.87303891245239,37.54117279721415],[126.87309439698149,37.540851556637556]]]}}