{"type":"Feature","id":"moa-urban-8877","properties":{"id":"moa-urban-8877","project_name":"면목본동 297-28번지 일대","district":"중랑구","status":"관리지역고시","data_reference_date":"2025-11-30","source_url":"https://urban.seoul.go.kr/view/html/PMNU1100000001?seq=8877","source_api_url":"https://urban.seoul.go.kr/bsns/getBsnsInfo.json","present_sn":"11000UQ120PS202503070030","source_crs":"EPSG:5174","coordinate_transformation":"Official supplied boundary transformed locally from EPSG:5174 using the official website Proj4 definition to EPSG:4326; no geocoding or centroid inference.","point_coordinates":null},"geometry":{"type":"Polygon","coordinates":[[[127.09095516605863,37.588523224968704],[127.09098723572203,37.58850853263171],[127.09099248690947,37.58850658252411],[127.09105416890213,37.58848634468244],[127.09108057615433,37.58848005379471],[127.09110955302978,37.588473328478095],[127.09113859073467,37.588470125959475],[127.09121440763546,37.5884633470275],[127.09123478711543,37.58846289005804],[127.09133996837072,37.58847036933656],[127.09136585911834,37.58847711603067],[127.09144566773605,37.58849439922067],[127.0915585924161,37.588519802006076],[127.09166033886248,37.5885425102648],[127.09178293530977,37.58856991464593],[127.09182446516479,37.58854165502382],[127.09180978821426,37.58843580051644],[127.09179826373197,37.58835271148527],[127.09178730896491,37.58827258625683],[127.09178394819811,37.58824605481819],[127.09178066702631,37.58821980262383],[127.09176674047846,37.58811644326],[127.09174776442148,37.58797567885311],[127.09174409602679,37.58794752587401],[127.091728840013,37.58783074283937],[127.09172673739853,37.58781471592163],[127.09171615532001,37.587733680399396],[127.09170509334479,37.58764900526188],[127.09169671683458,37.587584843501716],[127.09167876583757,37.58746766607854],[127.09166930728755,37.58739812625955],[127.0916564676272,37.58730387499795],[127.09163967550167,37.587180533939645],[127.09162507667642,37.58707330081745],[127.09161738674435,37.587015048984156],[127.09160366366419,37.58691104071492],[127.09159873897109,37.58687377071441],[127.09157642334657,37.58670462776283],[127.09155834701342,37.586567655752795],[127.09155157556468,37.586510484391894],[127.09154663669455,37.58647079975688],[127.09154140145259,37.586429448524605],[127.09152290657421,37.586311478602035],[127.09151715966955,37.58626829875745],[127.09149966748524,37.586136741204655],[127.0914887738697,37.58605985040864],[127.09147624903335,37.58597280674862],[127.09143102928608,37.585944370061554],[127.09136311627701,37.58595003490705],[127.09134832043098,37.58595155081248],[127.09123346072181,37.58596143187038],[127.09120770604522,37.585963559746354],[127.09108332534562,37.58597405155168],[127.09096454853963,37.58598421462528],[127.09084230742916,37.585994560397786],[127.09081705085919,37.58599666078209],[127.0906803758566,37.58600828769396],[127.09055606303521,37.58601885998112],[127.09043438782867,37.58602914183543],[127.09039344073395,37.58603259641451],[127.09026410126671,37.586043460493826],[127.0900948788515,37.58605774206869],[127.09008741846918,37.58605836033629],[127.09004926757596,37.58606158745171],[127.08992593943918,37.58607204120874],[127.08988124515336,37.586075831780995],[127.08979419994994,37.58608320389572],[127.08977202250657,37.58608499541882],[127.08966926411023,37.58609372165579],[127.08956497725845,37.586102466963],[127.08954159989763,37.58610443953483],[127.08944139980896,37.58611283931106],[127.08940790160912,37.58611560325126],[127.0892565771204,37.58612848278029],[127.08922384891036,37.58613134520435],[127.08911948281623,37.58614018928526],[127.08907694761614,37.58617015157511],[127.08905602415439,37.586246985102626],[127.08902911677316,37.586347789271095],[127.08900184248624,37.58645439604898],[127.08899791256886,37.58647271599248],[127.08898452039324,37.58652253238313],[127.08902217121725,37.586556129251434],[127.08903840265585,37.58663954845575],[127.08904172443286,37.58672070674595],[127.08904408728485,37.58676902032855],[127.08904281051575,37.586884396940825],[127.08904885223795,37.5870064939792],[127.08904938633219,37.58701783698706],[127.08905020608864,37.58705074936909],[127.08905310145359,37.58710613979269],[127.08905802435847,37.58720096483399],[127.08905934499276,37.58722651579453],[127.08906892081703,37.58742728422799],[127.08907384555604,37.58750430579569],[127.08907434074321,37.58752109078157],[127.08912664448339,37.587546369658625],[127.08913453988691,37.58754969744386],[127.0891387866211,37.58755050517841],[127.08914677145111,37.58755285082265],[127.08926151153663,37.58758342611772],[127.08932427854643,37.58760037202668],[127.08941286355346,37.58762034401148],[127.089579074515,37.58766080951858],[127.08965375463424,37.58767953932494],[127.08970781146748,37.58767421017061],[127.08983437871876,37.587662330663264],[127.08985237872861,37.58766050621528],[127.08994910404165,37.58765133384724],[127.09000805150231,37.58764559544843],[127.09015154687212,37.58763797808464],[127.09015085992134,37.587650646451095],[127.09014790990904,37.587747545109124],[127.09015151700906,37.587753164547884],[127.09015206596577,37.58776925753148],[127.0901534641785,37.58781025851117],[127.09015442845785,37.58785005429835],[127.09015667878548,37.58794319644567],[127.09015807887106,37.5879876815319],[127.09015947895836,37.58803216661778],[127.09016062302868,37.588099451322144],[127.09015837123523,37.588119662107474],[127.09015934427703,37.58814774508046],[127.09016131992368,37.588204969661234],[127.09016329557346,37.58826219424137],[127.09016473057086,37.5883074676608],[127.09016643073733,37.58836152548448],[127.09016706067666,37.58838193232171],[127.0901917664061,37.58840155523899],[127.09024947326957,37.58841849544429],[127.09030718015912,37.58843543562128],[127.09050295974711,37.58845069504667],[127.09069223931262,37.588427036506204],[127.09091893991612,37.588357038699215],[127.09089615221325,37.5884266119964],[127.09085970375222,37.588528982471296],[127.09090164544811,37.588551340197625],[127.09095516605863,37.588523224968704]]]}}