{"type":"Feature","id":"moa-urban-4901028","properties":{"id":"moa-urban-4901028","project_name":"자양2동 593번지 일대 모아타운","district":"광진구","status":"대상지선정","data_reference_date":"2026-09-18","source_url":"https://urban.seoul.go.kr/view/html/PMNU1100000001?seq=4901028","source_api_url":"https://urban.seoul.go.kr/bsns/getBsnsInfo.json","present_sn":"11215UQ120PS202609180002","source_crs":"EPSG:5174","coordinate_transformation":"Official supplied boundary transformed locally from EPSG:5174 using the official website Proj4 definition to EPSG:4326; no geocoding or centroid inference.","point_coordinates":null},"geometry":{"type":"Polygon","coordinates":[[[127.07543858599021,37.53188451215233],[127.07545879149838,37.53195254255331],[127.07548955389028,37.53205611955172],[127.0754999971118,37.53209116166696],[127.07554869506741,37.53225520210938],[127.0755835441278,37.53237239954083],[127.07559830118882,37.53242212513717],[127.0756331505832,37.53253950274914],[127.07584058322838,37.53247693353444],[127.075951651081,37.53244334662346],[127.0760229290581,37.532421858030744],[127.07614211768592,37.53238592323368],[127.07616866530843,37.53234608253562],[127.07610543574785,37.53213321767025],[127.07609499223724,37.532098175609086],[127.07600202164146,37.53178513894756],[127.07595820424937,37.53163758378981],[127.07590047024769,37.53144342085762],[127.07600007945562,37.53142483274828],[127.07612801290227,37.53140123606049],[127.07624180696759,37.53138035116216],[127.07640853877413,37.53134961176566],[127.07663883094871,37.53130718457612],[127.07669253553779,37.53148764379791],[127.0767251158839,37.53159745420207],[127.07676541576376,37.53173329839761],[127.07679561221399,37.531834911253114],[127.0768060561059,37.531870043352896],[127.0768415881299,37.53198958256847],[127.07688097998209,37.53212209361762],[127.07693270321391,37.53225387598223],[127.07697737379895,37.53234764089381],[127.07701082035598,37.53241807722566],[127.07701231694996,37.5324212297469],[127.07704381342604,37.53248752274414],[127.07707964072746,37.5325626426993],[127.07713100118835,37.532670638966955],[127.0772893459785,37.53262278482265],[127.07741692649319,37.53258423047466],[127.07754292358818,37.53254630770347],[127.07767457560725,37.53250657916411],[127.07783880111339,37.53245700860198],[127.07795529707667,37.53242188460997],[127.07807428121875,37.5323860380951],[127.07819303887965,37.53235010150788],[127.07833928049435,37.53230603798425],[127.0781412030427,37.5318892768617],[127.0781031144365,37.5317897228346],[127.07820499219544,37.53175922206012],[127.07923387816894,37.53145284232311],[127.07925714165575,37.53141183179433],[127.0792263012661,37.531346890434925],[127.0791861636134,37.53126249371407],[127.07914613946706,37.53117836720185],[127.07910543501099,37.53109270943217],[127.07909385867879,37.531068390201824],[127.07906495757192,37.531007682193845],[127.07903230352817,37.53093904789498],[127.07897958091586,37.530828170135784],[127.07894261858478,37.53075052869629],[127.07889329763627,37.53064676651703],[127.07884102890489,37.53053678938687],[127.07879114154316,37.53043203643851],[127.07873841955285,37.530321068461944],[127.07870814722031,37.53025756817376],[127.07866823737636,37.530173531509405],[127.07862719396323,37.53008724308531],[127.07858376964228,37.52999591063262],[127.07855270378299,37.529930608830625],[127.07850279002407,37.529909468015504],[127.07842349861839,37.52992447617369],[127.07831626849013,37.52994472821425],[127.07822566584085,37.52996190597973],[127.07811798316189,37.5299822482335],[127.07800588903041,37.530003404140665],[127.07791517310473,37.53002058174124],[127.07780273954816,37.53004182777446],[127.07771960202099,37.530057540719326],[127.07769369930588,37.53006244081624],[127.07754982040198,37.53008965344629],[127.07745152565509,37.530108187060215],[127.0773384132127,37.5301296132865],[127.07724769688919,37.53014670027499],[127.0771322089677,37.530168578323824],[127.07703108620392,37.53018765399461],[127.07692835434499,37.53020758114453],[127.076875140103,37.530028367752315],[127.076846533677,37.529932249935214],[127.07681804045828,37.52983613203741],[127.07679056904526,37.529743527356864],[127.07678308829033,37.52971839438905],[127.0767668088549,37.52966368739047],[127.07676712125873,37.52966384216243],[127.07674538926835,37.529591558437],[127.07672393471523,37.52951949257063],[127.07669782583359,37.52943157216533],[127.07667092228101,37.529340859176685],[127.07664470021074,37.529252758630115],[127.07661759459168,37.52916122855332],[127.0766178468314,37.529161182442216],[127.07658708414766,37.5290576777664],[127.0765361547758,37.52903797835278],[127.07634039397222,37.529109641469304],[127.07625421833977,37.52914114072764],[127.07605427261015,37.529214337707046],[127.07602942365274,37.52925480802454],[127.0760503987017,37.529325528237976],[127.07605014646198,37.52932557524885],[127.0760781840851,37.52941980154069],[127.07610815168155,37.52952069396205],[127.07613721142037,37.52961870376643],[127.07616161705195,37.52970094910675],[127.07616192945466,37.529701103880285],[127.076167229316,37.52971882308461],[127.07618337650891,37.52977294640496],[127.07618318442974,37.52977319520074],[127.07621406079338,37.529877510792005],[127.07624766099494,37.52999038409342],[127.07628659667445,37.5301213639857],[127.07628932115551,37.530130642499465],[127.07631486233242,37.53021676135618],[127.07634383073936,37.53031566854574],[127.07621678392915,37.53033926851406],[127.07611124926505,37.53035915708181],[127.07600390475166,37.530379407094244],[127.07591318781962,37.530396493057644],[127.075799735096,37.53041791802398],[127.07571128031539,37.530434551912464],[127.0755672867491,37.530461672098866],[127.07547509913415,37.53047902894586],[127.07545734028038,37.53048236473267],[127.07537646395636,37.53049756104522],[127.07528574682608,37.53051473662598],[127.0750450405443,37.5305600265198],[127.07516343170013,37.53095828217891],[127.0751969174052,37.53107088553212],[127.07520077677508,37.53108385743654],[127.07521121972526,37.53111889958339],[127.07524856496077,37.53124447482233],[127.07533903438974,37.531549044328884],[127.07535458592156,37.531601652646444],[127.07538262352669,37.53169587906683],[127.07541054815484,37.53179019564909],[127.07543858599021,37.53188451215233]]]}}