{"type":"Feature","id":"moa-urban-4900482","properties":{"id":"moa-urban-4900482","project_name":"광장동 264-1번지 일대 모아타운","district":"광진구","status":"대상지선정","data_reference_date":"2026-09-17","source_url":"https://urban.seoul.go.kr/view/html/PMNU1100000001?seq=4900482","source_api_url":"https://urban.seoul.go.kr/bsns/getBsnsInfo.json","present_sn":"11215UQ120PS202609170002","source_crs":"EPSG:5174","coordinate_transformation":"Official supplied boundary transformed locally from EPSG:5174 using the official website Proj4 definition to EPSG:4326; no geocoding or centroid inference.","point_coordinates":null},"geometry":{"type":"Polygon","coordinates":[[[127.10182136580596,37.54868772016452],[127.10188032603165,37.54867962602151],[127.10200183746645,37.54882137471311],[127.10211036258492,37.54878946832432],[127.10214721631054,37.54877863404282],[127.10217983289206,37.548705274585124],[127.1022043389877,37.54870167675851],[127.10229162636605,37.54868885327891],[127.10227706119214,37.54871318345526],[127.10229489695837,37.54873944113362],[127.10249443733468,37.54882434224769],[127.10255340459187,37.54873926528896],[127.10258923825816,37.548769219605425],[127.10263442961899,37.548806914421014],[127.10263445291284,37.548824159368884],[127.10252750628601,37.548860038259114],[127.10241425924211,37.54889802174472],[127.1023841490612,37.54892496907824],[127.10231626544972,37.54898572680479],[127.10226260044922,37.54903374135982],[127.1023234058511,37.54918729040789],[127.10246688190969,37.549193285571214],[127.10246010935487,37.549248017550404],[127.1024768603407,37.549258526804515],[127.1025041104323,37.54927562233169],[127.10260571695535,37.54927369737471],[127.1026231096731,37.549273367137744],[127.10266498420141,37.54930159536339],[127.10272628953449,37.549330311477135],[127.10273764201203,37.54931521014886],[127.10282584265326,37.54935797663242],[127.10283704946627,37.54934395660874],[127.10286122945114,37.54935846884337],[127.10281691834447,37.54941130493058],[127.10297115379579,37.549515354100066],[127.10308686715693,37.549384674018434],[127.10326102872132,37.549145680405644],[127.1033224873748,37.549170566866984],[127.10350604189155,37.549015888531834],[127.10351505169201,37.54868518101669],[127.10353398506194,37.54870277002617],[127.10355316956337,37.54869704116816],[127.10376601562552,37.54870480380565],[127.104026381015,37.548689576578056],[127.10406930471372,37.54869051237997],[127.10413551219611,37.548696059028984],[127.1042274016575,37.548713836784025],[127.10426093382056,37.54872368247546],[127.10428690370793,37.5487313092911],[127.10444488462286,37.548818279508545],[127.10446599381716,37.54882148665538],[127.10453310182392,37.548831681409716],[127.1045891264136,37.54883014588782],[127.1047111283016,37.54881482159982],[127.10476555549333,37.548803781935206],[127.10495129618927,37.54875993934791],[127.10494602361895,37.54873594156588],[127.10494051189299,37.54871084478394],[127.10493928197522,37.548705223677246],[127.10493532928845,37.54867824245831],[127.10490077924639,37.54866886636478],[127.10490072230455,37.54866860512725],[127.10489009039074,37.548623294586726],[127.10488935615126,37.54861605126168],[127.10488835810612,37.54860624935308],[127.10488617803398,37.548584528367904],[127.10489320137613,37.54852425493005],[127.10489463286359,37.548511955149316],[127.10489759650068,37.5484864995581],[127.10495699868815,37.548366201275],[127.10495913926651,37.54831019379569],[127.10496047138123,37.54827512605648],[127.10496460396303,37.548268518171845],[127.10502570031063,37.54817061700415],[127.1050363252752,37.54815360598886],[127.10508800467991,37.54807080464271],[127.10516810358037,37.54794246927043],[127.10517879720112,37.54790153686708],[127.1052151388414,37.5477912416652],[127.10523134426624,37.547701966240616],[127.10519143888803,37.54769024334664],[127.1050865850626,37.54765814293961],[127.10499526677708,37.5476352747487],[127.1048819538519,37.54760690266517],[127.1047867286006,37.54758182129417],[127.10468958841643,37.547563075487275],[127.10455031876354,37.54753619437553],[127.10440639672404,37.5474999198148],[127.10424634974622,37.547455595235654],[127.10425035480924,37.54743026488881],[127.10411144973517,37.54742140276562],[127.10384415642336,37.54735704262111],[127.10376400867924,37.547483962595265],[127.10361110949925,37.547444748595794],[127.10355359688381,37.547458015844704],[127.10347387789281,37.54743489318551],[127.10335380138567,37.54740005635659],[127.10324169461624,37.54736753709767],[127.10311662251505,37.54732868590932],[127.10319692830834,37.54717580867667],[127.10312310034348,37.54715732982171],[127.10311454576156,37.54717423076779],[127.10306335361443,37.547275366016564],[127.10304727480018,37.5473071442876],[127.10300689092274,37.54738695726937],[127.10297903937494,37.547510119671045],[127.10287168450013,37.54762743081438],[127.1028089337823,37.547675264217645],[127.10266088274928,37.54779033956867],[127.1026484195765,37.54780400926864],[127.1026330976797,37.547820825874254],[127.10257701960964,37.54790795467294],[127.102489109121,37.54799503858684],[127.10241179900106,37.5480633727625],[127.10236339984466,37.548071703222526],[127.10232325219204,37.54812358052971],[127.10213189088091,37.54821210392582],[127.10199701826072,37.548274495267314],[127.10193835757889,37.54838585360408],[127.10195300853823,37.54843386396828],[127.10193678944846,37.54849067623812],[127.10187953359055,37.54861187216923],[127.10186849775287,37.54860998045682],[127.10181097997102,37.54858650444484],[127.10182016861978,37.54854419511087],[127.10181988571517,37.54854419535116],[127.10180259430867,37.54854400280892],[127.10174847874936,37.548542877464854],[127.10168925986943,37.54862653067253],[127.1016467459921,37.54868659075095],[127.10160306868096,37.54874830061314],[127.10156765915568,37.54879831760059],[127.10153237382093,37.54884815427363],[127.10157502120899,37.54889800421561],[127.10161988331079,37.54895044171248],[127.10165901231773,37.54886389538142],[127.10168940829368,37.54879664666208],[127.101727963981,37.54871137389265],[127.10182136580596,37.54868772016452]]]}}