{"type":"Feature","id":"moa-urban-8849","properties":{"id":"moa-urban-8849","project_name":"정릉동 226-1","district":"성북구","status":"관리지역고시","data_reference_date":"2026-06-11","source_url":"https://urban.seoul.go.kr/view/html/PMNU1100000001?seq=8849","source_api_url":"https://urban.seoul.go.kr/bsns/getBsnsInfo.json","present_sn":"11290UQ120PS202607150003","source_crs":"EPSG:5174","coordinate_transformation":"Official supplied boundary transformed locally from EPSG:5174 using the official website Proj4 definition to EPSG:4326; no geocoding or centroid inference.","point_coordinates":null},"geometry":{"type":"Polygon","coordinates":[[[127.01180539294063,37.609120272279284],[127.01176890349134,37.6092093645593],[127.01176685481774,37.609218266439825],[127.01176420541994,37.60922368157194],[127.01169550796654,37.609324047904],[127.01169072981087,37.609332598635326],[127.01168774019493,37.60933473422032],[127.0116290268951,37.60940065510869],[127.01162003180988,37.60946440035646],[127.01162096534975,37.60950030440963],[127.01161992238978,37.609576518566314],[127.01158508280629,37.60957457271837],[127.01166813021455,37.609709553431074],[127.01165591171836,37.60972190694384],[127.01161952753914,37.60975543560185],[127.01161290260427,37.60975886890984],[127.01160188426599,37.60976881669241],[127.01163014135619,37.60976912961905],[127.0116877883639,37.6097718095933],[127.01170237553781,37.609771574080455],[127.01170929555997,37.60977274475982],[127.01176667079288,37.609775649964504],[127.0117683815657,37.60978021779452],[127.0117864386113,37.609811092877045],[127.01180592306325,37.60984473384688],[127.01180703342946,37.60984813946187],[127.011849094551,37.60991761050643],[127.0118496383092,37.60991858351933],[127.01185566496106,37.60992934972594],[127.0118562426922,37.609930295706384],[127.01189006833236,37.60998585629528],[127.01190478351879,37.610010010327],[127.0119193967638,37.61003401119887],[127.01192434680237,37.61003968694873],[127.0119464659751,37.61012404393371],[127.01195878770115,37.61028294902193],[127.01193828670394,37.610270364116346],[127.01193540156035,37.61029095180709],[127.01193423157066,37.61034738040547],[127.01193570837961,37.61037955433786],[127.01208599698928,37.61044825886649],[127.01218466286693,37.61050996724969],[127.01226879797646,37.61057030738157],[127.01236873310735,37.61063527704822],[127.01246540615685,37.610696976368075],[127.01247490945285,37.610704534723865],[127.01255104728207,37.61075237877679],[127.01257956766146,37.61076906229094],[127.01266626248096,37.61082609529368],[127.01267328484256,37.61082924806661],[127.01275444091675,37.61088196582445],[127.01288080316614,37.610970213904835],[127.01291585994257,37.61099566326042],[127.01295668791856,37.611063007698675],[127.0129876686108,37.6111398025758],[127.01306635178548,37.61111971382327],[127.01322957481494,37.61110314670774],[127.01335710579055,37.61127071659115],[127.01336801518565,37.611288041375225],[127.01338636638707,37.61131049199632],[127.01340565312417,37.61130460664497],[127.01341719968967,37.61134023029905],[127.01345142107009,37.611380392609576],[127.01353967729247,37.611489645706385],[127.01362722736027,37.611433145205126],[127.01391235641272,37.61111587994415],[127.01389370867874,37.61067142758326],[127.01389296408718,37.610552182715566],[127.01388920836139,37.61044178580294],[127.01388700252639,37.61032099139485],[127.0138844153335,37.61022256840461],[127.0138787882844,37.61009620628199],[127.01384828691457,37.610085631944195],[127.01352605239718,37.610080178182656],[127.0133607898063,37.61007612243956],[127.01325687779199,37.61007358303965],[127.01320110734221,37.61004327143177],[127.01328642829121,37.60994392879808],[127.01329775161692,37.60993016066467],[127.01332703371988,37.60989456895235],[127.01334125349779,37.60986274484661],[127.01335110556046,37.60978424130166],[127.01335359399562,37.60976423925262],[127.01338222560157,37.60976939900516],[127.01339047781,37.609743855336774],[127.01333576791251,37.609622345387145],[127.01332894767127,37.60960766006334],[127.01333656793724,37.609596541182896],[127.01316778796667,37.60954392259174],[127.01319995550227,37.609420151514385],[127.0131793087172,37.60941663071607],[127.01318263445506,37.60939142992038],[127.01316443304637,37.60938199843571],[127.01318674959212,37.609272094443625],[127.01312840869444,37.60924771061212],[127.01312258708528,37.60924540467051],[127.01311361687533,37.60924218003626],[127.0131037968984,37.60916357932626],[127.0130316833026,37.60920519373301],[127.0129993505125,37.609212891268804],[127.0129738811792,37.609222408113624],[127.01289804790126,37.60923235328034],[127.0128438982044,37.60928718324528],[127.01278120635186,37.60932396733011],[127.01270283500261,37.60932688495353],[127.01256052969588,37.609315942409154],[127.01240278809088,37.609228498732314],[127.01236783252666,37.609191201293285],[127.01237839875517,37.60911085975143],[127.012328861474,37.60911008945378],[127.01232975605956,37.609109269478175],[127.01233467821393,37.60907900503958],[127.01228375476467,37.609125635516556],[127.01208289617138,37.6091036336614],[127.0120782903629,37.60912922196415],[127.01207387571043,37.6091450976629],[127.0120754405767,37.60915899967615],[127.01185029893988,37.60912678245783],[127.01184704866132,37.60912753055738],[127.01184468152023,37.60912653067437],[127.01183821457691,37.60912540501231],[127.01180539294063,37.609120272279284]]]}}