{"type":"Feature","id":"moa-urban-8795","properties":{"id":"moa-urban-8795","project_name":"성현동 1021 일대","district":"관악구","status":"관리지역고시","data_reference_date":"2025-11-30","source_url":"https://urban.seoul.go.kr/view/html/PMNU1100000001?seq=8795","source_api_url":"https://urban.seoul.go.kr/bsns/getBsnsInfo.json","present_sn":"11620UQ120PS202605070001","source_crs":"EPSG:5174","coordinate_transformation":"Official supplied boundary transformed locally from EPSG:5174 using the official website Proj4 definition to EPSG:4326; no geocoding or centroid inference.","point_coordinates":null},"geometry":{"type":"Polygon","coordinates":[[[126.95192627486529,37.48764736212458],[126.95193603369053,37.487687097645335],[126.95193603368936,37.487687099447314],[126.95197679442157,37.487853081760825],[126.95202399797742,37.48794383230404],[126.95208474210281,37.48807711572024],[126.95208540883215,37.48809486571054],[126.9520814397798,37.488112433561184],[126.95207283559573,37.48812882817132],[126.95206921424295,37.48813351185881],[126.95232525380831,37.48840635160071],[126.95233406999458,37.48841149097389],[126.95254191658996,37.488551502689866],[126.95261537796142,37.48860703474795],[126.95269254868106,37.4886948241102],[126.95274937685524,37.48876692761799],[126.95277748114356,37.488844785655175],[126.95286896916474,37.48917368851955],[126.95329831701879,37.489682749529806],[126.95336571451051,37.489849732375895],[126.95332835920662,37.48991368816815],[126.95360258503699,37.48987830028121],[126.95366940550551,37.489887607663164],[126.95370127148254,37.489742739712334],[126.95362907377809,37.489654862939574],[126.95404665150456,37.48912075623971],[126.95407446461705,37.48912498409286],[126.95417699490724,37.48916665143721],[126.95423544552855,37.48917901854764],[126.9544199874273,37.48916665844602],[126.95448507795246,37.489229123702565],[126.95451182994138,37.48930283618155],[126.95443667032612,37.48942939681147],[126.95441333796809,37.48949209713806],[126.95441750107257,37.48952489521106],[126.95460755224845,37.489383063259226],[126.95468458595244,37.48933308829646],[126.95512796083452,37.48912251920842],[126.95521685605172,37.48908948736084],[126.95526693721688,37.48910545468293],[126.95528875588641,37.48911240092497],[126.95529075078684,37.488994460747755],[126.95534098812172,37.48894033026455],[126.9553626909066,37.48895178145008],[126.95533693217143,37.48891654226722],[126.95533072680313,37.48889446533033],[126.9553043848166,37.48888832822714],[126.9553066531368,37.488877156708526],[126.95535519599137,37.48863651845385],[126.9553593923883,37.488615797081614],[126.95534853852102,37.488614171040076],[126.95535273414238,37.488594711068416],[126.9553336379852,37.48857371029383],[126.95526934381932,37.488503136804724],[126.95517053285373,37.48829839076421],[126.95514894185462,37.488289372287525],[126.95512926777545,37.48828891406479],[126.95503204724186,37.48825571903517],[126.95503255636827,37.488255223685165],[126.95511326918043,37.4881776792627],[126.95519895989182,37.48809535242244],[126.95535607411969,37.487944415218074],[126.95539623788166,37.487905823026146],[126.95540030714385,37.48790789691589],[126.95543204828145,37.48777537210811],[126.95542889470154,37.48775520648375],[126.95541367872248,37.48765787445751],[126.95540310303275,37.487590205180865],[126.95538419472128,37.48755832039613],[126.95536242597429,37.487526083100605],[126.95531635746015,37.48745886846529],[126.95527398232493,37.487398277611916],[126.95523082729476,37.48733733504696],[126.95521200724025,37.4873092344709],[126.95519171256333,37.4872155494713],[126.95517281293748,37.48709668204326],[126.95516544042002,37.48706072922163],[126.95515849918122,37.486967274700234],[126.9551536844485,37.48690913123169],[126.95515154090653,37.48688311849827],[126.95514277727995,37.48681121519686],[126.95512907409247,37.48670026959012],[126.95512033576149,37.48666066717377],[126.95499804109043,37.48667838682473],[126.95488064275379,37.48669527035099],[126.95477458442531,37.48671332053818],[126.95476150083896,37.48671579311381],[126.95474751260143,37.486718427510056],[126.95467595575455,37.48672961662415],[126.95466252187992,37.48673171963963],[126.95457672793482,37.486745660109506],[126.95456381530391,37.48674595230925],[126.95448138873981,37.486745099614915],[126.95438728173909,37.486762946981074],[126.95429683803032,37.486780939896384],[126.95416001995162,37.48680655465129],[126.9540647476361,37.48682527526401],[126.95392413948407,37.48681856031548],[126.9537579080184,37.48685042470864],[126.95355265330524,37.48688701229713],[126.95345512959126,37.48690740736541],[126.95343684400588,37.48691104897914],[126.9533491591329,37.48692848367055],[126.95325907771868,37.48694504334735],[126.95315984712882,37.48696447340372],[126.95314032886537,37.48696842080726],[126.9530285574872,37.48698996296979],[126.95302616012617,37.48699042149632],[126.95302162548613,37.486991302615955],[126.95288631047913,37.48701680839162],[126.95286490406804,37.487020547742326],[126.9527601212425,37.487040497756766],[126.95273295866761,37.487045667299284],[126.95259930562287,37.48707111036209],[126.95258023852709,37.48707667065114],[126.95243958663875,37.48710000229245],[126.95233643364725,37.48711711445551],[126.9522420896699,37.48713276157122],[126.95221528932139,37.487137210345125],[126.95221474652963,37.48713730021869],[126.95221474086257,37.48713732093937],[126.9521742865844,37.48714299567384],[126.95213059801098,37.4871408510594],[126.95206659945636,37.48713770953263],[126.95205605642768,37.487167543560595],[126.95200190427845,37.48732663760437],[126.95198513375742,37.48738150151721],[126.95194798036044,37.48748221781209],[126.95193639412913,37.48756258221003],[126.95192627486529,37.48764736212458]]]}}