{"type":"Feature","id":"moa-urban-8828","properties":{"id":"moa-urban-8828","project_name":"망원동 456-6번지 일대","district":"마포구","status":"관리지역고시","data_reference_date":"2026-06-18","source_url":"https://urban.seoul.go.kr/view/html/PMNU1100000001?seq=8828","source_api_url":"https://urban.seoul.go.kr/bsns/getBsnsInfo.json","present_sn":"11000UQ120PS202503070023","source_crs":"EPSG:5174","coordinate_transformation":"Official supplied boundary transformed locally from EPSG:5174 using the official website Proj4 definition to EPSG:4326; no geocoding or centroid inference.","point_coordinates":null},"geometry":{"type":"Polygon","coordinates":[[[126.90097274870148,37.55460582282549],[126.90120654613892,37.55444747444817],[126.90130414292818,37.5543811903875],[126.90132803264369,37.554364758580775],[126.90142303509396,37.55430035528884],[126.90144488589338,37.5542852642051],[126.90154559690164,37.554217144562166],[126.90161673240505,37.55416889367629],[126.90169174188111,37.55411791602212],[126.90176554703207,37.55406955377781],[126.9018292842129,37.55402817647315],[126.90186629188614,37.554001925827706],[126.90194424737687,37.553947995249864],[126.90194792803973,37.55389752758683],[126.90186491138964,37.55382754882551],[126.90179082621307,37.553764398945496],[126.90176491726456,37.55374220369197],[126.90174743099428,37.55372722347125],[126.9017355735499,37.553716671866496],[126.90167816146256,37.55366741035116],[126.90166087867988,37.553652619497434],[126.90160076469344,37.55360129329244],[126.90158573012697,37.553588567597565],[126.90155489437115,37.55356178118646],[126.9014826973468,37.55350035360033],[126.90138520341135,37.55341629777412],[126.90122496585168,37.553278620215195],[126.90134066021193,37.55319120343605],[126.90142355996944,37.55313021542678],[126.9014399401718,37.553118264159515],[126.90155515631457,37.55303434620856],[126.90164514658977,37.55296848067663],[126.90170989744071,37.55292074869969],[126.90172367191458,37.55291086746784],[126.90176608551515,37.5528792343958],[126.90187278490156,37.552799642699696],[126.90203115327786,37.55268090317054],[126.90200165001188,37.55258410653733],[126.90195990664992,37.55255532074673],[126.90190180595414,37.55254699164473],[126.9017665501478,37.55252805577421],[126.90153537738814,37.55249755094559],[126.90141933471764,37.552582370977106],[126.90129752626963,37.552671114317725],[126.90094431895746,37.55293074071464],[126.90087853649032,37.55297942824387],[126.90058198022777,37.55319344502955],[126.90005770227307,37.55357995660917],[126.89995966682982,37.553650875766984],[126.89988194513262,37.55370849389176],[126.89983232180903,37.553748950678184],[126.8994552019613,37.554025769893684],[126.89936876647123,37.554089214956576],[126.89909577734956,37.55428741254694],[126.89893477630193,37.55440628456708],[126.89883494897866,37.554480042945706],[126.89878436678077,37.55451747112527],[126.89791604423137,37.555160082398636],[126.89733136194043,37.55559237648405],[126.89700376429136,37.55583326394234],[126.89691730267789,37.55590432052955],[126.8968611410503,37.55595655520501],[126.89682902595882,37.55598644860812],[126.89673200836799,37.55607929965145],[126.89667684546251,37.556145509475584],[126.8969507368035,37.55620201014698],[126.89714032676142,37.55624139797626],[126.89726737180769,37.55626837772718],[126.89739236875553,37.55629517533729],[126.8975180572664,37.55632117154324],[126.89764351915498,37.55634742870302],[126.89776955805524,37.556373875444265],[126.89781568545928,37.55638365566411],[126.8979251709216,37.556407375720745],[126.89810539397911,37.55644469051503],[126.89816445412343,37.55645673439872],[126.8982790542538,37.55648118840551],[126.8985173182455,37.556531356367756],[126.89882894399844,37.55658832707567],[126.89893175563205,37.55660998613771],[126.89899505830205,37.55662332170693],[126.89910724947492,37.55664695291727],[126.8992664513778,37.55668027434009],[126.89931285119167,37.55668975688409],[126.89943303048658,37.55671498945059],[126.89955179557799,37.55673993235682],[126.8996719410946,37.55676515564097],[126.89979119286048,37.5567901978349],[126.89991120276652,37.556815393728996],[126.90009244571363,37.556853192901166],[126.90014064324781,37.55683070954883],[126.90015659232877,37.55677851088669],[126.90018542422655,37.55669022061973],[126.90020880109023,37.55661863001416],[126.90023730472102,37.556530294400915],[126.90025788443818,37.55646828791554],[126.90031641346874,37.55629588864833],[126.90007903111763,37.55624620259609],[126.89991007687887,37.556210918727245],[126.89978342635489,37.55618447374281],[126.8996638020843,37.556159431217694],[126.89960227579594,37.55614662011345],[126.89954440399512,37.55613456896467],[126.89941578532694,37.55610752723272],[126.89931204607404,37.55608597590649],[126.89920025122846,37.556062750677825],[126.89892246393637,37.55600328758059],[126.899144332299,37.5558476359337],[126.89917403378735,37.55582750653777],[126.89923577024264,37.55578566400237],[126.89927055808647,37.55576191700839],[126.8993595156428,37.55570118619838],[126.89945212017237,37.55563828708742],[126.89948374706154,37.555616960960464],[126.89963579901213,37.55551390187918],[126.89977506180215,37.555419363955636],[126.89988577882748,37.555343983375835],[126.90001048560575,37.55525885699703],[126.90009990571237,37.55519831522879],[126.90020365548197,37.55512775766963],[126.90023930325727,37.55510368676865],[126.90034727737937,37.55503068201241],[126.90044756088484,37.5549621575041],[126.9004735679865,37.55494520511024],[126.90057306966219,37.554877211409284],[126.90066724603543,37.55481371802556],[126.90069440945842,37.554795225877236],[126.90078361390587,37.55473433201551],[126.90085885111245,37.55468316588239],[126.90097274870148,37.55460582282549]]]}}