{"type":"Feature","id":"moa-urban-4900091","properties":{"id":"moa-urban-4900091","project_name":"구의3동 224-54번지 일대 모아타운","district":"광진구","status":"대상지선정","data_reference_date":"2026-09-17","source_url":"https://urban.seoul.go.kr/view/html/PMNU1100000001?seq=4900091","source_api_url":"https://urban.seoul.go.kr/bsns/getBsnsInfo.json","present_sn":"11215UQ120PS202609170001","source_crs":"EPSG:5174","coordinate_transformation":"Official supplied boundary transformed locally from EPSG:5174 using the official website Proj4 definition to EPSG:4326; no geocoding or centroid inference.","point_coordinates":null},"geometry":{"type":"Polygon","coordinates":[[[127.09232042074395,37.54202847738776],[127.09230025747793,37.54190751667698],[127.09229445573354,37.541872616701404],[127.0922721268589,37.54173861128072],[127.09225333141472,37.541625776454154],[127.09224888616123,37.54159908347118],[127.09224229809878,37.541559543985564],[127.0922191943529,37.5414208900231],[127.09221765559381,37.54141162900497],[127.0922038069866,37.54132845102882],[127.09215807034633,37.54129960033033],[127.09198123600258,37.54132610796274],[127.09185179196595,37.54134551531107],[127.09172439551554,37.541364605606205],[127.09158702087639,37.54138519902152],[127.09144912574217,37.54140585574282],[127.09132769110101,37.541424067107364],[127.09130934127526,37.541426820076936],[127.09104081365719,37.54146706403384],[127.0908921957461,37.54148181772375],[127.09070885050677,37.54149562438764],[127.09057898706568,37.54150541707057],[127.09046085619786,37.54151420968354],[127.09034581406435,37.54152277460711],[127.09022526190678,37.54153173999412],[127.09009806781391,37.54154077330965],[127.08998321745433,37.54154891426981],[127.09002066781105,37.54170932588912],[127.09005070328035,37.54183798307759],[127.09005911934904,37.54187420566256],[127.0900863805183,37.541991431328086],[127.09011024135035,37.54209414455283],[127.09013492101788,37.54220029894631],[127.09014322345082,37.54223604408246],[127.09016752786758,37.54234055894254],[127.09021451066612,37.54254270628403],[127.0902419080436,37.54265987773819],[127.09027067035105,37.54278295866545],[127.09040787851016,37.54276263720774],[127.09048164144475,37.542751715699616],[127.09057954698608,37.542737208012234],[127.09069387944001,37.54272027318187],[127.0908726185489,37.542693802080024],[127.09089432885142,37.54269063217917],[127.09105768210426,37.54266675828759],[127.0911671612014,37.542650763710384],[127.09131077006735,37.5426182810608],[127.09131076271024,37.542612146211674],[127.09126788773979,37.542592185790454],[127.09125869444854,37.54248393858296],[127.09125665144455,37.54245983859803],[127.09125428717654,37.5424320357797],[127.0912404340554,37.54226881357186],[127.09122815351411,37.54212423168992],[127.09139865126515,37.54213358048647],[127.09146087779574,37.54213698391008],[127.09150845951442,37.5421379657827],[127.09159212638917,37.542139685961914],[127.09161528788397,37.54213903759933],[127.09171515274043,37.54213624938193],[127.09179417563094,37.54213403562935],[127.09178733642561,37.54222390580876],[127.09177532489947,37.54237846216023],[127.09191625939403,37.54238083209127],[127.09195133742608,37.542381417909446],[127.09195123120531,37.5423871573102],[127.09208532562226,37.54240354270367],[127.09209962331362,37.54239956737281],[127.0921336145101,37.54239032414711],[127.09233623796717,37.54233514491273],[127.09236528426835,37.542297866549674],[127.09233998012853,37.54214594270767],[127.09232042074395,37.54202847738776]]]}}