{"type":"Feature","id":"moa-urban-8791","properties":{"id":"moa-urban-8791","project_name":"화곡1동 354번지 일대","district":"강서구","status":"관리지역고시","data_reference_date":"2026-04-30","source_url":"https://urban.seoul.go.kr/view/html/PMNU1100000001?seq=8791","source_api_url":"https://urban.seoul.go.kr/bsns/getBsnsInfo.json","present_sn":"11000UQ120PS202503070108","source_crs":"EPSG:5174","coordinate_transformation":"Official supplied boundary transformed locally from EPSG:5174 using the official website Proj4 definition to EPSG:4326; no geocoding or centroid inference.","point_coordinates":null},"geometry":{"type":"Polygon","coordinates":[[[126.84213370243347,37.533240642612796],[126.8421407178683,37.533176447333624],[126.84214898267467,37.53309933350239],[126.84215816182744,37.53301786910793],[126.8421617960925,37.532968823962165],[126.84217018433266,37.53287621321627],[126.84217629445044,37.53281740464674],[126.84218475243324,37.53273985859223],[126.84219784784612,37.53259905107172],[126.84217720272821,37.53257658849728],[126.84200972575859,37.532565559522716],[126.84180650041712,37.532553076425195],[126.84160327691433,37.53253976406703],[126.84150563851405,37.53253473042236],[126.84140365740515,37.53252887090614],[126.84120256166055,37.53251526341547],[126.84083033302242,37.5324915569994],[126.8407294677548,37.53248244583492],[126.84061830297513,37.5324752036284],[126.83989651945302,37.53243304272981],[126.83978034172392,37.53242631545045],[126.83966335139479,37.53241867694037],[126.83954898378767,37.53241200597361],[126.83942088337753,37.532404379016306],[126.83936389412602,37.53243661039052],[126.83932795476342,37.532497260931464],[126.83924696133172,37.53263220850719],[126.83920578378148,37.532703168179545],[126.8391646699282,37.53277080326067],[126.8391005238515,37.53287889727186],[126.83902883145134,37.5329973332711],[126.83877700175721,37.53341678608659],[126.83816382333555,37.53441744694311],[126.83820564079585,37.534469005510196],[126.83833499875338,37.53451896415388],[126.83848263390203,37.53457711989023],[126.8385621835703,37.534608142732196],[126.83870078922716,37.53466164562469],[126.8388429796841,37.534716054284516],[126.83898573425296,37.53477129246231],[126.83910826494281,37.534818754122284],[126.83919334572211,37.53485070405774],[126.83936594528093,37.534917407376504],[126.83943515261605,37.534944099675066],[126.8394917777335,37.53496599941172],[126.83962008605596,37.53501555876856],[126.83972194417278,37.535053666178094],[126.83972969921443,37.535056659087104],[126.83987684158674,37.535113469923516],[126.84000694172313,37.53516132843595],[126.84011347766824,37.535202514288635],[126.84015588169436,37.53521896128556],[126.84025570139018,37.535258191689415],[126.84039610281452,37.53531429890891],[126.84051164575243,37.53536053323707],[126.84060523241374,37.53539943049007],[126.84061978080028,37.53540547795067],[126.84076011987915,37.53545926009112],[126.8407822109028,37.5354671558229],[126.84096902411541,37.53553906585481],[126.84110037242088,37.53559119556148],[126.84116158728935,37.5355783494528],[126.84122778492727,37.53546822992272],[126.84127425876585,37.53539122209547],[126.84131188408927,37.5353304201103],[126.84135789528189,37.53525275389608],[126.8414068431348,37.53517210034902],[126.84147471235954,37.535052414398024],[126.84149118911101,37.535024370808436],[126.84158509156143,37.5348730411652],[126.84163133695665,37.534796699614006],[126.8416764938783,37.53472140082087],[126.84175032897474,37.53459974960186],[126.84180518888033,37.53451052642806],[126.84186077530674,37.53442010588926],[126.84195085895917,37.534270870088484],[126.84199476193065,37.53419968790942],[126.8420219983196,37.534155521995736],[126.84206368176237,37.53401080678081],[126.84207059234927,37.53393215044032],[126.84207916145581,37.53383440430215],[126.84208902602346,37.5337286681051],[126.84209836187537,37.53364275303163],[126.84210667935933,37.533562197488386],[126.84212056078648,37.53341369657922],[126.84212903534552,37.53332310418368],[126.84213370243347,37.533240642612796]]]}}