{"type":"Feature","id":"moa-urban-8801","properties":{"id":"moa-urban-8801","project_name":"자양2동 649번지 일대 모아타운","district":"광진구","status":"관리지역고시","data_reference_date":"2026-04-30","source_url":"https://urban.seoul.go.kr/view/html/PMNU1100000001?seq=8801","source_api_url":"https://urban.seoul.go.kr/bsns/getBsnsInfo.json","present_sn":"11215UQ120PS202605070001","source_crs":"EPSG:5174","coordinate_transformation":"Official supplied boundary transformed locally from EPSG:5174 using the official website Proj4 definition to EPSG:4326; no geocoding or centroid inference.","point_coordinates":null},"geometry":{"type":"Polygon","coordinates":[[[127.08076347278798,37.531103662081456],[127.08080372536251,37.53118814829005],[127.0808531627359,37.531292179880545],[127.0809655082471,37.53152830889971],[127.08096689160493,37.53153122718904],[127.08096972631729,37.53153717184114],[127.08112784562859,37.53149462855853],[127.08114978771792,37.5314886672073],[127.08124977646473,37.53146643530124],[127.08128246502525,37.5314591151794],[127.08133279867876,37.53144790885214],[127.08140530525365,37.53143506571882],[127.08151819366788,37.53141498724448],[127.08153470921661,37.531412813671274],[127.08156819266269,37.531408286012564],[127.08169590498825,37.53139117059964],[127.08170563333239,37.531389902603706],[127.08175902839949,37.531385091072195],[127.08182011110307,37.53137504852573],[127.0818538224295,37.53137205232057],[127.08198052646958,37.53136430762133],[127.08209399648722,37.531359274797026],[127.08213925056933,37.53135897361643],[127.08225227773522,37.531362950880485],[127.08227411287409,37.53136284585319],[127.08246384953257,37.531369833818175],[127.0824775157848,37.53124368531622],[127.08248793300484,37.53114709163561],[127.08249663656332,37.53106653681818],[127.08249801429837,37.53105374176074],[127.0825088804028,37.53095381409008],[127.0825117928897,37.53092696247532],[127.08252142635799,37.53083802777216],[127.08253610069261,37.53070268842274],[127.08254685463343,37.53060375191293],[127.08255805640589,37.53050049032224],[127.08256096876035,37.53047354860491],[127.08256197732118,37.530464628072764],[127.08257317807741,37.53036046548497],[127.08260723064829,37.530046085307546],[127.08262100740926,37.529917954497954],[127.08263444901566,37.52979378828801],[127.08263848133284,37.52975639426527],[127.08264299572905,37.52971494543777],[127.08264654673589,37.529682327013425],[127.08265461163514,37.52960780926338],[127.08266491634356,37.52951220671124],[127.08267510935704,37.52941795572454],[127.08268570996935,37.529282258725516],[127.08269792652297,37.52917620331924],[127.0827094710831,37.52907645533086],[127.08272090365237,37.528977788609694],[127.08273323294645,37.52887146281853],[127.08274309625902,37.528786312083945],[127.082705386866,37.52875273092713],[127.08259327071907,37.528750645555625],[127.08249688021684,37.528748819595044],[127.08240354438004,37.52874708156333],[127.08228701590782,37.5287448187239],[127.08224357231346,37.52874400149027],[127.08216630155916,37.52874255862777],[127.08204422963384,37.52874029933387],[127.08192012124337,37.528737951200725],[127.08180031197196,37.528735690114424],[127.08165097468556,37.52873290834745],[127.08155775201901,37.528731169570534],[127.08141033799343,37.52872838619595],[127.0812677887486,37.52872568945205],[127.08115691713127,37.528723601876685],[127.08103164611761,37.528723686278205],[127.08099562217522,37.52864649531918],[127.08096863545016,37.528588669645565],[127.08092917610858,37.52850427302127],[127.08086389831557,37.52836466278098],[127.08085252547244,37.528340343575046],[127.08077610191118,37.52817686441911],[127.08059039527787,37.52822879606505],[127.08058404566626,37.528215285401274],[127.08040173701143,37.52827126894993],[127.08033849213061,37.52829069065967],[127.08032831272949,37.52826933577867],[127.08014645438547,37.52832351664386],[127.08013976497902,37.528309555685425],[127.07996039623511,37.52836463560089],[127.07989700187427,37.52838410222297],[127.07989700187524,37.528384103123955],[127.0798929815055,37.528375762584815],[127.07985385046611,37.52838768166939],[127.07985511460342,37.52840651161143],[127.07972505431825,37.528445791054445],[127.07955145371652,37.52849996553403],[127.07959487890977,37.528591838250094],[127.07963082078167,37.528667678200655],[127.07967061776772,37.528751714635895],[127.07971030152295,37.528835570932614],[127.0797578087133,37.528935910226345],[127.07979216367308,37.52900850759536],[127.07982690060605,37.52908713775718],[127.07972427739705,37.52911036490842],[127.07963401538512,37.529127453431165],[127.07952565577581,37.52914806771652],[127.07943437566666,37.529165336957874],[127.07931843755648,37.52918739764297],[127.07919017024963,37.52921171880837],[127.07909945555551,37.529228897319484],[127.07897808790021,37.52925195233027],[127.07885445788625,37.52927536909534],[127.07876396930322,37.52929254720065],[127.07864746522614,37.52931469769636],[127.07848865752662,37.52934480440218],[127.07846211219984,37.52938464563962],[127.07848807565617,37.52943913886743],[127.0785305926186,37.529528669967604],[127.07857435665161,37.52962063292154],[127.0786168735423,37.52970989368962],[127.0786205583548,37.529717639833336],[127.07864725908003,37.52977375433097],[127.07870814381624,37.529901835911375],[127.07874510548415,37.52997947743624],[127.07879669339314,37.53008801347456],[127.07881290660754,37.530121970339785],[127.07885973284247,37.530220598529915],[127.07889624135717,37.53029733930587],[127.07894896347123,37.53040821711284],[127.07898116373623,37.53047595074473],[127.07902130064191,37.53056025744801],[127.07906302507045,37.530647986871],[127.0791030489324,37.53073220351875],[127.07913876422681,37.53080723284543],[127.07919160019513,37.530918110459325],[127.07924534374096,37.53103123993483],[127.07926314490747,37.53106870956365],[127.07929863387776,37.53114337858896],[127.07935226423712,37.53125614768834],[127.0794054411838,37.53136792596691],[127.07945705039666,37.531386362294434],[127.07955126310213,37.531357918779904],[127.07965045221162,37.53132803030798],[127.07973765260546,37.531301753668494],[127.07983356156959,37.53127276820874],[127.07992313693134,37.53124576906217],[127.07998353238487,37.53122754689742],[127.08001022399773,37.531219492296394],[127.080107942449,37.53119005491399],[127.08019491624995,37.53116377808722],[127.080282116261,37.53113750104542],[127.08037553667482,37.53110932769897],[127.08046669497269,37.53108178648636],[127.08051270730468,37.531067920058554],[127.08051272649588,37.531067880402006],[127.08055389479263,37.53105550924377],[127.0806223199678,37.531034830674855],[127.08072238155263,37.53100487134053],[127.08074852349756,37.53106772245581],[127.08076347278798,37.531103662081456]]]}}