{"type":"Feature","id":"moa-urban-8863","properties":{"id":"moa-urban-8863","project_name":"대조동 89번지 일대","district":"은평구","status":"관리지역고시","data_reference_date":"2025-11-30","source_url":"https://urban.seoul.go.kr/view/html/PMNU1100000001?seq=8863","source_api_url":"https://urban.seoul.go.kr/bsns/getBsnsInfo.json","present_sn":"11000UQ120PS202503070014","source_crs":"EPSG:5174","coordinate_transformation":"Official supplied boundary transformed locally from EPSG:5174 using the official website Proj4 definition to EPSG:4326; no geocoding or centroid inference.","point_coordinates":null},"geometry":{"type":"Polygon","coordinates":[[[126.9211099951304,37.61435339252796],[126.92112478457449,37.61439782096754],[126.92133852236664,37.614491217910995],[126.92150075259951,37.614560253066664],[126.92150426217239,37.61456169701582],[126.92163128356694,37.61461638251666],[126.92177064589737,37.6146755811253],[126.92179792935039,37.6146874925078],[126.92181275946629,37.61469425988218],[126.92193378168378,37.61474587766919],[126.92208186147062,37.614809046103915],[126.92218193924339,37.614852450609106],[126.92222917593564,37.61484653588127],[126.92227479762913,37.6147615139227],[126.92227898737306,37.61476241771694],[126.92231217163597,37.614657115319076],[126.92233240000809,37.61459324934266],[126.92234276625754,37.614537215280556],[126.92234243898577,37.61452541220999],[126.92234339255522,37.61448063409425],[126.92231861715608,37.614346551495615],[126.9222933517141,37.61424742662403],[126.92226571645858,37.614140191324495],[126.92226053073048,37.61411730292312],[126.9222323328997,37.61400664350756],[126.9222303797946,37.613998564900044],[126.92228512297935,37.61399042796652],[126.92234040989183,37.61398220938309],[126.92241320303502,37.61390711637693],[126.9225128400691,37.61383087002339],[126.92262361640515,37.61393122332741],[126.92261822141519,37.61394550928062],[126.92263321851301,37.61394423991312],[126.92277676578638,37.61394397538626],[126.92279777758695,37.61394218744181],[126.92291220506314,37.613931533030055],[126.92292527002844,37.613925856540945],[126.92298000788543,37.61390543170126],[126.92305501255765,37.61389153440587],[126.92314002826734,37.61387877894819],[126.9231749044642,37.61385416928268],[126.92331327155506,37.613782002371856],[126.92334913010342,37.61374935655383],[126.92334578589904,37.6137197751285],[126.92332525563604,37.61370523771174],[126.92329126944382,37.61369124998098],[126.9233035408394,37.613664589073196],[126.92332327833263,37.61359252366188],[126.92335564639383,37.613529296227746],[126.9233472299665,37.61350878432206],[126.92334135873,37.61349130139844],[126.92338081043427,37.61345582886841],[126.9234789879971,37.6133657056161],[126.92351095829284,37.61333608447198],[126.92360697768206,37.61325163586616],[126.92369710321628,37.613171147611816],[126.92384844432262,37.61303727140498],[126.92387687125206,37.61303846138599],[126.92388435265767,37.6130324297335],[126.92388922675144,37.61302864881859],[126.92379564475345,37.61294821969755],[126.9237739314916,37.6129169413463],[126.92354739543887,37.61271641366123],[126.92350269839174,37.61267782212318],[126.92349117875372,37.61266811994879],[126.92345109768084,37.61263436070246],[126.92339825589455,37.61258639353086],[126.92336566232643,37.61256249594664],[126.92326393600668,37.612473321485766],[126.92315734690186,37.612377386347234],[126.92299078037976,37.612234560187325],[126.92285929357497,37.61212112916804],[126.92285250577241,37.612113826694625],[126.92276945276313,37.612039350243336],[126.92270054156587,37.611979659273075],[126.92264045640789,37.61192772260137],[126.922578898887,37.611875875011954],[126.92256384955535,37.61186266556712],[126.92250978498681,37.61181537290994],[126.92248939368322,37.61179860100248],[126.92237047435586,37.61169049363642],[126.92232951153646,37.611656138764936],[126.92229590876542,37.61162341058658],[126.92220968670463,37.6115479405287],[126.92217348198984,37.611512507622],[126.92205377662317,37.61139890341653],[126.92202730611584,37.61136915320141],[126.92196452831858,37.61129414924093],[126.92191950987264,37.611250511381726],[126.92180669812326,37.61114114618339],[126.92176922850939,37.61111333459965],[126.92169750577223,37.61104719010748],[126.92170439641562,37.61106404312224],[126.92173502484202,37.61112406920105],[126.92173089168145,37.61117641343244],[126.92172330960075,37.611276687546756],[126.92172226959273,37.61129605794551],[126.92171525646887,37.611393809693816],[126.9216880884562,37.61148695280289],[126.92168934563992,37.61148692662384],[126.92167797938244,37.611514245702395],[126.92167797273666,37.611520462469905],[126.92168260973129,37.61163254769824],[126.92168271817322,37.61163705267878],[126.92168394243168,37.611657235491],[126.92168427584768,37.61166318219398],[126.92169102584161,37.61170571308324],[126.92169841446476,37.6117865361138],[126.92169779377124,37.61183744114342],[126.92169742780632,37.61186194758999],[126.92170501408201,37.61196980019319],[126.92172529722158,37.612066489210264],[126.92172969301404,37.61208640387047],[126.92176587626139,37.61224806438238],[126.92186486219295,37.61248350359404],[126.92188040231686,37.612546276439],[126.92190120957532,37.61262976639445],[126.92191274337094,37.61270036605799],[126.92193031010011,37.61279579182191],[126.92195402522502,37.612860858659104],[126.92196755942761,37.612914295970576],[126.9219231298789,37.61294417859039],[126.9218783240063,37.61300829822597],[126.92179229228846,37.613177804801346],[126.92175140724189,37.61328220089362],[126.92171221886368,37.61338858027574],[126.92169665889834,37.61342911390464],[126.92168539741012,37.613474695933505],[126.92167630104984,37.613507935984096],[126.92166458283502,37.613556941429685],[126.92153322742777,37.61374353576401],[126.92151927349816,37.61376487955799],[126.92150509477673,37.61378460143185],[126.9214506478335,37.6138608776031],[126.92139234024116,37.613946160937786],[126.92131814965012,37.614055940134456],[126.92124895540967,37.61415355943673],[126.92123477567122,37.614174092158954],[126.92115083201831,37.61429512687337],[126.9211099951304,37.61435339252796]]]}}