{"type":"Feature","id":"moa-urban-8811","properties":{"id":"moa-urban-8811","project_name":"시흥3동 950번지 일대","district":"금천구","status":"관리지역고시","data_reference_date":"2025-11-30","source_url":"https://urban.seoul.go.kr/view/html/PMNU1100000001?seq=8811","source_api_url":"https://urban.seoul.go.kr/bsns/getBsnsInfo.json","present_sn":"11000UQ120PS202503070062","source_crs":"EPSG:5174","coordinate_transformation":"Official supplied boundary transformed locally from EPSG:5174 using the official website Proj4 definition to EPSG:4326; no geocoding or centroid inference.","point_coordinates":null},"geometry":{"type":"Polygon","coordinates":[[[126.90763445928253,37.44128487846442],[126.90757963518432,37.44111021063811],[126.90754335983726,37.44099460956525],[126.90752960604704,37.440950800652196],[126.90751612242371,37.440907829889134],[126.9074705280158,37.440762578228856],[126.90745522111098,37.440713821538004],[126.90744374097358,37.44067723149315],[126.90742490001918,37.44061721839987],[126.90741825959218,37.44059603042463],[126.90741669514323,37.44059104660706],[126.90741634622236,37.44058994709999],[126.90741580598146,37.440588225745344],[126.90740587917637,37.44055650237382],[126.90739012232284,37.44050617756136],[126.90728882780468,37.440183427992885],[126.90729919435739,37.440145521852074],[126.90738272526242,37.44013279409117],[126.90745225954427,37.44010068346852],[126.9074523272869,37.44010072857284],[126.90757244539364,37.44004590767571],[126.9075763045419,37.439824217789756],[126.90756206109334,37.43971126514701],[126.90750187219298,37.43964397508234],[126.9074586707271,37.43959172731421],[126.9074130509825,37.439539630776046],[126.9072631159169,37.439484378653866],[126.90680233796868,37.43940093743689],[126.90651302837678,37.43934911356811],[126.90628456570542,37.439308186160545],[126.90621809320672,37.439296275327166],[126.90612066662854,37.43927873521156],[126.90589465221102,37.43929884870194],[126.90587165634305,37.43928625563273],[126.90564425003704,37.43916172332544],[126.90562876894981,37.43915325030506],[126.90548875060534,37.439076550976715],[126.90543441514713,37.4390639828155],[126.9051494256951,37.43907274288714],[126.90503484228029,37.43907627147202],[126.90492025886658,37.439079790935736],[126.90481290752895,37.43908309095297],[126.90469775907596,37.43908663676897],[126.90461538103023,37.43908917318158],[126.90418710553509,37.43910233644792],[126.90402177992189,37.439110849884166],[126.90382808420955,37.43912537639993],[126.90361189983223,37.439141577869215],[126.90349894635604,37.43915150347063],[126.90352181353605,37.43934478860484],[126.90355609139648,37.439635121720556],[126.90357665600219,37.439809303556494],[126.90359031360718,37.439925004262165],[126.90360182539919,37.44002250283126],[126.90361066590332,37.4400974739932],[126.90363936717449,37.44034067972943],[126.90364789487604,37.4404129476027],[126.90365667967563,37.440487378105566],[126.90365853492699,37.44050314727479],[126.90366206627598,37.440533424054045],[126.90367562360359,37.44064823265522],[126.90368658801715,37.44074104551167],[126.90370035779604,37.440857638276796],[126.90372038664509,37.44102722447007],[126.90373404468852,37.441142925135736],[126.90373521829231,37.44115283718926],[126.90373828072913,37.44117878873899],[126.90375662208004,37.441334047501954],[126.90376084684195,37.441369911093915],[126.90378231784938,37.441551662055375],[126.90379396421258,37.44165033199998],[126.90380879622059,37.44177585459634],[126.90381306588073,37.4418119885231],[126.90399668989286,37.4418140593009],[126.9041074293076,37.441815303898295],[126.90417861892513,37.44181611037757],[126.90425206853959,37.4418169366938],[126.90435659299345,37.44181811287316],[126.90437736548321,37.44183335697077],[126.90437994750549,37.44185525357282],[126.90448187438813,37.44185534629794],[126.90451014463345,37.44183112339177],[126.90480879982961,37.44183628760761],[126.90497479473929,37.44183915334854],[126.90513638271665,37.44184194318263],[126.90515333250457,37.441842236313825],[126.90528554086424,37.44184451544573],[126.90543017906377,37.44184702077606],[126.90555741550111,37.44184921447157],[126.90565402932157,37.44185087863573],[126.90574872216408,37.44185251413434],[126.90586838770314,37.44185458423017],[126.90587867057585,37.44185476374166],[126.90588070241519,37.44185647729967],[126.90768234519297,37.441857921205546],[126.90774593981102,37.441796459892736],[126.90774948421927,37.44180858125457],[126.90778634957076,37.44176880398308],[126.90778401970148,37.44176138684426],[126.90763445928253,37.44128487846442]]]}}