{"type":"Feature","id":"moa-urban-8868","properties":{"id":"moa-urban-8868","project_name":"망우3동 427-5번지 일대","district":"중랑구","status":"관리지역고시","data_reference_date":"2025-11-30","source_url":"https://urban.seoul.go.kr/view/html/PMNU1100000001?seq=8868","source_api_url":"https://urban.seoul.go.kr/bsns/getBsnsInfo.json","present_sn":"11000UQ120PS202503070020","source_crs":"EPSG:5174","coordinate_transformation":"Official supplied boundary transformed locally from EPSG:5174 using the official website Proj4 definition to EPSG:4326; no geocoding or centroid inference.","point_coordinates":null},"geometry":{"type":"Polygon","coordinates":[[[127.09991185553126,37.58837421302296],[127.09971553889027,37.58844356853149],[127.09968352251066,37.588454397969315],[127.09956621029993,37.58849563443727],[127.09943299753475,37.588542470084846],[127.09930096952394,37.58858890906806],[127.099296581904,37.58859045248562],[127.09915820434729,37.588636138839746],[127.09908439418622,37.588661913976495],[127.09897418838598,37.58870060320389],[127.09893288075473,37.588714926919565],[127.09882202934625,37.58875355346846],[127.09873764841434,37.58878276985326],[127.09860485229544,37.58881992764383],[127.09851805031585,37.58885074961565],[127.09840469836679,37.58889099959945],[127.09836657082425,37.588904347442856],[127.09825174786275,37.58894540937271],[127.09815729533695,37.5889790394107],[127.09813508471821,37.58900823148106],[127.09818474872402,37.58909911821291],[127.09823359501976,37.589187978376486],[127.0982803650101,37.58927341647812],[127.0983270566911,37.589359503333185],[127.09837295201444,37.58944258153269],[127.09841758906667,37.589524435406695],[127.09846304312386,37.58960759501958],[127.09850856513494,37.589690691488926],[127.09855237361987,37.5897707530295],[127.09859704572284,37.58985313838302],[127.0986430221133,37.58993714441776],[127.09868644577121,37.59001708909365],[127.09871504603045,37.590069097413895],[127.09872066395052,37.59007931896419],[127.09872263490392,37.59007996605022],[127.09877990960634,37.590197380245435],[127.09883348987422,37.59029473252797],[127.0988944455056,37.59040404377669],[127.09895228037183,37.59050779849261],[127.09899881235856,37.59059179491051],[127.09904469908767,37.5906758098616],[127.0990906080477,37.590759428342004],[127.0991351778332,37.59084058822288],[127.09918099548521,37.59092349496337],[127.09922764262805,37.591008572371],[127.0992740166967,37.591092550783905],[127.09931981482998,37.591177610835935],[127.0993568280144,37.59124638835073],[127.09940910168726,37.59126135541478],[127.09949735544099,37.59123056763343],[127.09960946692355,37.59119189436852],[127.09964913416404,37.591177688913135],[127.09985025756819,37.591108226827146],[127.09998911739909,37.59106449441284],[127.10009466447003,37.59102825882029],[127.10021478830696,37.59098697444292],[127.1002695762288,37.59096814309446],[127.10041333073976,37.590918738892775],[127.10054601698748,37.59087343427128],[127.10066061731877,37.590833974061795],[127.10075875077436,37.590800248837745],[127.10085360216355,37.590767706583684],[127.10096059710824,37.590731036524524],[127.10106283818743,37.59069565878506],[127.10120191763188,37.59064790636536],[127.10129006855861,37.5906175227712],[127.10138882366743,37.59058340907363],[127.10147563929779,37.590553711218625],[127.10156285043628,37.59052348138356],[127.10168727310882,37.59048062414847],[127.1017698555681,37.59045219104723],[127.1019045436071,37.59040640567408],[127.10197890920729,37.59038054721987],[127.10208228099256,37.59034473516099],[127.1021236909902,37.590330536397666],[127.10222456158985,37.590295636340066],[127.10229454728794,37.59027135814624],[127.10243136267438,37.59022510184279],[127.10252114256424,37.59019436455109],[127.10255266096463,37.5901834446744],[127.10266224609677,37.59014604105559],[127.1027282670355,37.59012057670147],[127.1028503578805,37.59007915280313],[127.10278037776767,37.58994848898937],[127.10270797398901,37.58980879033219],[127.10257484798201,37.58985307064417],[127.10251217703183,37.58987396856001],[127.1024854773295,37.58982601846997],[127.10242746600598,37.58972059880464],[127.10236907954184,37.589613945080224],[127.10228793632382,37.589466108720735],[127.10226457795821,37.58942389950272],[127.10220288953283,37.58931159032403],[127.10220172046651,37.589309464997086],[127.10215887335426,37.58923134110429],[127.10213958928878,37.58919613804784],[127.10209865934355,37.589120661392755],[127.10209298524694,37.58911105271928],[127.1020560534274,37.589044924864254],[127.10205293183026,37.58903900805256],[127.10207297229802,37.588988472764065],[127.10207090313791,37.588952695517925],[127.10206672761164,37.58888125367971],[127.10217283528752,37.5888120108631],[127.10218570874234,37.58880361171658],[127.1021796242778,37.5887078602337],[127.1022788265227,37.588570852926985],[127.10232022228801,37.58850487450104],[127.10238754313082,37.58840328500593],[127.10242550806053,37.58827019510521],[127.10243356560227,37.58824216758564],[127.10244934273848,37.58817649752206],[127.10244335429172,37.58811266065],[127.10213958590188,37.587713225004926],[127.10207852160741,37.58763444084892],[127.10207423414393,37.58767921444755],[127.10207245028836,37.58769811142509],[127.10206303725671,37.587688143736635],[127.10205068598223,37.58768058598171],[127.1020398177301,37.58768131602494],[127.10201163646661,37.587689358785696],[127.10199351903681,37.58768784253307],[127.10199011780318,37.58768442168486],[127.10189841636473,37.58769017590337],[127.10183629498277,37.58766463713233],[127.1017301240763,37.58765617155596],[127.10162452144088,37.58768058775203],[127.1015989413224,37.587686465844385],[127.1015814132831,37.587702338039925],[127.10149592164757,37.587779805089866],[127.10141641122215,37.58781822283003],[127.10140869545269,37.58779639398743],[127.10139907878691,37.58776784990929],[127.10139632791568,37.58775968030262],[127.10138095600244,37.587753854924614],[127.10110401025392,37.587800003080126],[127.10104295981526,37.58780739759495],[127.10094361540699,37.58782143756755],[127.10089380828744,37.58782918292902],[127.10086131055058,37.587835300940775],[127.1007511849419,37.58785602612282],[127.10068159005229,37.58788339346089],[127.10067160912618,37.58788732112957],[127.10035109050281,37.58802443151483],[127.1002414569353,37.588075122569556],[127.10013571205604,37.58812126930925],[127.10010228555852,37.5881358571465],[127.10011169568259,37.58815321847579],[127.10012011919991,37.58817024005605],[127.10013292932732,37.58819613807906],[127.10008952691717,37.58823141725663],[127.1000474199715,37.58826602320198],[127.10000426937393,37.58829913436785],[127.09991185553126,37.58837421302296]]]}}