{"type":"Feature","id":"moa-urban-8856","properties":{"id":"moa-urban-8856","project_name":"목동 644-1번지 일대 모아타운 관리계획","district":"양천구","status":"위원회심의","data_reference_date":"2026-08-26","source_url":"https://urban.seoul.go.kr/view/html/PMNU1100000001?seq=8856","source_api_url":"https://urban.seoul.go.kr/bsns/getBsnsInfo.json","present_sn":"11000UQ120PS202503070033","source_crs":"EPSG:5174","coordinate_transformation":"Official supplied boundary transformed locally from EPSG:5174 using the official website Proj4 definition to EPSG:4326; no geocoding or centroid inference.","point_coordinates":null},"geometry":{"type":"Polygon","coordinates":[[[126.86313660348608,37.54504068832842],[126.86316506022344,37.545133703962684],[126.86319949286104,37.54523834937449],[126.86322231184855,37.54530770016244],[126.86314705927849,37.54532226032471],[126.86301608985356,37.54534751474133],[126.8628846673795,37.5453729486789],[126.86275788592006,37.54539748693229],[126.86257246800797,37.545433308560575],[126.86261530516227,37.54558193239185],[126.86262160836684,37.545600049727156],[126.86267237258262,37.545745529388306],[126.86268115241344,37.54577058726322],[126.86271559602329,37.54586910607804],[126.86278234419898,37.54606037481712],[126.86281710835217,37.54616925537106],[126.86282802126011,37.546203505847124],[126.86314158503522,37.54614125481789],[126.86317994916762,37.54626185236562],[126.86319794944335,37.54631872598385],[126.86321640038257,37.546376681315785],[126.86325498957454,37.54649808998996],[126.86333988678129,37.546482872513195],[126.86335754550237,37.546479649607065],[126.86339343022885,37.546472393558496],[126.86350912127853,37.5464491931545],[126.86362956640623,37.546425187296336],[126.86367020539485,37.54641703572383],[126.86380400825173,37.54639025220736],[126.86391199245486,37.54636854977825],[126.86393283038873,37.5463643637272],[126.86398128005312,37.546354689462675],[126.864120742589,37.54632683098924],[126.86424616827284,37.54630174910691],[126.8642800151539,37.546294940915175],[126.86443396716709,37.54626412563902],[126.86444585323564,37.546261706760546],[126.86448468085635,37.54625391320122],[126.86448768431792,37.54622039982002],[126.86450328089566,37.546045445455285],[126.86451101993966,37.54595940978715],[126.86452118671588,37.545845266011625],[126.86453042808833,37.545742113251016],[126.86453828517149,37.54565337474016],[126.86454787289047,37.54554643821374],[126.8645539938416,37.54547887097721],[126.864564279575,37.54536148375827],[126.86457409452042,37.54525400689314],[126.86458414778001,37.54513995306578],[126.86459500529647,37.545019232832786],[126.86456200896616,37.54499441731129],[126.86450374599542,37.54498750219318],[126.86451123475635,37.54497633859052],[126.8644249161421,37.54496551661835],[126.86430262162533,37.54495041812776],[126.86428628241073,37.54495874322112],[126.86419647743008,37.544952276927035],[126.86409600774557,37.544945042223056],[126.86396125869673,37.54493398334558],[126.8638319406889,37.54492320094409],[126.86367716738721,37.544909775816706],[126.86350014544229,37.54493434631549],[126.86347331861363,37.54493909021233],[126.86329435274956,37.544974560123705],[126.86316338414888,37.544999724607585],[126.86313660348608,37.54504068832842]]]}}