{"type":"Feature","id":"moa-urban-4901774","properties":{"id":"moa-urban-4901774","project_name":"구의3동 587-58번지 일대 모아타운","district":"광진구","status":"대상지선정","data_reference_date":null,"source_url":"https://urban.seoul.go.kr/view/html/PMNU1100000001?seq=4901774","source_api_url":"https://urban.seoul.go.kr/bsns/getBsnsInfo.json","present_sn":"11215UQ120PS202609190001","source_crs":"EPSG:5174","coordinate_transformation":"Official supplied boundary transformed locally from EPSG:5174 using the official website Proj4 definition to EPSG:4326; no geocoding or centroid inference.","point_coordinates":null},"geometry":{"type":"Polygon","coordinates":[[[127.09172853286705,37.5356411727139],[127.0916444860868,37.53546815610484],[127.09159628116262,37.53536881333852],[127.09156668047997,37.53531009115849],[127.0915415029867,37.5352601953319],[127.09149954039212,37.53517688544255],[127.09128312359037,37.535196421484066],[127.09088524679504,37.5352324025542],[127.09068813874742,37.5351818526541],[127.09066271143455,37.535244734143184],[127.09063778054168,37.53530647099023],[127.09058677680979,37.535326061018026],[127.09045039203426,37.53528507850802],[127.09036256254461,37.53525865541287],[127.0902215376022,37.535216324638746],[127.0901475165717,37.53519412567929],[127.09004746361848,37.535164008439736],[127.09001565953851,37.53515449075792],[127.08988640585777,37.535115664634986],[127.08978680589252,37.53508572703383],[127.0897611886651,37.53504565197971],[127.08971504357197,37.53515588692679],[127.08967836098864,37.53523105714635],[127.089636034913,37.535317854376224],[127.08959382156358,37.53540438120768],[127.08955172094123,37.535490637640855],[127.08950984608322,37.53557653349233],[127.0894814026948,37.53563484893544],[127.0894279020241,37.535744629731404],[127.08947947353896,37.53572630117263],[127.08957409404452,37.53575461194464],[127.08967776921071,37.535785618861226],[127.08989428765392,37.53585041863904],[127.09011669192147,37.535916925490525],[127.09014838320606,37.53592645223832],[127.0901583432922,37.535929418040375],[127.09039251916765,37.53599951950781],[127.09058764720763,37.536057937055816],[127.09084408695848,37.53613458006212],[127.09095986122342,37.536035491324675],[127.09123364405188,37.53620485055149],[127.09146179731835,37.53634595271768],[127.09143762746103,37.53638165044495],[127.09144974344383,37.53638966005708],[127.09150343733651,37.536442777743964],[127.09151272626208,37.536452050893715],[127.09173194136092,37.53659225834911],[127.09184906291716,37.53660685501039],[127.0919235369297,37.53653408789299],[127.09198962119089,37.5364472716647],[127.09225339153548,37.53610045730157],[127.09230156382132,37.536078427042014],[127.09225191057021,37.535998727315935],[127.092109865969,37.53605083266735],[127.09202157752642,37.53602035669358],[127.0918916508293,37.53598847093446],[127.09186380941632,37.53598164468882],[127.09190777115927,37.53584574129769],[127.0918759751309,37.53584333294738],[127.09171484520044,37.5358312026099],[127.09167909647095,37.53574086030084],[127.09167228720412,37.535723656531026],[127.09164445133712,37.53567433038492],[127.09172853286705,37.5356411727139]]]}}