{"type":"Feature","id":"moa-urban-8812","properties":{"id":"moa-urban-8812","project_name":"시흥4동 817번지 일대","district":"금천구","status":"관리지역고시","data_reference_date":"2025-12-18","source_url":"https://urban.seoul.go.kr/view/html/PMNU1100000001?seq=8812","source_api_url":"https://urban.seoul.go.kr/bsns/getBsnsInfo.json","present_sn":"11545UQ120PS202604200001","source_crs":"EPSG:5174","coordinate_transformation":"Official supplied boundary transformed locally from EPSG:5174 using the official website Proj4 definition to EPSG:4326; no geocoding or centroid inference.","point_coordinates":null},"geometry":{"type":"Polygon","coordinates":[[[126.90872604925086,37.45572744078131],[126.90874280148935,37.45562485645594],[126.90876416131591,37.4555069226112],[126.90877899722841,37.45541848255713],[126.90877682589625,37.45530970247481],[126.90875134717362,37.45533100927722],[126.90863636250937,37.45531920590266],[126.90850752492494,37.45530460740901],[126.90845084086362,37.455298598132885],[126.90838843555845,37.455294503463186],[126.90837745591912,37.455262292878935],[126.9083551761093,37.45527407848999],[126.90835413790954,37.455291016572836],[126.9083535606226,37.455300837076436],[126.90811173374695,37.45526964261592],[126.90806472442367,37.45526358673971],[126.90791951539089,37.45524487508477],[126.90779950610364,37.45522941784503],[126.9077771201955,37.45522653489535],[126.9077001764182,37.455216625855925],[126.90760084677802,37.45520382477331],[126.90756740919323,37.45519951842313],[126.90746480250694,37.45518630015873],[126.9073726938283,37.45517443266583],[126.90722522508385,37.455155430036086],[126.90707798241101,37.45513646344318],[126.9069641886264,37.455121803206175],[126.90681909314294,37.45510310831005],[126.90666507053749,37.45508325278495],[126.90659715578406,37.45507464772083],[126.90645545016316,37.455056702935074],[126.90641081403251,37.45505105376215],[126.90639103854501,37.455048542062656],[126.90631928175166,37.45503945621366],[126.90621995229785,37.455026879221876],[126.90600784618395,37.455000011221905],[126.90599726730863,37.45505343229327],[126.90597520030212,37.45516423812035],[126.90595314453222,37.45527504395028],[126.90593390974166,37.45537161617084],[126.90593113426087,37.4553855704991],[126.90590913508892,37.45549620517131],[126.90588713586328,37.45560683082721],[126.90586451093652,37.45572060948905],[126.90585064475209,37.455790336075815],[126.90584114658071,37.45583809067744],[126.90581901073502,37.45594933789711],[126.90579519129899,37.45606905319628],[126.90576989293758,37.456196263653524],[126.90585011458775,37.45620659106409],[126.90594616814684,37.45621895848495],[126.90611646554983,37.45624087336392],[126.90616109094834,37.45624661273915],[126.9063011146132,37.45626462860089],[126.90641875216488,37.45627977010003],[126.90656464066014,37.456298718403715],[126.90687212551906,37.45633862728203],[126.90700704152017,37.456356142664234],[126.90703665999395,37.45635998660679],[126.90716333805365,37.45637642302875],[126.9072083251622,37.45638226140783],[126.9073471851868,37.45640028411165],[126.90745873205326,37.456414761988746],[126.90754337254458,37.4564257495002],[126.90765401544986,37.45644010934354],[126.907765991855,37.45645464133204],[126.90785063243672,37.4564656286235],[126.90795041568931,37.456478583024435],[126.9079645373345,37.45647452165968],[126.90796907716484,37.45646841643781],[126.90799596884149,37.4563839234315],[126.90797608500975,37.45637733035822],[126.9079785858747,37.456365799470774],[126.90798288904506,37.45635913543775],[126.90800389521722,37.4563266708218],[126.90806374293767,37.45623413987161],[126.90814889992578,37.456102300006876],[126.90820832836717,37.456010363311975],[126.90827800571626,37.45599110975704],[126.9083346544096,37.45590942424399],[126.90836594892359,37.45587405742489],[126.90837606993576,37.455860487251506],[126.90838401243039,37.45585376300081],[126.90839301914055,37.45584557995954],[126.90840116350802,37.45584011727413],[126.90840720270705,37.45583612697443],[126.9084072036206,37.455836301770184],[126.9084797803319,37.45581386082092],[126.9085005439512,37.4558072079225],[126.90857779754026,37.455801143661915],[126.90867463492155,37.455791957435615],[126.90870195625824,37.455770507937665],[126.90872004784563,37.45575483564111],[126.90872604925086,37.45572744078131]]]}}