{"type":"Feature","id":"moa-urban-8855","properties":{"id":"moa-urban-8855","project_name":"목4동 728-1번지 일대","district":"양천구","status":"관리지역고시","data_reference_date":"2026-08-26","source_url":"https://urban.seoul.go.kr/view/html/PMNU1100000001?seq=8855","source_api_url":"https://urban.seoul.go.kr/bsns/getBsnsInfo.json","present_sn":"11470UQ120PS202605040001","source_crs":"EPSG:5174","coordinate_transformation":"Official supplied boundary transformed locally from EPSG:5174 using the official website Proj4 definition to EPSG:4326; no geocoding or centroid inference.","point_coordinates":null},"geometry":{"type":"Polygon","coordinates":[[[126.86556701562861,37.53698242736668],[126.86567056650159,37.53578422641975],[126.86563329097434,37.53575030621347],[126.86548565395253,37.535742567915136],[126.86547250760768,37.53587914325716],[126.86436438547308,37.53581830595584],[126.86437503891393,37.53568426864188],[126.86427989636513,37.53567927474099],[126.8642374135259,37.53570895812426],[126.86420424159051,37.5361524782248],[126.86423590549465,37.53653165270129],[126.86425816069868,37.53679720105948],[126.86426801353831,37.53691560292127],[126.86429237314557,37.53720602109224],[126.86430355477333,37.53734028195315],[126.86431340758841,37.53745877389953],[126.86434850862892,37.537876965222864],[126.8643883907721,37.53790881656712],[126.8654434840855,37.53796652918504],[126.86548619385917,37.53793693574067],[126.86549694780544,37.537809547811754],[126.86553117231259,37.53740567234548],[126.86556701562861,37.53698242736668]]]}}