{"type":"Feature","id":"moa-urban-4873558","properties":{"id":"moa-urban-4873558","project_name":"자양2동 663번지 일대 모아타운","district":"광진구","status":"대상지선정","data_reference_date":"2026-09-18","source_url":"https://urban.seoul.go.kr/view/html/PMNU1100000001?seq=4873558","source_api_url":"https://urban.seoul.go.kr/bsns/getBsnsInfo.json","present_sn":"11215UQ120PS202609220001","source_crs":"EPSG:5174","coordinate_transformation":"Official supplied boundary transformed locally from EPSG:5174 using the official website Proj4 definition to EPSG:4326; no geocoding or centroid inference.","point_coordinates":null},"geometry":{"type":"Polygon","coordinates":[[[127.08627406109791,37.53098432870498],[127.08509309837198,37.530428085758274],[127.08496586832675,37.53036816952337],[127.08488153885897,37.530328405142754],[127.08479075751987,37.53028567197067],[127.08471050327202,37.53024788678072],[127.0846291171633,37.53020956173603],[127.08452712994296,37.53016152038073],[127.08450777389731,37.530152406913984],[127.08438303506158,37.530093686619466],[127.08435383124186,37.53007992189726],[127.08420939697402,37.53001181786289],[127.08411918236858,37.529969354073366],[127.08399929656125,37.52989943062154],[127.08360546720637,37.529714280423214],[127.0834883476939,37.52965922092877],[127.08336610075793,37.52960173218695],[127.08321510344034,37.529530748297134],[127.08308493348727,37.5294694805678],[127.08301645298226,37.52943736235187],[127.08293337074365,37.52939822640821],[127.08280071115448,37.52933587888724],[127.08277498650126,37.52929580234971],[127.08276304418514,37.529446006284395],[127.08275497892235,37.52952007354703],[127.08274691471841,37.52959513190094],[127.08273638471582,37.52969154550844],[127.0827338645141,37.52971488298775],[127.0827121902854,37.52991518886674],[127.08269830083991,37.5300435900626],[127.0826802661896,37.53020965565145],[127.08267007937668,37.530303456124656],[127.0826599920968,37.5303972565271],[127.08265707978089,37.5304241982472],[127.08264195727781,37.530563322100285],[127.08262638744742,37.5307073116225],[127.08261160179808,37.530844182748964],[127.08265558072834,37.53081586133614],[127.08279576930525,37.530828829357155],[127.08297466445592,37.530854925033495],[127.08302026743792,37.53086363321367],[127.08315153164322,37.5308886802884],[127.08332591837753,37.53093009544422],[127.08347279578541,37.53097196010927],[127.08353173022347,37.530990495891245],[127.08358247040134,37.53089450840306],[127.08358450278827,37.53089081291597],[127.08368849119005,37.5307000903064],[127.08368905597516,37.53069927901895],[127.08371571083401,37.53065826524838],[127.08373084242731,37.53063230609171],[127.0837799636637,37.53054811905645],[127.08383402759617,37.53053492687706],[127.0838885874433,37.53056119786118],[127.08392741327043,37.53057991145049],[127.08450855768841,37.53085986679856],[127.08457658832158,37.53089264218254],[127.08459032614488,37.53093633072328],[127.08450876414184,37.53104621020427],[127.08449469974724,37.531065149966885],[127.08437693141748,37.531223807561936],[127.08428667027786,37.53134541491653],[127.08422126177899,37.53143348783052],[127.08419821633768,37.53146458825141],[127.08412851471478,37.531558340378446],[127.08399656704255,37.53173592836732],[127.08405881683728,37.53175831962345],[127.08428780742652,37.53186258454035],[127.08440428120831,37.5319132288034],[127.08443348575271,37.531926993507994],[127.0845030733008,37.53183243039269],[127.08461293211121,37.53188616950635],[127.08460875188939,37.53189143425066],[127.08472525037148,37.531943708978034],[127.08476527518228,37.53189008966712],[127.08476719960815,37.531891079403756],[127.08486953085487,37.53194101238041],[127.08492781754285,37.53185844020669],[127.08498350627875,37.531779744112185],[127.0851076278837,37.53160380487585],[127.08521903200122,37.53165632148755],[127.08532523805599,37.53151909690201],[127.08542393488797,37.531566707416495],[127.08547422836014,37.53149995308739],[127.08549069911476,37.5314780922789],[127.08555768925345,37.53138929674278],[127.08556784510326,37.53137585569842],[127.08586782607998,37.53151719697029],[127.08599243094555,37.531353667641774],[127.086109805472,37.53119978399016],[127.08621338605315,37.531063929987425],[127.08622706648303,37.53104599039891],[127.08627406109791,37.53098432870498]]]}}