{"type":"Feature","id":"moa-urban-8857","properties":{"id":"moa-urban-8857","project_name":"신월동 102-33일대","district":"양천구","status":"관리지역고시","data_reference_date":"2025-11-30","source_url":"https://urban.seoul.go.kr/view/html/PMNU1100000001?seq=8857","source_api_url":"https://urban.seoul.go.kr/bsns/getBsnsInfo.json","present_sn":"11000UQ120PS202503070069","source_crs":"EPSG:5174","coordinate_transformation":"Official supplied boundary transformed locally from EPSG:5174 using the official website Proj4 definition to EPSG:4326; no geocoding or centroid inference.","point_coordinates":null},"geometry":{"type":"Polygon","coordinates":[[[126.83194888440782,37.53468903281563],[126.83201331845733,37.534713902603315],[126.8321176563504,37.53475423656931],[126.8321633254534,37.53477187141852],[126.83221634220759,37.53479239995901],[126.83225443764618,37.53480705064066],[126.83233910639397,37.53483978788298],[126.83236058442452,37.534848107778124],[126.8324013928585,37.534863843489],[126.8324229838403,37.53487225363376],[126.83248594859415,37.53489658046397],[126.8325486860908,37.534921357431635],[126.83264477075579,37.53495924644341],[126.83270682991777,37.53498384215849],[126.83281828833252,37.535027789651664],[126.83291493836828,37.53506594954853],[126.83297575437135,37.535090002751836],[126.83310835268759,37.53514190887049],[126.83324389144592,37.535194449724294],[126.83326423907525,37.53520240744724],[126.83339876058902,37.53525458627682],[126.83341910845346,37.535262453874125],[126.83357092588564,37.535321324467496],[126.83357612574943,37.53532340414431],[126.8336013344958,37.53533317070624],[126.83362258672757,37.535341399951214],[126.83375292613381,37.53539195064499],[126.83379927405551,37.53540994622165],[126.833895135111,37.53544720320209],[126.8339150309165,37.53545488987371],[126.83392565716717,37.53545895941896],[126.83401722278877,37.53549449831912],[126.83407103175216,37.535515387546056],[126.83408971842782,37.53555785077815],[126.83415388037604,37.53545198502104],[126.83419623562615,37.535383389418136],[126.83425732716154,37.53528436679341],[126.83431807730074,37.535186154545066],[126.83437950894225,37.535086681838756],[126.83441084928961,37.535035910215306],[126.83444718608936,37.53497694662018],[126.8345125915817,37.53487108241585],[126.8344148105751,37.53483247172817],[126.83431951655334,37.53479485557196],[126.8342268226496,37.53475823411349],[126.83421438804217,37.53475335114004],[126.83412847663789,37.5347194421895],[126.83403216564673,37.53468137386338],[126.83397142420961,37.5346573645558],[126.83401551988285,37.534586475748334],[126.83403550492822,37.53455415846074],[126.83410317967768,37.53444550461697],[126.83417437465697,37.53433099926878],[126.83423887504892,37.53422504382247],[126.83431223274111,37.534104504799494],[126.8343221120982,37.53408830091972],[126.83437196338842,37.53400638115851],[126.83437820898472,37.53399611868206],[126.83438683895335,37.533982075410606],[126.83446189948802,37.53385874562187],[126.83453468855545,37.53373919674002],[126.83458851370355,37.533650795353545],[126.83461065712703,37.53361433644747],[126.83461315521906,37.53361028551093],[126.83462553253624,37.533590030667504],[126.83468742002502,37.533488305934725],[126.83469752650016,37.53347165184619],[126.8347021822455,37.53346399998465],[126.8347134241142,37.533445545513025],[126.83476384204481,37.53336281548342],[126.83481130783605,37.53328476642608],[126.83479284779038,37.533242213512516],[126.83471654518253,37.53321255321239],[126.8346056522287,37.53316941919129],[126.83448232484754,37.53312149221902],[126.83445180385554,37.53310964604442],[126.83436758868399,37.533076910950086],[126.83423476646134,37.533025186111196],[126.83415789921044,37.532995254351924],[126.83401185142213,37.53293846496051],[126.83391113302089,37.532899218984916],[126.83380747556306,37.532858887558476],[126.83367465391377,37.532807252188626],[126.83346813097728,37.532726860253476],[126.8333795083481,37.532692316196396],[126.83329145088129,37.5326580431755],[126.83323651382376,37.53263670148179],[126.83318296719656,37.5326511311574],[126.83311370496938,37.532761494130064],[126.83308622739074,37.53280515309521],[126.83307521331751,37.532822796845075],[126.8330335423932,37.53288914057071],[126.83297211442984,37.53298699083257],[126.83285277808986,37.53317702002746],[126.8328394934299,37.533198084283654],[126.83282178013252,37.533226350154045],[126.83276523423137,37.533316368639206],[126.83259468694159,37.53358804440888],[126.83252072307045,37.533625239689776],[126.83241875959851,37.53358617086283],[126.8323267902864,37.533580452992354],[126.83227999149922,37.5335623660884],[126.83219622831146,37.53353008059272],[126.83209754412535,37.53349191718213],[126.83199976413006,37.53345420548307],[126.83189599339428,37.533414052418976],[126.83182127386924,37.53338520341715],[126.83170789451594,37.53334152250974],[126.83159395042051,37.53329748028369],[126.83148622354886,37.53325587957866],[126.83139002687996,37.53321871024896],[126.83127766566159,37.533175300692214],[126.83118904269968,37.53314111539114],[126.8311352702739,37.53315500321509],[126.83105648720019,37.533271387883374],[126.83095772439704,37.53341720610337],[126.83082047633454,37.53362036184801],[126.83064008866441,37.533887425488146],[126.83055437826863,37.534014431494185],[126.83052701907688,37.53405493655012],[126.83046855464761,37.53414134717174],[126.83045595333498,37.53416006956465],[126.8304224636983,37.5342096657399],[126.83038318411833,37.53426790304344],[126.83037251273036,37.53428374504756],[126.83030042479113,37.53439040816987],[126.83023458037798,37.534487890178106],[126.83016453537495,37.53459158290114],[126.83011594653105,37.53466350168937],[126.83007678023309,37.534721468752686],[126.83005169076282,37.534758733415195],[126.83001297837232,37.53481607042061],[126.82997403881531,37.5348737674797],[126.82992034092202,37.53495324709858],[126.82991534579213,37.534960627978236],[126.82985687974073,37.53504712837914],[126.82984620792347,37.53506306043198],[126.82975027760395,37.53520509754222],[126.82978425050787,37.535241186640995],[126.82992222394883,37.53521778119061],[126.8300427667332,37.535197323546804],[126.83084049768522,37.53506206885564],[126.83085136354494,37.53506019247414],[126.83088780915033,37.535054028287895],[126.83102215995612,37.535031247011744],[126.8310664153433,37.5350237425559],[126.83121219779318,37.53499899537834],[126.83137995324309,37.53496382816522],[126.83141347162241,37.534951262553534],[126.83144948809324,37.53493473616304],[126.83146772710508,37.53492449111266],[126.83148358708463,37.534915594122914],[126.83151531541742,37.53489410608019],[126.83154444639999,37.53487045190894],[126.83157086627811,37.534844901745124],[126.83159434877109,37.53481745526497],[126.83161455364058,37.534788472377706],[126.83163272196224,37.53475948655734],[126.83165327500988,37.5347266298965],[126.83172151947761,37.534617798045296],[126.83172986096007,37.5346044951711],[126.83194888440782,37.53468903281563]]]}}