{"type":"Feature","id":"moa-urban-8798","properties":{"id":"moa-urban-8798","project_name":"은천동 938-5번지 일대","district":"관악구","status":"관리지역고시","data_reference_date":"2026-04-23","source_url":"https://urban.seoul.go.kr/view/html/PMNU1100000001?seq=8798","source_api_url":"https://urban.seoul.go.kr/bsns/getBsnsInfo.json","present_sn":"11620UQ120PS202604290001","source_crs":"EPSG:5174","coordinate_transformation":"Official supplied boundary transformed locally from EPSG:5174 using the official website Proj4 definition to EPSG:4326; no geocoding or centroid inference.","point_coordinates":null},"geometry":{"type":"Polygon","coordinates":[[[126.94186813928707,37.48652437515696],[126.94185736809875,37.48641952025774],[126.94185051048422,37.48634135497586],[126.9417312390857,37.48635034073421],[126.94164756398744,37.48635621794125],[126.94158586186428,37.48637143159443],[126.94155037428044,37.486379937056654],[126.94150602058322,37.486390393177246],[126.94142806752184,37.4864093286363],[126.94138975255522,37.486418634503046],[126.94125757390343,37.48644915614291],[126.94112940941591,37.48647924720599],[126.94097687173064,37.486489818977425],[126.9408596814691,37.48649754352087],[126.94077553147122,37.48650314956608],[126.9407278365165,37.48650651280047],[126.94065991381642,37.486511037800916],[126.94065081338744,37.48643801510938],[126.94064847663378,37.48641944427945],[126.94064290028092,37.48638021183232],[126.94062482251815,37.48622469878863],[126.94061394491249,37.48622527883287],[126.94048906794949,37.4862311069452],[126.94047295510785,37.48623191853254],[126.94032650334198,37.48623948326629],[126.94022929466988,37.48624456858889],[126.93995431278134,37.48625909392922],[126.93991521234412,37.48626095664207],[126.93973916956092,37.48626974859768],[126.93963146757656,37.48627546765205],[126.93950379717009,37.48628190594035],[126.93945366047133,37.48628473578854],[126.93940873668724,37.48628698270517],[126.93942181098701,37.486391884089095],[126.93942780879327,37.486440261972895],[126.93943272819726,37.48648012483207],[126.93943426773436,37.48649160439081],[126.93944646588842,37.48658959463222],[126.93945467799955,37.486667571550704],[126.93945943675921,37.486710308515185],[126.93950395702336,37.48678617813102],[126.93952661816645,37.48682461770311],[126.93959985275481,37.48692063970861],[126.93960583821108,37.48692936453179],[126.93972062533453,37.48706726871799],[126.93978149485199,37.48714440817543],[126.93984601281404,37.48722619866829],[126.93987292913347,37.48726043271901],[126.9399483464411,37.487356933170815],[126.93998239056494,37.48739968536584],[126.94008451153013,37.487528347334575],[126.94015363971508,37.48761465406425],[126.94022241988202,37.48768425602087],[126.94029826215946,37.487759871269766],[126.9403687233115,37.48782054509491],[126.94049148803586,37.48792651217117],[126.9405347179198,37.4879645116642],[126.94058578977108,37.4880088852593],[126.94066813857482,37.488079241778934],[126.9407395854284,37.48813820398648],[126.940964164307,37.488267225437504],[126.94114204302686,37.48837128291182],[126.9412431052774,37.48842852101058],[126.94144574019523,37.48854158263602],[126.94164654508668,37.488653237424025],[126.94174159156445,37.48871188661619],[126.94182392789311,37.48880025331478],[126.94189827531025,37.48889645462748],[126.94195553874297,37.48896288723787],[126.94198757270102,37.4890618242151],[126.94202277978101,37.48916617779206],[126.94204395722093,37.48923877304305],[126.94207594476326,37.48933950295905],[126.94210945492043,37.489445225172126],[126.9421347288051,37.48951397519174],[126.94216941535996,37.48961934658583],[126.94220242093343,37.48972002291254],[126.94223038497849,37.489804550773805],[126.94225920584658,37.48989236770795],[126.94229349956794,37.48999447724104],[126.94231957956785,37.49007383239162],[126.94233305887006,37.490115672584956],[126.9423250289143,37.49017517061692],[126.9423225724568,37.49019299117051],[126.94230934628995,37.49028886898534],[126.94229029882165,37.490367823095696],[126.94224704062457,37.49046296504234],[126.94220580049891,37.49055120632345],[126.94217896516851,37.4905975853472],[126.94212518834556,37.490681486490566],[126.9421077979882,37.49070938172177],[126.94205257479818,37.49079183149297],[126.94202626865561,37.49082657883495],[126.94193506872197,37.49093259861184],[126.94191353317154,37.49095446403214],[126.94183934092315,37.49104440044994],[126.94174508031924,37.491145147679724],[126.94170479786119,37.49119398852744],[126.94157623161593,37.49133486680973],[126.94156883451461,37.49134297295809],[126.94158148162036,37.491387352724864],[126.94186913529894,37.49132999647374],[126.94240299189617,37.49122453242725],[126.94243905004144,37.49124094866358],[126.94249834935299,37.49118025089575],[126.94254007229641,37.49103881471828],[126.94255134371924,37.49094088163405],[126.94256725344687,37.49084006766106],[126.94264734826349,37.49079190408961],[126.94301818139776,37.49056891054254],[126.94305870248738,37.49051703298888],[126.9434158194031,37.49033493680423],[126.94360829925921,37.49015257875663],[126.94366477992648,37.490078904606534],[126.94372705533674,37.489821969809526],[126.94373180885748,37.48981620573265],[126.94387953436926,37.48974888306768],[126.94401930448687,37.48958623051354],[126.94402675123924,37.48945964359167],[126.94401646490834,37.48930782002801],[126.94407261166747,37.489240623702095],[126.94403657256976,37.489229650010444],[126.94396755796268,37.489208623106684],[126.94380651273208,37.48915954815547],[126.94373459298353,37.48913762770604],[126.9435244523474,37.48907358976333],[126.94348238808573,37.489060774904125],[126.94347857815202,37.489045383946],[126.94344950780699,37.48892785218002],[126.94344087349434,37.48889297021023],[126.94341836349315,37.488801976120826],[126.94338093905492,37.488769782987006],[126.94331553675096,37.48871353737102],[126.94331988895836,37.488671165463714],[126.94332369425217,37.488634163249294],[126.94333858510737,37.48848921762706],[126.94334196884013,37.48845631475553],[126.9432335554669,37.488384334457656],[126.94319405747125,37.4883581138729],[126.9428250831192,37.48811315635439],[126.94272654797058,37.488047739777926],[126.94268367127793,37.4880192738486],[126.94268259641625,37.48787596917434],[126.94268208458001,37.48780772713584],[126.9426819511972,37.487790373798184],[126.94264098934696,37.48778589344129],[126.94265213885187,37.48769843886912],[126.94264361484345,37.48769655153089],[126.94264651706219,37.48765801718124],[126.94265655884003,37.48745477446427],[126.9426349060201,37.48745471862562],[126.94254001804289,37.48745448209042],[126.94252004280541,37.48734849642248],[126.94249689139026,37.48721246980044],[126.94242785791411,37.48713216514683],[126.94240268463754,37.48713730627898],[126.94234415293153,37.48714622391732],[126.94223420596926,37.487129833661875],[126.94214684680696,37.48711785153935],[126.94211345000109,37.487112978359924],[126.94206869168512,37.48710564873331],[126.94205430015228,37.487102893439456],[126.94197810843956,37.48709576419543],[126.94197174153953,37.48706865888622],[126.94198357175485,37.48706465539445],[126.94197442221343,37.48695350333758],[126.94192938707405,37.48681081618026],[126.94190307461142,37.486812514808996],[126.94189247243602,37.48672251750566],[126.94188346756582,37.48664295459494],[126.94186813928707,37.48652437515696]]]}}