{"type":"Feature","id":"moa-urban-8876","properties":{"id":"moa-urban-8876","project_name":"면목동 86-3번지 일대","district":"중랑구","status":"관리지역고시","data_reference_date":"2025-11-30","source_url":"https://urban.seoul.go.kr/view/html/PMNU1100000001?seq=8876","source_api_url":"https://urban.seoul.go.kr/bsns/getBsnsInfo.json","present_sn":"11000UQ120PS202503070029","source_crs":"EPSG:5174","coordinate_transformation":"Official supplied boundary transformed locally from EPSG:5174 using the official website Proj4 definition to EPSG:4326; no geocoding or centroid inference.","point_coordinates":null},"geometry":{"type":"Polygon","coordinates":[[[127.08893727853273,37.590949040678],[127.08891177690681,37.590965759310535],[127.08888627526949,37.59098247793752],[127.08884290962406,37.59097762218423],[127.08879954398428,37.590972766415],[127.08875639819733,37.590976803185484],[127.0887132524057,37.59098083994017],[127.08865634823691,37.590963289333956],[127.08864789794326,37.59100000709038],[127.0886376969686,37.59104432954709],[127.08862749598191,37.591088652002604],[127.0886168538023,37.59113817796839],[127.08860621160865,37.59118770393283],[127.08859515576593,37.59123206305453],[127.08858409991018,37.59127642217486],[127.08858282117177,37.59129648353929],[127.08858154243268,37.591316544903655],[127.08857977010759,37.59133570564741],[127.08857833408369,37.59135488236078],[127.08857621422125,37.591374103726615],[127.08857443066,37.59139334106211],[127.08857386008235,37.59139438662497],[127.08857328950467,37.59139543218783],[127.0885717501247,37.59141530904213],[127.08857021074398,37.59143518589637],[127.08856719130036,37.59148212491243],[127.08856417185304,37.59152906392806],[127.08856380450555,37.59152961379949],[127.08856343715806,37.591530163670946],[127.08856312983767,37.591548228637286],[127.08856282251713,37.591566293603535],[127.08855526519126,37.59164458121548],[127.08854770784973,37.59172286882593],[127.088546398843,37.59173639807318],[127.08854508983576,37.591749927320414],[127.08854022783522,37.59180437289244],[127.0885353658277,37.59185881846377],[127.08853450006839,37.59186891463301],[127.08853363430885,37.591879010802224],[127.08853220442825,37.591895702593554],[127.08853077454704,37.59191239438484],[127.08853839608987,37.59201078527936],[127.08864927265672,37.592014172280464],[127.08869432742567,37.59201540940376],[127.08872807046833,37.592016411601634],[127.08882156604645,37.59201933375883],[127.08891506163171,37.592022255842],[127.08893773627452,37.59202292380015],[127.08896041091768,37.59202359175395],[127.089051866199,37.592029456954315],[127.08914332149455,37.5920353220838],[127.08919492841396,37.59203818042898],[127.08924653533731,37.592041038751596],[127.08928590797379,37.5920438746143],[127.08938224922387,37.592049857558614],[127.08941881080911,37.59204050514981],[127.08945537238513,37.59203115272969],[127.08956432642685,37.592002830155906],[127.08967328038581,37.5919745074815],[127.08971215827856,37.59197069430629],[127.08975613361605,37.591959155871265],[127.08980010893991,37.59194761741985],[127.08983119091207,37.5919388636309],[127.08986990212124,37.591937744471956],[127.08992873918615,37.59193153768593],[127.08999561980903,37.59192427069012],[127.09006250041878,37.59191700365645],[127.09008001852771,37.591913742465835],[127.09009753663513,37.59191048127265],[127.09010441918534,37.591909057057286],[127.09011130173535,37.59190763284152],[127.09012159769355,37.59190586819412],[127.09013189365126,37.59190410354582],[127.09019466207845,37.59189515918814],[127.09025743049055,37.59188621479705],[127.09028740808326,37.591881948620774],[127.09031738567245,37.591877682436845],[127.0903249479923,37.59187660457627],[127.09033251031198,37.591875526715214],[127.09033508035021,37.5918753355748],[127.09033765038843,37.59187514443432],[127.0903600078188,37.59187092902218],[127.09038236524665,37.59186671360584],[127.09040529981579,37.59186223196023],[127.09042823438212,37.59185775031019],[127.09048859867251,37.59184574876466],[127.09054896294344,37.59183374718823],[127.0906104286256,37.591824366614496],[127.09067189429224,37.591814986008735],[127.09073626026799,37.59180703123932],[127.09080062622994,37.591799076434796],[127.0908613694478,37.591791579334334],[127.0909221126534,37.59178408220261],[127.09098608233398,37.59177617264632],[127.09105005200101,37.591768263055364],[127.09107683189356,37.591764886573564],[127.09110361178365,37.59176151008567],[127.09131439094496,37.591747988333466],[127.0913386887729,37.59175206482194],[127.09136298660346,37.59175614130542],[127.09136643502349,37.59175667927139],[127.09136988344359,37.59175721723728],[127.09142371056114,37.59176565451707],[127.09144821212858,37.59176966325397],[127.09147271369856,37.59177367198578],[127.09150894214902,37.591779491761685],[127.09154517060512,37.591785311526465],[127.09156753743264,37.591788974987644],[127.09158990426236,37.591792638444545],[127.09161176686885,37.59179600045225],[127.0916336294773,37.591799362455916],[127.09169810231313,37.59180968805524],[127.09176257516673,37.59182001361935],[127.09179422270088,37.59182507998272],[127.09182587023928,37.591830146337585],[127.09185192311882,37.59183419885303],[127.09187797600114,37.59183825136272],[127.09192210929577,37.59184531282394],[127.09196624259869,37.59185237426865],[127.0920217688411,37.591861287495334],[127.09207729509673,37.591870200695865],[127.09209638330414,37.591873258407446],[127.09211547151311,37.59187631611593],[127.09215457123655,37.59188284076261],[127.09219367096684,37.591889365396334],[127.09223250426395,37.5918955974019],[127.09227133756751,37.59190182939467],[127.0923404423666,37.59191279528557],[127.09239996621,37.59192218278018],[127.09254624498459,37.591945437100634],[127.09269252384983,37.591968691239614],[127.09276549054262,37.59198023503357],[127.09283845725787,37.591991778782315],[127.09290961778348,37.592003134677626],[127.0929807783306,37.59201449052998],[127.09304755038376,37.5920250794006],[127.09310834289698,37.592034744859156],[127.09318823498408,37.592047418258296],[127.09326214753548,37.59205916823685],[127.09326403301387,37.5920316867467],[127.09326591849087,37.59200420525639],[127.09327064664647,37.59195420595552],[127.09327537479575,37.59190420665401],[127.09327628086085,37.59189518259053],[127.09327718692576,37.591886158527046],[127.09327827204721,37.59187541794899],[127.09328118040348,37.59184645354314],[127.09328408875754,37.591817489137114],[127.09328838424136,37.59177477012472],[127.09329267972034,37.59173205111186],[127.09330013869244,37.591656078806885],[127.09330759764951,37.59158010650043],[127.0933193768267,37.591463158562526],[127.0933311559674,37.59134621062118],[127.093342659886,37.59123106936444],[127.09335416376955,37.591115928104365],[127.09336773013708,37.59098013917449],[127.0933817969142,37.590844349850535],[127.0933874559296,37.59078721851754],[127.0933931149365,37.59073008718376],[127.09341058999247,37.590558607196165],[127.09342806496906,37.590387127201105],[127.09343089009205,37.59035962694919],[127.09343371521301,37.590332126697085],[127.09344007478236,37.59026928256823],[127.09344643434117,37.59020643843834],[127.0934525194418,37.590145995645436],[127.09345860453267,37.59008555285162],[127.09345944052652,37.59007943000936],[127.09346027652019,37.590073307167074],[127.09346920786005,37.589974957727414],[127.09347813917671,37.58987660828545],[127.09344521422564,37.5898403828086],[127.09341228930647,37.58980415732229],[127.09337035068957,37.589794702593],[127.09332841208324,37.589785247848766],[127.09317953797468,37.58975209017467],[127.09303062954523,37.589718535905874],[127.0928697673379,37.589682449923124],[127.09270890528548,37.58964636372073],[127.09259837947813,37.589621464742315],[127.09248785374426,37.58959656566021],[127.09237469494248,37.589571105385595],[127.09226153621756,37.589545645002296],[127.09219538957129,37.58953067641479],[127.09212924295143,37.58951570779016],[127.09211412337724,37.589512264118085],[127.09209900380446,37.5895088204441],[127.09203214374932,37.58949371716469],[127.09196528372117,37.58947861384736],[127.09181159675244,37.58944375076696],[127.09165790992674,37.589408887486094],[127.09162543417685,37.58940156925367],[127.09159295843332,37.58939425101229],[127.09150157327902,37.58937358454217],[127.09141018817513,37.5893529180012],[127.09138852825342,37.58934802412584],[127.09136686833457,37.5893431302465],[127.09130575056366,37.58932931509756],[127.0912092863777,37.58930772424954],[127.09109472979047,37.58928197549309],[127.09098017328198,37.589256226625274],[127.09095847941153,37.589251301162165],[127.09093678554397,37.58924637569504],[127.09082241563448,37.58922035173218],[127.09070804580442,37.58919432765828],[127.09065277770813,37.58918171957556],[127.0905975096304,37.58916911146694],[127.09055455784393,37.58915921051287],[127.09051160606883,37.589149309543146],[127.09046898476348,37.589274389357215],[127.09042636331584,37.589399469153435],[127.09040296506465,37.589394243042086],[127.09037956681675,37.58938901692613],[127.09035856238235,37.589444979389356],[127.09033755791656,37.58950094184835],[127.09031489543867,37.58956230244936],[127.09029223292362,37.589623663045415],[127.09023341907931,37.58969557881832],[127.09016614028951,37.58988572814082],[127.09009886115827,37.59007587741919],[127.09009108600354,37.590097849261284],[127.0900702628787,37.590211632225255],[127.09006949591647,37.59021413753811],[127.09005012444213,37.59026783724222],[127.09003075294001,37.59032153694268],[127.09000882044646,37.59038305009663],[127.08998688791691,37.590444563245896],[127.08997083981299,37.59048896678725],[127.08995479169009,37.59053337032611],[127.08994035289717,37.590574294856204],[127.08992591408851,37.59061521938424],[127.08990087067322,37.59062656801953],[127.08987582725031,37.59063791664948],[127.08985005589784,37.59063212008085],[127.08982428454934,37.590626323506555],[127.08976980865795,37.590614169418586],[127.08971533278421,37.59060201530546],[127.08970213846608,37.590599020379],[127.08968894414895,37.59059602545108],[127.08963218053587,37.59058335494208],[127.08957541694197,37.59057068440573],[127.08950891338492,37.59055581819512],[127.08944240985426,37.59054095194695],[127.08942580656118,37.59053718468185],[127.0894092032698,37.59053341741439],[127.08934251313154,37.59051869991129],[127.0892758230195,37.59050398237045],[127.08906447916534,37.59045708177075],[127.08904727656272,37.59050616575738],[127.08903907526523,37.590529052344195],[127.08902133456846,37.59057889895842],[127.08900359384806,37.59062874556959],[127.0889895714737,37.590667980328114],[127.08897554908465,37.59070721508476],[127.08895339204999,37.59071312393806],[127.08893123501186,37.59071903278721],[127.08891257487247,37.59073794926162],[127.08892315277176,37.59074986145663],[127.08893373067444,37.59076177365067],[127.08894319218253,37.59078724648936],[127.0889526536971,37.59081271932718],[127.08893300384311,37.59083735778999],[127.08893381154019,37.59084060073653],[127.08894814704243,37.590870574888136],[127.08891989315129,37.59087683963455],[127.08893727853273,37.590949040678]]]}}