{"type":"Feature","id":"moa-urban-8799","properties":{"id":"moa-urban-8799","project_name":"청룡동 1535","district":"관악구","status":"관리지역고시","data_reference_date":"2026-02-05","source_url":"https://urban.seoul.go.kr/view/html/PMNU1100000001?seq=8799","source_api_url":"https://urban.seoul.go.kr/bsns/getBsnsInfo.json","present_sn":"11620UQ120PS202603110001","source_crs":"EPSG:5174","coordinate_transformation":"Official supplied boundary transformed locally from EPSG:5174 using the official website Proj4 definition to EPSG:4326; no geocoding or centroid inference.","point_coordinates":null},"geometry":{"type":"Polygon","coordinates":[[[126.93949938038973,37.47830124755367],[126.93945856242665,37.47830699253685],[126.93942721998857,37.47833833094266],[126.93942699018915,37.47856143693826],[126.93951422349974,37.47868580299573],[126.93960805186647,37.47881956088202],[126.93962939109764,37.47883218428539],[126.93959047299921,37.478873966782245],[126.93956513598411,37.478901169165745],[126.93952159307428,37.47894791733924],[126.9394576138615,37.47901661218183],[126.9393952866348,37.47908353288366],[126.93933295928946,37.47915046256177],[126.93929061556584,37.47919592284641],[126.93920122055621,37.4792919225371],[126.93914441502945,37.47935289039278],[126.93906134527559,37.47944203668947],[126.93903407399985,37.47947130483217],[126.93897230052644,37.47953759489692],[126.9388833573101,37.47963314407945],[126.9388462636436,37.47967296671224],[126.93878185319673,37.47974211145214],[126.9387757106217,37.479786887980225],[126.93881510958478,37.479856736532035],[126.93887242450582,37.47995831884178],[126.93889097257075,37.47999120622807],[126.93894680879984,37.48009018382075],[126.93900083889999,37.48018596187373],[126.93901935322724,37.48021876813062],[126.93907269486475,37.48031332943225],[126.939098604849,37.480359247356986],[126.9390367193261,37.48038141713459],[126.93891152429626,37.480427662357364],[126.93874946042949,37.480487492993845],[126.93855459889568,37.48055946945852],[126.93849307554564,37.48058214190241],[126.93862405826452,37.480807453095146],[126.93859869984408,37.48081988242785],[126.93858118306602,37.48081095318318],[126.93856296125259,37.48083382891804],[126.93835871148701,37.480909584259614],[126.93827577783756,37.481129222113374],[126.93827865675958,37.48118777073701],[126.93825917469353,37.48123010738298],[126.93844758896103,37.48155402805593],[126.93850006389412,37.48164425531478],[126.93850955862939,37.48166056850532],[126.93854886977454,37.481728155563275],[126.93860256208957,37.48174214968675],[126.93867143052724,37.48171171446457],[126.93876273852106,37.48167136208498],[126.93888499130989,37.48161734883796],[126.93892455462748,37.4815998633425],[126.93904796083902,37.4815453279562],[126.93917746308347,37.48148810166214],[126.93929329108425,37.481436913745824],[126.9393329899293,37.48141937412429],[126.93944076485457,37.48137174979062],[126.93953791938553,37.48132881400619],[126.93957182707413,37.48131411302521],[126.93963153533713,37.48128822610039],[126.93967638850518,37.481365287018654],[126.93971942657808,37.481438912351734],[126.93977106785296,37.48152726452924],[126.93982269798028,37.48161557162703],[126.93986911212069,37.48169497408488],[126.93992212503541,37.481710498957014],[126.94000889154225,37.48167876583123],[126.94012442930695,37.481636514885736],[126.94016549403862,37.481621498498974],[126.9402837911434,37.481578230698126],[126.94038017037823,37.481542988373924],[126.94040076490415,37.48153544863486],[126.94044191999596,37.481520405168396],[126.94046251450946,37.4815128654185],[126.9405555799091,37.48147883759055],[126.94066118738753,37.48144021203123],[126.94074579316992,37.48140927013114],[126.94084046425387,37.48137464824288],[126.94090428547813,37.4813513054134],[126.94092987297432,37.4814021836782],[126.9409732300198,37.48148839570975],[126.94101774983223,37.481576914883455],[126.94106338726074,37.48166766008464],[126.94110785083483,37.48175608008283],[126.94115204362313,37.481843932293714],[126.9411817361941,37.481854678386696],[126.94120729384056,37.48184748342216],[126.94130341697375,37.481821313300856],[126.9414368583905,37.481784980764836],[126.94144364350473,37.48178318221158],[126.9414802822509,37.48177455121858],[126.94156430254299,37.4817547718454],[126.94160591688656,37.48174497203584],[126.94171503883186,37.48172250227531],[126.94172284112469,37.48172115472155],[126.94184960024008,37.481699054160984],[126.94197364545872,37.48167740259754],[126.94210119599634,37.48165512196533],[126.94228218213661,37.48162898467818],[126.94229838578451,37.48162644296567],[126.94233847957722,37.48159477482858],[126.94235001092265,37.4815385220671],[126.94236015621898,37.481490756044685],[126.94236733992325,37.48145655762195],[126.94238482900239,37.48137226866914],[126.94239609640648,37.48132088117745],[126.94239944605737,37.48130264658141],[126.94242035312357,37.48119938423753],[126.94242811424519,37.481164086876205],[126.94243232452943,37.48114408674599],[126.94245088956151,37.481057221452225],[126.9424544520513,37.481041464714636],[126.94245851682552,37.48101958141693],[126.94247083871699,37.4809642120148],[126.94248116466196,37.48091656319772],[126.94248678268613,37.48088915753449],[126.94249295601736,37.48086007628519],[126.94249779927435,37.48084023864804],[126.94250915769108,37.48078793216463],[126.9425145260432,37.48076169767693],[126.94252789328932,37.480699598305875],[126.9425331244416,37.48067529189206],[126.94253693613662,37.48065888655413],[126.94255131305762,37.48059235475497],[126.9425578583167,37.48056469726903],[126.94257676065179,37.480479850358954],[126.94258749685734,37.48042789494506],[126.94259903804515,37.48037303870552],[126.94262003975284,37.480278155673105],[126.94261519726204,37.48015305817668],[126.9425987682013,37.48011191925567],[126.94258989968851,37.480089119488674],[126.94258121336976,37.4800646709786],[126.94256318271646,37.48001869287366],[126.9425546277524,37.47999975855777],[126.94253393511268,37.479945940403994],[126.94250818781084,37.47987899212581],[126.94245319571212,37.47973598467385],[126.94239893037482,37.47973271393055],[126.94235167572414,37.47972807715007],[126.9423195696978,37.479724925583746],[126.942240890019,37.47971380381849],[126.9422061749967,37.47970731720581],[126.94216300447778,37.47969925859282],[126.94209270668034,37.47968279799797],[126.94208625225849,37.47968129007884],[126.94201085934392,37.479660078592914],[126.94193693880065,37.47963562419462],[126.94192090075622,37.479629471274414],[126.94187914985213,37.47961346643745],[126.9418649427968,37.47960801721514],[126.94179983278026,37.47957952168006],[126.94179487126765,37.47957734775811],[126.94172695033502,37.47954361594129],[126.94172016988114,37.47953982830249],[126.94166151896205,37.47950709224061],[126.94156908139895,37.4794523545681],[126.9415146133143,37.47942016115599],[126.94135245247482,37.47932420309241],[126.94119763728686,37.47923259138397],[126.94103444892419,37.47913602868542],[126.94086982584868,37.479038609071914],[126.94070449127803,37.47894077440056],[126.94064934588697,37.47890821983772],[126.94054564341246,37.478846862202076],[126.94043599719377,37.478781978484946],[126.94014847480459,37.478611846479836],[126.93996517488141,37.478503378622506],[126.9397839321011,37.47839613691654],[126.93969382506512,37.47834281355839],[126.9396531108238,37.478318726486016],[126.93962954038817,37.4783440323006],[126.93960922092268,37.47836584122275],[126.93949938038973,37.47830124755367]]]}}