{"type":"Feature","id":"moa-urban-8873","properties":{"id":"moa-urban-8873","project_name":"면목5동 152-1번지 일대","district":"중랑구","status":"관리지역고시","data_reference_date":"2025-11-30","source_url":"https://urban.seoul.go.kr/view/html/PMNU1100000001?seq=8873","source_api_url":"https://urban.seoul.go.kr/bsns/getBsnsInfo.json","present_sn":"11000UQ120PS202503070026","source_crs":"EPSG:5174","coordinate_transformation":"Official supplied boundary transformed locally from EPSG:5174 using the official website Proj4 definition to EPSG:4326; no geocoding or centroid inference.","point_coordinates":null},"geometry":{"type":"Polygon","coordinates":[[[127.08315253161811,37.58540301394015],[127.08314267357012,37.58531263389087],[127.08313939143173,37.58528259730315],[127.08312970149565,37.5851937289884],[127.08312195738758,37.58504537085454],[127.08311235968924,37.58486150435396],[127.08310611541454,37.58474186679302],[127.08305127465661,37.584660131228354],[127.08305825844519,37.584596309593394],[127.08306761594243,37.584518602128966],[127.08308325772364,37.5843793620108],[127.08310360300054,37.58420328634217],[127.0831070201376,37.58419109364421],[127.08315962930106,37.58400239086731],[127.08318455014317,37.583912050712556],[127.08321459543957,37.58380548745964],[127.0832437180677,37.583701106122454],[127.08326657265884,37.583619163662654],[127.08327186109136,37.5835996356387],[127.0833124494659,37.58345547682719],[127.08327287657244,37.58342046490143],[127.0830803734947,37.583427139215416],[127.08297335513844,37.58343040259547],[127.08287136468104,37.583434743596705],[127.08276551361021,37.58343910518661],[127.08267397148592,37.58344218645575],[127.08252465502243,37.583444505434876],[127.08242317253254,37.5834475032315],[127.08230662184756,37.58345115095359],[127.08222735160015,37.583453700905785],[127.08211933683883,37.58345692815343],[127.08200689556618,37.58346033851751],[127.08185637961678,37.58346326112968],[127.0817686069043,37.58346580754986],[127.08165638084493,37.583469343571814],[127.08150405500773,37.5834737445801],[127.08146222333342,37.583474872118245],[127.08133855105085,37.58347824440145],[127.08118916882711,37.58348270608213],[127.08107771221967,37.583485907669896],[127.0809759466243,37.58348894946252],[127.08088712104879,37.58349158603454],[127.08078455138343,37.58349441196617],[127.08066772809255,37.583497364494185],[127.08063017617215,37.58353083425833],[127.08063202708439,37.583578837541204],[127.08063428194048,37.58362340779706],[127.08063895677915,37.58371880103826],[127.08063996059751,37.5837473075552],[127.08064318986159,37.583813978337204],[127.08065264537382,37.58400843175185],[127.08065406836623,37.58403719026228],[127.08065765441258,37.58412002448507],[127.08066148790144,37.584201308845245],[127.08066271345531,37.58422536434166],[127.08066670434205,37.58431628914148],[127.08068395467863,37.58467623035226],[127.08068282110513,37.58472836214042],[127.0806905873234,37.584845539120174],[127.08069615589689,37.58496152827012],[127.08070065229208,37.58505931822829],[127.08070513491887,37.58514409796252],[127.08070812058234,37.585205137730554],[127.08071219685331,37.585301747674976],[127.08071689696624,37.58541011506007],[127.08072247237274,37.58553247416041],[127.08072615819344,37.58562384963527],[127.08072784850162,37.58565907703319],[127.0807321242156,37.58575153329264],[127.0807362054727,37.58583142093402],[127.08074004953372,37.58591183130485],[127.08074412094739,37.58599309745807],[127.08074776385777,37.586075985671314],[127.08074986705475,37.58611619523835],[127.08075636249868,37.58624124765109],[127.08076120959241,37.586338622896854],[127.08076687199383,37.586457468074364],[127.08076781096128,37.58647811802818],[127.0807785566549,37.586724836635845],[127.0809267625281,37.58675795636274],[127.08102521956782,37.58678027957682],[127.08105542260074,37.58678714275861],[127.08115112782338,37.586808855051565],[127.08124951699764,37.58683111505514],[127.08128036557854,37.586838121900946],[127.08138313755546,37.586861423974504],[127.08159103725507,37.58690856684612],[127.0819426031163,37.586988128119586],[127.08200852446701,37.587002895387855],[127.08221318629194,37.587049516798494],[127.08244602371977,37.587101803758344],[127.08268210053232,37.58715497099667],[127.08287273060635,37.587197393307875],[127.08292044213695,37.587208181249785],[127.0830996349923,37.587248574853646],[127.08354232334534,37.58734813328854],[127.08360635410814,37.587362504543464],[127.08360601316008,37.58736133349981],[127.08358474703653,37.58727584479019],[127.08351571820243,37.58699874970174],[127.08343944823605,37.58679800907822],[127.08341701126673,37.58673892902148],[127.08336935559588,37.5866134998707],[127.08336475251964,37.58659734839555],[127.08335595556085,37.58656650475717],[127.08332130879546,37.58644502459265],[127.08328855427733,37.586326871344546],[127.08325780719255,37.58621592728091],[127.08324682695688,37.58617633657607],[127.08323904268471,37.58611894018624],[127.08322562007586,37.58602005732037],[127.08320803143785,37.58589043571166],[127.0831962512872,37.58580360148123],[127.08318669163984,37.5857159746469],[127.08317438621813,37.58560323383896],[127.08316227518337,37.585492213775396],[127.08315253161811,37.58540301394015]]]}}