{"type":"Feature","id":"moa-urban-8803","properties":{"id":"moa-urban-8803","project_name":"자양1동 772-1번지 일대 모아타운","district":"광진구","status":"관리지역고시","data_reference_date":"2026-07-30","source_url":"https://urban.seoul.go.kr/view/html/PMNU1100000001?seq=8803","source_api_url":"https://urban.seoul.go.kr/bsns/getBsnsInfo.json","present_sn":"11215UQ120PS202608030001","source_crs":"EPSG:5174","coordinate_transformation":"Official supplied boundary transformed locally from EPSG:5174 using the official website Proj4 definition to EPSG:4326; no geocoding or centroid inference.","point_coordinates":null},"geometry":{"type":"Polygon","coordinates":[[[127.0786778920269,37.538105896369764],[127.07853745641613,37.53814032487472],[127.07840181685549,37.53817356077988],[127.07832264502505,37.53797170881783],[127.07818327310171,37.538006163240404],[127.07823149880004,37.53813044190159],[127.07826158460757,37.538207943774495],[127.07829660545411,37.53829822751781],[127.0783287221075,37.538380980838774],[127.07836035099776,37.53846246406742],[127.07836309463929,37.538517432750155],[127.07839393180633,37.53851645672763],[127.07840322403176,37.53866251961873],[127.07837782421882,37.538664175958615],[127.07839939142464,37.538797770128134],[127.07840192472662,37.53880762533897],[127.07840933172193,37.53883664149112],[127.07842210662945,37.53884821993889],[127.07846279904662,37.53886374456727],[127.07846799516246,37.538976437345084],[127.07873209360284,37.53888942729674],[127.07882033152285,37.53886195236581],[127.07880138169682,37.538930016744665],[127.07887021741867,37.53889406712079],[127.07888710120088,37.53888523534278],[127.07901436337,37.538868492547344],[127.07900410625624,37.53885179487339],[127.07910777071264,37.53880701955541],[127.079115042568,37.53882546710784],[127.07912774337018,37.538820025776175],[127.07914781190428,37.53883819461855],[127.07918596909492,37.53883106069829],[127.07948488006002,37.53877520041239],[127.07967469849639,37.538745225057056],[127.07979988877639,37.53871681493067],[127.07994949650192,37.538667179089785],[127.0799562396944,37.538677626126656],[127.07996210963556,37.538675342716324],[127.07996353701482,37.53867699058485],[127.07997218063625,37.53868701289188],[127.08003853159359,37.53876398565111],[127.08006043838844,37.53883013998643],[127.08008358243185,37.538900014593544],[127.08010544795258,37.53896989004609],[127.08013350072254,37.53905944806443],[127.08012874957443,37.539060451328886],[127.0801670616699,37.53915769698541],[127.08032705173893,37.53911382010786],[127.08033265167344,37.53912373629964],[127.08037726801379,37.53913655467077],[127.0804359583823,37.5391049356745],[127.08051831708974,37.539060596822466],[127.08061243582641,37.5389987077104],[127.0806692787251,37.53894288016218],[127.08069274377536,37.53891983506093],[127.08080327423346,37.53891674258286],[127.08084568357243,37.53908922716575],[127.080881002105,37.53923286671023],[127.08090329783506,37.53932352762085],[127.08093641207381,37.53945826681795],[127.08113249626116,37.53946727986744],[127.08122167277526,37.53947138230211],[127.08129113789468,37.53947456996343],[127.08149538055629,37.53948395531601],[127.0817210885669,37.53949433485134],[127.08177071333435,37.539239004890625],[127.0819001374888,37.539254729290796],[127.0819768052321,37.53926404740599],[127.08210742899557,37.539279914920435],[127.0820987469432,37.53932914207003],[127.08230546719861,37.53934896683551],[127.08232932654333,37.539198854155025],[127.08233585099418,37.53901675007156],[127.0823366286674,37.53899505724065],[127.08188359003307,37.53876909110417],[127.08175473464568,37.538699440083654],[127.08157801683129,37.53859029843168],[127.08150199580584,37.53854381817382],[127.08147162285422,37.538524924200296],[127.08136834029317,37.538458202586476],[127.08129864429463,37.538415842664584],[127.0812334352723,37.53836451209194],[127.08119953732661,37.53833652941026],[127.08109880847142,37.538251225562654],[127.0810603935939,37.53821770027362],[127.08105690948489,37.53821312647792],[127.08103995240687,37.538110995049315],[127.08099728867043,37.537984418964946],[127.08098714309602,37.53796437690049],[127.08093094540179,37.53782854678788],[127.08092787970024,37.53782266266313],[127.08089934111156,37.537801476081725],[127.08086487597897,37.53775360426552],[127.0807963756855,37.53765668451737],[127.08082481794463,37.53764040880709],[127.08132064383366,37.537356590013786],[127.08126118885984,37.53723805049734],[127.08124014266582,37.53724325983133],[127.08106257458459,37.537287311977266],[127.08102150246418,37.53729750283358],[127.08080891360896,37.53735023670994],[127.08067481529243,37.5373835012241],[127.08045831214314,37.53743720115466],[127.0802483807044,37.537489265510075],[127.08004886695106,37.53753874572556],[127.07999015976378,37.53755329974363],[127.0799585212162,37.53756114137992],[127.07993414389325,37.53756640134703],[127.07981027107773,37.537597684914275],[127.07958315744793,37.5376550392937],[127.07952894105286,37.53766872516062],[127.07950276606817,37.537675346725244],[127.07937933403737,37.53770651241996],[127.07927051650465,37.53773400132391],[127.07924240722721,37.537741146680084],[127.07907573100393,37.5377835398504],[127.07891009600695,37.53782639160932],[127.07890266431686,37.537828315593885],[127.0788248624966,37.537847548685235],[127.07873959491994,37.53786863364243],[127.07881893833901,37.53807131412915],[127.0786778920269,37.538105896369764]]]}}