{"type":"Feature","id":"moa-urban-8810","properties":{"id":"moa-urban-8810","project_name":"시흥3동 1005번지 일대","district":"금천구","status":"관리지역고시","data_reference_date":"2025-11-30","source_url":"https://urban.seoul.go.kr/view/html/PMNU1100000001?seq=8810","source_api_url":"https://urban.seoul.go.kr/bsns/getBsnsInfo.json","present_sn":"11545UQ120PS202605040001","source_crs":"EPSG:5174","coordinate_transformation":"Official supplied boundary transformed locally from EPSG:5174 using the official website Proj4 definition to EPSG:4326; no geocoding or centroid inference.","point_coordinates":null},"geometry":{"type":"Polygon","coordinates":[[[126.90743493064237,37.44350588045486],[126.90799820464248,37.4430194420522],[126.90794868810384,37.442618147377516],[126.90793357313159,37.44255990330834],[126.9079221469622,37.4425158620332],[126.90795125249656,37.442491693028074],[126.907874789135,37.44223364704071],[126.90783872535137,37.44211070303735],[126.9077459081179,37.44179650221497],[126.90768234178383,37.441857936519966],[126.90588069900565,37.44185649261403],[126.90587866716629,37.44185477905603],[126.90586838429361,37.44185459954455],[126.9057487187545,37.4418525294487],[126.90565402591201,37.44185089395007],[126.9055574120915,37.44184922978594],[126.90543017565416,37.44184703609041],[126.90528553745459,37.44184453076008],[126.90515332909489,37.44184225162818],[126.90513637930697,37.44184195849697],[126.90497479132958,37.44183916866287],[126.90480879641984,37.441836302921935],[126.90451014122367,37.441831138706114],[126.90448187097832,37.44185536161227],[126.90437994409565,37.44185526888713],[126.90438799178075,37.441923661962555],[126.90439977286246,37.442023674453445],[126.90441034692577,37.442113342385234],[126.90441352135495,37.442140285113474],[126.90443023185112,37.44228211739823],[126.904393433669,37.44231644257909],[126.90406141322217,37.442332747844844],[126.90387562635678,37.44234187490166],[126.90388188445142,37.44239576030937],[126.9038884567362,37.442451357889674],[126.90396872576302,37.442439801163644],[126.90400383111336,37.44246929306813],[126.9040358968856,37.44246382337157],[126.9040344756698,37.4424531002124],[126.90416499802485,37.44244834234038],[126.90416971973814,37.44249419849147],[126.90417196621365,37.44251601192659],[126.90425649429703,37.4424765290878],[126.90445242583338,37.442468128767295],[126.90446285151788,37.44255641081658],[126.9044907295573,37.442792407512314],[126.90449389285953,37.44281926012545],[126.904501862811,37.44288675211096],[126.90450978815718,37.44295379355492],[126.90451909939995,37.44303272943037],[126.90452228520654,37.443059672160864],[126.9045293833214,37.443119775167155],[126.90453967845046,37.44320691101168],[126.90454601642668,37.443260616240735],[126.90456267219437,37.4434014573272],[126.90457964094696,37.44354500168611],[126.9045932115216,37.443659801125065],[126.9046037235962,37.44374531532116],[126.9046189856161,37.44387173913176],[126.90462007013697,37.44388075009187],[126.90462815401345,37.443947701545895],[126.90463202260113,37.44397978056935],[126.90464634558373,37.444098364840215],[126.90466282650027,37.444234871905465],[126.90467917324057,37.44437031566707],[126.90469262421976,37.44448169115402],[126.90469820361213,37.44452791738382],[126.9047018933083,37.44455855464411],[126.90471765872397,37.44468921356979],[126.90473163513916,37.444805094511445],[126.9045761248383,37.44481646392556],[126.90444920760778,37.44482573925262],[126.90433054052649,37.4448344175522],[126.90414666300772,37.44484786242053],[126.9041478359004,37.44490201390442],[126.90414911584607,37.444960760611366],[126.90414838920933,37.44509419913868],[126.90414822754218,37.44512303122679],[126.90414327348924,37.4452746666072],[126.90414293211062,37.445285208106576],[126.904138601669,37.44535674448553],[126.9041331166333,37.445447201056375],[126.9041190069775,37.44560910036191],[126.90411694973331,37.44562693860209],[126.90410036831118,37.44577071301259],[126.90408043238737,37.445909554342904],[126.90407722802856,37.44593180656915],[126.90407061183616,37.44597072460801],[126.90404989769988,37.4460926137456],[126.90404009241166,37.44614198083031],[126.90439022042476,37.44621447573116],[126.9046146050354,37.44626093560217],[126.90470219204681,37.44627907075715],[126.9048242337458,37.445910165134336],[126.90492077794958,37.44561840796209],[126.90488089304407,37.44528824644497],[126.9048669720022,37.44517299628043],[126.90482732232611,37.4448448171281],[126.90482406853265,37.444817874358336],[126.90481713605423,37.4447604745433],[126.90480976750405,37.44469947034264],[126.90479292832713,37.44456007078281],[126.90494605775777,37.4445455095727],[126.90494812519286,37.44456353140184],[126.90506385787785,37.44455155240149],[126.90523665571162,37.44454145783706],[126.90551862461265,37.44452498250261],[126.9055860759008,37.44444646945128],[126.90561409765398,37.44441378563446],[126.90571531978019,37.444295745693],[126.90573781853843,37.44426953561029],[126.90611865378699,37.444369053468925],[126.90627964747485,37.444577586217285],[126.90654415754874,37.44460536985309],[126.90650261395957,37.44504555045469],[126.90647818228406,37.445304498222704],[126.90705617517493,37.44533181153978],[126.90710021613066,37.445356894718344],[126.90708674641527,37.44528444300335],[126.90735656719505,37.444322923395475],[126.90754932509866,37.44411965642045],[126.90758366724667,37.444083436200714],[126.90782434419101,37.44382963330782],[126.90743493064237,37.44350588045486]]]}}