{"type":"Feature","id":"moa-urban-8834","properties":{"id":"moa-urban-8834","project_name":"홍은동 10-18번지 일대","district":"서대문구","status":"관리지역고시","data_reference_date":"2025-12-04","source_url":"https://urban.seoul.go.kr/view/html/PMNU1100000001?seq=8834","source_api_url":"https://urban.seoul.go.kr/bsns/getBsnsInfo.json","present_sn":"11410UQ120PS202605070001","source_crs":"EPSG:5174","coordinate_transformation":"Official supplied boundary transformed locally from EPSG:5174 using the official website Proj4 definition to EPSG:4326; no geocoding or centroid inference.","point_coordinates":null},"geometry":{"type":"Polygon","coordinates":[[[126.9491904262593,37.60168498153588],[126.9492076134264,37.60167314122696],[126.9492491383619,37.60156458395148],[126.9492589429389,37.601504591826995],[126.94926192674974,37.60144971516654],[126.94925578671445,37.601420646731825],[126.94923557986148,37.601380111560616],[126.94923090950832,37.601370766296434],[126.94922431790059,37.601357527933594],[126.94919792810883,37.60131694496671],[126.94919162623648,37.60130880629505],[126.949182835305,37.60129744099966],[126.94913715157146,37.60123726208779],[126.94910241985302,37.60119112533986],[126.94907607445384,37.60118427517455],[126.94902508777645,37.601207902416164],[126.94896730608895,37.60123220234773],[126.94888839982823,37.601263519600685],[126.94878204680192,37.60130645623275],[126.94872596195255,37.6013170438403],[126.9486775043361,37.601319049367675],[126.94862806034313,37.60133870379214],[126.94859307857067,37.6014189377785],[126.94856440095832,37.60147194687187],[126.9485604536457,37.60148109908937],[126.94854529448124,37.60150746316167],[126.94853589936122,37.60151782025046],[126.94851260115408,37.60153823417586],[126.94848952273696,37.60155370269901],[126.9483401520898,37.601669301001046],[126.9483154568165,37.60168113689842],[126.94824052546629,37.601743026764524],[126.94822622272964,37.6017591920527],[126.94819217228807,37.601818838871566],[126.94815810393112,37.601871782357875],[126.94812807210859,37.60197933624281],[126.94812128141166,37.60221633585628],[126.94813495665548,37.60236532588875],[126.94811122957812,37.602400606658115],[126.948021951477,37.60253546770328],[126.94801919823608,37.60253744861782],[126.94792661055486,37.60264583810944],[126.94783613278264,37.60274888565721],[126.94779583656127,37.602800105320114],[126.94759107754682,37.602972752888356],[126.94758850605821,37.60302098132756],[126.94762389725314,37.60304761613217],[126.94762387856994,37.6030735148766],[126.94781449188397,37.60323247297414],[126.9478735083291,37.60320084468153],[126.94801864036124,37.603126726331915],[126.94813750967585,37.603058802798536],[126.9482043810326,37.602958168008065],[126.94822152856216,37.60297077149362],[126.94835010356037,37.60306522636321],[126.94843073159593,37.60311434910573],[126.94844964658299,37.603125872173365],[126.94846454118799,37.60313608700562],[126.94852901786062,37.60314288325368],[126.94854914988375,37.60319325633201],[126.94857253860621,37.60325037112026],[126.94868704430438,37.60324328844989],[126.94878285450508,37.603250495013334],[126.94879732650625,37.603251465530484],[126.94883327043331,37.60318880200529],[126.94884436108477,37.603167075248784],[126.94886143108431,37.60308263464181],[126.94889479185566,37.603053611743675],[126.94890021760108,37.603035639554086],[126.9489185310082,37.602939829087006],[126.94900639332198,37.60283430184572],[126.94907688166525,37.60282532425836],[126.949235827537,37.602788440960474],[126.9492310769824,37.60275764686328],[126.94919530421116,37.60271090603464],[126.9491586656075,37.602637685822735],[126.9491343927409,37.60261370800443],[126.94909845432899,37.602559515942694],[126.94906101127111,37.602503268959616],[126.94901746068932,37.60243785625055],[126.9489726894567,37.602367559653466],[126.94891598789528,37.6022911490572],[126.9489132046054,37.60225704560984],[126.94892456735793,37.60220407377351],[126.94892823825205,37.602138755041025],[126.94893006469609,37.60211807829431],[126.94894166696012,37.60209321633158],[126.94896724299934,37.60203834073633],[126.94898047955809,37.602009939534724],[126.9490086034664,37.60195350636313],[126.94904969651435,37.60186554994896],[126.94909528014814,37.60177994527768],[126.9491139332231,37.601760916689635],[126.9491904262593,37.60168498153588]]]}}