{"type":"Feature","id":"moa-urban-8869","properties":{"id":"moa-urban-8869","project_name":"망우동 474-29","district":"중랑구","status":"관리지역고시","data_reference_date":"2025-12-26","source_url":"https://urban.seoul.go.kr/view/html/PMNU1100000001?seq=8869","source_api_url":"https://urban.seoul.go.kr/bsns/getBsnsInfo.json","present_sn":"11000UQ120PS202503070021","source_crs":"EPSG:5174","coordinate_transformation":"Official supplied boundary transformed locally from EPSG:5174 using the official website Proj4 definition to EPSG:4326; no geocoding or centroid inference.","point_coordinates":null},"geometry":{"type":"Polygon","coordinates":[[[127.09644120689819,37.59228046186276],[127.09655466882894,37.592241691310186],[127.09658749068768,37.59223045663516],[127.09670670158688,37.59218943785485],[127.09681207128718,37.59215368286742],[127.09683231192153,37.59211461786274],[127.09678311268809,37.59202444201143],[127.09673572876046,37.59193704871575],[127.09669372955223,37.59186171794261],[127.09663538237382,37.59175591461813],[127.09658986095175,37.59167263725785],[127.09653233959467,37.591564241081414],[127.09648766852159,37.59148168378203],[127.09643761785526,37.59138909382309],[127.09638519567507,37.59129240626778],[127.0963763759842,37.59127508742324],[127.09635969236997,37.591244115971165],[127.09616608082767,37.59131138570484],[127.0960176689792,37.59128006925887],[127.09598259326083,37.59127261015202],[127.09584515626932,37.59124370835414],[127.09570495019223,37.591227647635],[127.09556912133587,37.59121684501147],[127.09545416228741,37.591207728486665],[127.09530817605429,37.59119610473955],[127.09517802075528,37.59118593685694],[127.0950852352362,37.59117976661657],[127.09477202120361,37.59115970717814],[127.09477841160115,37.5910961007293],[127.09478798141313,37.59099803901851],[127.09479818989804,37.590894615942375],[127.0948020146841,37.590856519291556],[127.0948101778187,37.5907745052224],[127.0948146297516,37.590730876029255],[127.09478176526457,37.59068948373647],[127.09466268721272,37.590663404153375],[127.09461831365108,37.59065398782985],[127.09449066255512,37.59062632009134],[127.09437257088602,37.590601140422955],[127.0942590073648,37.5905751912419],[127.09419900350947,37.59056152538199],[127.09414067588126,37.590548236589875],[127.09402726027102,37.5905227375618],[127.0939356354221,37.590502176782216],[127.09370626721137,37.59045028822892],[127.09369014341016,37.59061515398077],[127.09368647621861,37.59065295314945],[127.09367230303553,37.59079287811628],[127.09364117068134,37.59109991291338],[127.09362137132783,37.5912960726989],[127.09360186411894,37.591490493346626],[127.0935939565964,37.59156974110117],[127.09358595785407,37.591648484373955],[127.09357793552859,37.59172647984645],[127.0935699716865,37.59180600694532],[127.09356228943716,37.59187515448227],[127.09355341912574,37.59196337678456],[127.09354611870943,37.592048390356474],[127.09354087697292,37.592104147358235],[127.0935365687306,37.59215479505002],[127.0935298597559,37.59223279849858],[127.09352556793351,37.59227840066351],[127.09352072331835,37.59233485111064],[127.0935184572706,37.59236124270895],[127.09352445913686,37.592426253062634],[127.09349565692371,37.592686389686676],[127.09348665764075,37.5927435551433],[127.09347121678329,37.59288449913636],[127.09345507389156,37.59302547971017],[127.09343940136323,37.59317148740422],[127.09342202569866,37.5933229383633],[127.09340481405783,37.593478921138775],[127.09339191912288,37.59361868283281],[127.09338307637519,37.59365872584759],[127.09337990946595,37.59367726516042],[127.0933646520217,37.593820353316794],[127.09335255872502,37.593930706252884],[127.09334459898344,37.594004737300594],[127.0934132391377,37.59407813210876],[127.09343806592818,37.59408348264373],[127.09354661503443,37.59410672454376],[127.0936881456439,37.594136923222244],[127.09371646086242,37.59414298275207],[127.09385171707981,37.5941719427767],[127.09398988438497,37.594201666202125],[127.0940204648962,37.594208228435434],[127.09415977822445,37.59423977075149],[127.09420413161463,37.59424951161064],[127.09432690826844,37.59427696723511],[127.09443944499866,37.59430127734877],[127.09446774908412,37.59430739076597],[127.09455766718318,37.59432652890713],[127.09466608131336,37.59434993205987],[127.09469470256167,37.59435610824117],[127.09480168959165,37.59437913398243],[127.09490854066348,37.59440204260618],[127.0949428930758,37.59440951160978],[127.09505699295477,37.59443394603449],[127.09523851707505,37.594472319117436],[127.09527921101244,37.59435382541912],[127.09531667773346,37.59424435311945],[127.0953572600027,37.59412730105303],[127.09537272814629,37.5940017005825],[127.09541299222323,37.59388390993821],[127.0954456151557,37.593785757802635],[127.09546738914419,37.59371351758594],[127.09550228427538,37.59361251651353],[127.09550743798444,37.59359588925225],[127.09554267861286,37.593490590196275],[127.09556119855837,37.5934240377609],[127.09560104690539,37.59330029186674],[127.09563317432755,37.59320468084029],[127.09563306313464,37.593204499831124],[127.09567573867116,37.59314913095081],[127.09569169844771,37.593099771312616],[127.09572468704582,37.59299853472636],[127.09575695476678,37.59289767982102],[127.09576686913533,37.592867173587855],[127.09578944993818,37.59279768065859],[127.09582021856957,37.59270239501278],[127.09585113569574,37.59260819942978],[127.09590078916406,37.59245342559193],[127.09592374029623,37.592457695023256],[127.09592644530346,37.59245678286569],[127.09603819844472,37.592418347541276],[127.09607039793156,37.5924072937055],[127.09618292085335,37.59236883960754],[127.09628925282294,37.59233255273517],[127.09629585115472,37.59233028596674],[127.09632952205072,37.59231885246535],[127.09633569013619,37.59231660405995],[127.09644120689819,37.59228046186276]]]}}