{"type":"Feature","id":"moa-urban-8778","properties":{"id":"moa-urban-8778","project_name":"번동2지역(번동 454번지 일대)","district":"강북구","status":"관리지역고시","data_reference_date":"2026-07-09","source_url":"https://urban.seoul.go.kr/view/html/PMNU1100000001?seq=8778","source_api_url":"https://urban.seoul.go.kr/bsns/getBsnsInfo.json","present_sn":"11000UQ120PS202503070040","source_crs":"EPSG:5174","coordinate_transformation":"Official supplied boundary transformed locally from EPSG:5174 using the official website Proj4 definition to EPSG:4326; no geocoding or centroid inference.","point_coordinates":null},"geometry":{"type":"Polygon","coordinates":[[[127.03608626436163,37.63669771983066],[127.0360609871954,37.63667123848557],[127.03604817842569,37.63665745727407],[127.03604319134051,37.6366529538443],[127.03604186459978,37.63665039545552],[127.0360229028696,37.636634399635795],[127.03598584040373,37.63660224555961],[127.0359537656258,37.636575856274206],[127.03594177438907,37.63656591297782],[127.03591432376821,37.63654316228283],[127.03588791675031,37.63652316826955],[127.03585890320969,37.636501553248785],[127.03585731653735,37.63650038243934],[127.03581243750364,37.636469672146795],[127.03575497968681,37.636432298251215],[127.03574024706344,37.63642302245303],[127.03572324788082,37.636412305745466],[127.035683016775,37.636387540509595],[127.0356077695468,37.636345306410476],[127.03560425661975,37.63634359556736],[127.03552912511586,37.63630649695812],[127.0354751854475,37.63628173560115],[127.03544225497627,37.63626641042948],[127.03543937672102,37.63626516790747],[127.03533444393923,37.636217266002134],[127.03524549008502,37.636178729607025],[127.0351814659916,37.63615090767228],[127.0351399921311,37.63613317023206],[127.03502984833673,37.63608562993044],[127.03494293458277,37.63604817390045],[127.03492219776743,37.63603944028673],[127.03488061049431,37.63602116220034],[127.03477579304557,37.63597626001989],[127.03472298775986,37.6359536333155],[127.03467188237411,37.63593202421488],[127.03455148681977,37.636014227163436],[127.03443290335656,37.63609561860252],[127.0343973395212,37.6361198648219],[127.03435565973102,37.63614861762186],[127.03431352669013,37.63617728043515],[127.03423084636256,37.63623397489215],[127.0341427292891,37.636294184607486],[127.03406809017261,37.63634520056548],[127.03406153528852,37.63638241275834],[127.03411956581895,37.63643609501961],[127.03419221747353,37.63650337796946],[127.03421080543266,37.636520581497635],[127.03428073693662,37.63658507211437],[127.03435463560751,37.636653435789604],[127.03437923076275,37.636676223681384],[127.03440416581961,37.636699011473226],[127.03445675646562,37.63674773970373],[127.03451331400339,37.636799800419034],[127.03453666236446,37.63682114706161],[127.03459900049617,37.63687861198415],[127.03465635182374,37.63693184367826],[127.03467289974937,37.63694697545636],[127.03468902605533,37.63703310439701],[127.0346676196253,37.63704779634953],[127.03466071068554,37.637052573472175],[127.03461959643734,37.63708015493097],[127.03448923141184,37.637168036756],[127.03448232244955,37.637172813868084],[127.0343948839316,37.63723230279052],[127.03433349577023,37.63727430543881],[127.03428128166722,37.6373097283709],[127.03426791663757,37.637318741857825],[127.03422623600973,37.637347224313245],[127.03417119002093,37.6373840895454],[127.034152275165,37.63739706885652],[127.03414661206807,37.63740103472433],[127.03414060908075,37.6374050006858],[127.03412429913135,37.63741590702356],[127.03401953066712,37.63748693296688],[127.03393424330822,37.637544709094826],[127.03385948934577,37.637595364550734],[127.03380466970356,37.63763249984163],[127.03375211524667,37.63766801272835],[127.03365923874085,37.63773083620338],[127.03355967947769,37.637798166307505],[127.0334655567246,37.63786180084695],[127.0333604472302,37.63793309658547],[127.0332308717016,37.638019535230676],[127.03314773543458,37.63807649932712],[127.03308521320449,37.63811922240616],[127.03305463154437,37.63813986296951],[127.03299233546143,37.63818177505861],[127.03298418041351,37.63818745339215],[127.03289979757004,37.63824459784023],[127.03281711350016,37.63830039031056],[127.03278245409572,37.638323734816844],[127.03274598250412,37.63834852135655],[127.03266511063576,37.63840350236004],[127.03258084048925,37.63846037625498],[127.03250778371593,37.63850994922705],[127.03241977563928,37.63856961701785],[127.03233346645254,37.63862820312576],[127.0322309604416,37.63869895658274],[127.03214759613076,37.638756100222984],[127.03214465117884,37.63875808313779],[127.03213094584645,37.63876736676208],[127.03209662616501,37.638791341661246],[127.03200216160357,37.638856416675466],[127.03196466991287,37.63888147352822],[127.03194462152506,37.63889499336116],[127.03183259993307,37.63897133498228],[127.03178060983393,37.63900621615385],[127.03164955921349,37.63909634743299],[127.03154557865741,37.639166199688155],[127.03154027138858,37.63921043902961],[127.03160419605719,37.63926952686667],[127.0316872759894,37.639347260004776],[127.03176695582586,37.639421840534105],[127.03177964984769,37.63943282920345],[127.03187428965789,37.63951776706151],[127.03190591223378,37.63954704068668],[127.03192246135698,37.639565055970984],[127.0319404976393,37.63961802879076],[127.03194492162864,37.63963100172392],[127.03196455535615,37.639711453936215],[127.03197068367406,37.6397362292315],[127.03197964920874,37.639772536303745],[127.03198906913052,37.63981172638515],[127.03200609281087,37.639881818022964],[127.03200915696485,37.63989416062036],[127.0320155122817,37.63991983683114],[127.03203503275044,37.64000001876383],[127.03204138852749,37.64002677614541],[127.03205024153138,37.64006479509639],[127.0320606835201,37.64010957096477],[127.03208179402625,37.64019885234584],[127.03208746840764,37.64022164560059],[127.03210415052465,37.640287232421564],[127.03210914385754,37.64030696252882],[127.03211822131459,37.64033957555129],[127.0321394401537,37.64041642340473],[127.03215101351948,37.64045696437588],[127.03216031765271,37.64048966743315],[127.0321791522873,37.64055444280206],[127.03218096740518,37.640560028389075],[127.03219067471183,37.6406087687327],[127.03220049310993,37.64065210318307],[127.03222080815631,37.64073489770214],[127.0322286389504,37.64076642986545],[127.03223715093411,37.64080129546626],[127.0322490675837,37.64084976493476],[127.03226370798694,37.64090913551545],[127.03226994991621,37.64093418105363],[127.03228288725552,37.64098490269442],[127.03231033679064,37.64099825161981],[127.0323319569046,37.641008765785145],[127.03234747824864,37.64100623899506],[127.03241760746427,37.640994688144836],[127.0325185528321,37.64097835398234],[127.03262788212946,37.64096111654627],[127.03263717608874,37.640968772401365],[127.032694619841,37.64096785626135],[127.03274730494444,37.64096703145054],[127.03303122305023,37.64107747973546],[127.03303547576131,37.64107056720416],[127.03315186935188,37.64087934871044],[127.03321969006471,37.64076842022128],[127.03328796339859,37.640656590592],[127.03334808520815,37.640559719341766],[127.0333732135808,37.64050223021526],[127.03339449332933,37.64045330140614],[127.03345244595982,37.64031867973923],[127.03352624565771,37.64014945621654],[127.03359042342173,37.64000104783378],[127.03366580675637,37.639827318897716],[127.03376677035453,37.63959528968629],[127.03390146239063,37.63928441560657],[127.0340141951145,37.63902364175168],[127.03407157929885,37.63888965058893],[127.03412805759662,37.63875728140503],[127.03422868248438,37.6385345319184],[127.03439540805732,37.63816481450033],[127.03456756362142,37.63778013907436],[127.03466608802937,37.63768073360653],[127.03477650256539,37.63756835062601],[127.03483629993778,37.63751598695537],[127.03489564665881,37.63746947973631],[127.03496122223893,37.63741765495364],[127.03504163463894,37.63735483399223],[127.03511491166135,37.63729742087325],[127.0351471895787,37.63727173381459],[127.035250386483,37.637236025643126],[127.03530442027972,37.63721708965295],[127.03543469033855,37.63717146281057],[127.03558636984516,37.63711844162762],[127.03570780390734,37.637075970455705],[127.035908985462,37.63700572582968],[127.03606055208274,37.63695504661087],[127.03612217750715,37.63693872085838],[127.03617896252105,37.63692401014668],[127.03608626436163,37.63669771983066]]]}}