{"type":"Feature","id":"moa-urban-8870","properties":{"id":"moa-urban-8870","project_name":"망우본동 354-2","district":"중랑구","status":"사전자문","data_reference_date":"2025-11-30","source_url":"https://urban.seoul.go.kr/view/html/PMNU1100000001?seq=8870","source_api_url":"https://urban.seoul.go.kr/bsns/getBsnsInfo.json","present_sn":"11000UQ120PS202503070022","source_crs":"EPSG:5174","coordinate_transformation":"Official supplied boundary transformed locally from EPSG:5174 using the official website Proj4 definition to EPSG:4326; no geocoding or centroid inference.","point_coordinates":null},"geometry":{"type":"Polygon","coordinates":[[[127.10454244894453,37.601177239939815],[127.1044369679093,37.60117159269944],[127.10431617567484,37.60116525593395],[127.10428058097837,37.60116317862875],[127.10416703679367,37.601157249852236],[127.10404656176728,37.60115097560373],[127.10400964215992,37.601148899367644],[127.10400065272057,37.601257646803816],[127.10399310933383,37.6013556451567],[127.1039858919368,37.601443641413276],[127.10384880234757,37.60143626416707],[127.10373894939252,37.601430277720034],[127.1037148837179,37.601429001143906],[127.10333223489091,37.60140940209074],[127.10332735645986,37.601436021333825],[127.10331123630633,37.601523187313035],[127.10331153787952,37.60152843077341],[127.10331270538262,37.60155002452446],[127.10320314372606,37.60155431033461],[127.10309314609671,37.60155861263597],[127.10298007928806,37.60156269222738],[127.10285016330202,37.60156771418921],[127.10281664532788,37.60156898631621],[127.10270576377977,37.60157285654335],[127.10269369218388,37.60157287590131],[127.10256291498402,37.60157750185271],[127.10252677007571,37.60157899238209],[127.10238988939608,37.601583839600664],[127.1022865834217,37.60158749573357],[127.10221904896281,37.60158988691619],[127.10203925941892,37.60159542984788],[127.10203444456033,37.60150803680526],[127.10203109760829,37.60144442125222],[127.1020224859915,37.601280583938994],[127.10201826719555,37.60120020183276],[127.10201424628765,37.60112381091132],[127.10201046920531,37.6010518886567],[127.10201013203229,37.601045365827034],[127.10200974861765,37.60103814027],[127.10200633200688,37.60097321834509],[127.10197307646628,37.600950505841936],[127.10180231281191,37.60091145828991],[127.10167368947228,37.60088316851694],[127.10165041151578,37.60087802563413],[127.10163890271161,37.60087541353637],[127.10150354972447,37.60084469663177],[127.10133975491833,37.60080866980901],[127.10117149466106,37.600769709324176],[127.10109322156396,37.60075203502662],[127.10093217844177,37.6007156539327],[127.10082601715862,37.60069166903247],[127.10059273897065,37.60063896835592],[127.10059907117322,37.6007600641709],[127.1006061612965,37.600872005359356],[127.10060699756264,37.600879248560744],[127.10061205222077,37.60095918853927],[127.10061667370917,37.60104550783973],[127.10062128372896,37.60113171002055],[127.10062271209146,37.60115846801548],[127.10062736860529,37.6012455621285],[127.10063211797048,37.60133435000997],[127.10063675103481,37.60142082336244],[127.10064559956503,37.60158626342416],[127.10064852587372,37.60164098666773],[127.10065532418682,37.60176331641397],[127.10066219967632,37.60188405135273],[127.10066381114567,37.60191223274279],[127.10066414293426,37.60191819697059],[127.10071937587043,37.602037539798985],[127.10076847354557,37.60214500379485],[127.10081110898123,37.602238291735375],[127.10085509608336,37.60233456077445],[127.10090268360182,37.60243871036315],[127.10094293718205,37.60252893691537],[127.10099741951036,37.6026486045868],[127.1010405965956,37.602680508026445],[127.10113948840838,37.60275387271292],[127.10126592839633,37.6028494502911],[127.10141279498208,37.602959723493356],[127.10152120988126,37.60304042280474],[127.10155004800941,37.60306188680461],[127.10158717264608,37.60308956055257],[127.10208003114576,37.60345651733865],[127.10238408430062,37.603642103573826],[127.10242273288648,37.60367411848956],[127.10259455570879,37.60381312822909],[127.10270893515056,37.60390610172027],[127.10271859424796,37.60391389594759],[127.10275574484388,37.60394338027608],[127.1028772105324,37.60404223093944],[127.10302031978225,37.60415915459359],[127.10307218706778,37.604201212889635],[127.10310850024327,37.60423093208149],[127.10322383364354,37.60432494037506],[127.10334663798483,37.604424600278804],[127.10339905134605,37.60441008527031],[127.10339279051762,37.604278457137106],[127.10338630387089,37.604147306716214],[127.1033806966368,37.60402988650652],[127.1033796103326,37.60400559695555],[127.10337385456272,37.60389550185882],[127.10337326538934,37.60387867201359],[127.1033685132,37.60378201870774],[127.10336717429998,37.60375518860282],[127.10336281137278,37.60366993238823],[127.10335952541266,37.60360211826563],[127.10334789729136,37.60347908110688],[127.10334279398249,37.60337403093839],[127.10333830643894,37.60328870274621],[127.10333407061007,37.60320525738917],[127.10332853596785,37.603099441751944],[127.10332182781063,37.60298009436505],[127.1033181553058,37.602911118299005],[127.10331685089216,37.602884639543],[127.10331211402085,37.60279081529086],[127.1033051137044,37.60268972205846],[127.10330460024817,37.602678577345074],[127.10329733888702,37.60259366598521],[127.10329445450854,37.60253459824243],[127.1033627556951,37.60253248688946],[127.10345608784871,37.602530072775075],[127.10347952846442,37.602529466889564],[127.10348090346984,37.60252465445396],[127.10349067325774,37.60247256921137],[127.10348227892888,37.602445492921845],[127.10348509147221,37.60244020172341],[127.10350240731553,37.60240767930538],[127.10350489207492,37.60239454983967],[127.10353155216421,37.60233837755503],[127.10355567153867,37.60228755028815],[127.10357436037617,37.6022570899224],[127.10359380624084,37.60222539455243],[127.103614174179,37.60218065215072],[127.1036203054467,37.6021676006163],[127.10363252277703,37.60214156966416],[127.10365155931797,37.60211699240233],[127.10367329746082,37.602088835897426],[127.10369146342192,37.60206529551264],[127.10372566338292,37.601999494157646],[127.1037329035601,37.601994109020566],[127.10374692008456,37.60198368152021],[127.10375309808947,37.601971711117386],[127.10385518970689,37.60188310108293],[127.10408247083315,37.60176155943702],[127.10410059919455,37.601760273297245],[127.1041068382436,37.60175982639311],[127.10416811668573,37.601737221515975],[127.10419115579117,37.60172480395316],[127.10424069195403,37.60171117403138],[127.10424268433732,37.60171067675685],[127.10426095375342,37.60170492159466],[127.10427051858906,37.60170190398572],[127.10431381502346,37.60168824342566],[127.10432911843067,37.601691410566325],[127.10440651566947,37.6016309772732],[127.1044595296652,37.601593702437164],[127.10451080369401,37.60156755623394],[127.1045241509061,37.601498907710685],[127.10452939145041,37.60147240523042],[127.10454771429947,37.60138227292847],[127.10456603478096,37.60129045578631],[127.1045815446717,37.60121349740164],[127.10454244894453,37.601177239939815]]]}}