{"type":"Feature","id":"moa-urban-8797","properties":{"id":"moa-urban-8797","project_name":"은천동 635-540번지 일대","district":"관악구","status":"관리지역고시","data_reference_date":"2026-04-23","source_url":"https://urban.seoul.go.kr/view/html/PMNU1100000001?seq=8797","source_api_url":"https://urban.seoul.go.kr/bsns/getBsnsInfo.json","present_sn":"11620UQ120PS202604280002","source_crs":"EPSG:5174","coordinate_transformation":"Official supplied boundary transformed locally from EPSG:5174 using the official website Proj4 definition to EPSG:4326; no geocoding or centroid inference.","point_coordinates":null},"geometry":{"type":"Polygon","coordinates":[[[126.94131384422997,37.49127275361016],[126.9414412115469,37.491245725369566],[126.94150247365202,37.491234340832825],[126.9415301219876,37.4912043335518],[126.94161876179137,37.491105241485386],[126.94169821100597,37.49101700174897],[126.94177261965093,37.490939490320216],[126.94184196182862,37.49086267906473],[126.94187563968089,37.490829025695575],[126.94193785831511,37.490737506464136],[126.94199370626788,37.49065157019003],[126.9420673995302,37.49051994414065],[126.94212167624558,37.49040442717632],[126.94214991207463,37.49031718850914],[126.94218526279728,37.49021235687285],[126.94218446740513,37.49020295904123],[126.94218446392215,37.49019306605716],[126.94218445799794,37.49010047927159],[126.94216475522663,37.490021451655394],[126.94213034672613,37.48992170264844],[126.94209861696257,37.489823459647425],[126.94207279096176,37.489752168525094],[126.94203959319539,37.489651654246096],[126.94200318942244,37.48954461509903],[126.94197854887715,37.48947583834079],[126.94194297328936,37.489365546978114],[126.94191021722943,37.4892645553488],[126.94188466497832,37.489190741515785],[126.94185235872473,37.48909306577589],[126.94181941590224,37.48898551473962],[126.94176306802508,37.48891962312681],[126.94167836123995,37.48882610146471],[126.94162996041922,37.48877704449922],[126.94156838562937,37.48874361318761],[126.94146260915687,37.48868445384295],[126.9413044058967,37.48859173246056],[126.94126927958422,37.48857142402427],[126.94107820061052,37.48845852117864],[126.94095587848753,37.488390460038325],[126.94083517778762,37.48831710172047],[126.94069473081629,37.48823511955054],[126.94060294587577,37.488180301346716],[126.94058553462163,37.48816990293217],[126.94056603033296,37.48815544983403],[126.94050589625402,37.48809935944654],[126.94050592242226,37.488099160338955],[126.94040620507964,37.48801617170706],[126.94030178873315,37.487927657422155],[126.94023014457969,37.487861739121286],[126.94012651963862,37.48777384678019],[126.94005184243031,37.48769788063714],[126.94004967389083,37.487694942247124],[126.93996630423088,37.48758839156633],[126.93989167559579,37.48749500900319],[126.93982139796454,37.487404502855505],[126.9397373174072,37.487296987566204],[126.93968433164866,37.48723005154139],[126.93967754543866,37.487218812511685],[126.93966752564006,37.48720733752875],[126.93960418313242,37.487126367464796],[126.93953714681025,37.487041268845104],[126.93952742177343,37.48702890201393],[126.93949443041042,37.487053581129395],[126.93950756533924,37.48715383335859],[126.93951557307774,37.487219304268976],[126.93952725392613,37.487247102664085],[126.9394234266937,37.487254007474995],[126.93933860860189,37.48725964818465],[126.93920412848028,37.487267569214715],[126.93911045564673,37.48727485392164],[126.93905450523154,37.48727920321999],[126.93902403093102,37.487281682877686],[126.93900500005522,37.48728321352174],[126.93895011302932,37.48728690560279],[126.93894502461721,37.48728724528846],[126.93891771705228,37.48728877153503],[126.9387792092779,37.48729941997939],[126.93875559892716,37.48730112835169],[126.93873339112723,37.48730225181416],[126.93860922315358,37.48730976318576],[126.93846717556978,37.48732118424012],[126.93845047411713,37.48732246375764],[126.93842917043841,37.487324092205846],[126.93840482533223,37.48732554783555],[126.93829508522008,37.48733276024248],[126.9382292747231,37.48733749130397],[126.93812957490297,37.487345006264825],[126.93812002464321,37.48734547957231],[126.93806747446892,37.48734808138532],[126.9379109051053,37.48736361154453],[126.9378798212196,37.487364838188036],[126.9377062734158,37.487374844806574],[126.93765311698427,37.487377645229],[126.93755373304188,37.48738587166508],[126.93737291375966,37.48739705416807],[126.93731069921868,37.4874012550796],[126.93731012698939,37.48739608302507],[126.93731144105362,37.487380000878055],[126.93729703502046,37.487381119299734],[126.93727347052517,37.487382025510186],[126.93713891494212,37.487389094504735],[126.93714092076708,37.48743261663038],[126.93714626003717,37.48754845217702],[126.9371597647738,37.48766220184767],[126.937160781631,37.48768946667896],[126.93716252426329,37.487727435792166],[126.93720666076831,37.48778731329084],[126.93721684475321,37.48780476220423],[126.93727373025482,37.48788418931629],[126.93733830688276,37.48797425238412],[126.937403142935,37.48806524358662],[126.9374034292768,37.48808741736468],[126.93742906798202,37.48810737041546],[126.93756520302173,37.48821602374844],[126.9377652974722,37.48837083366457],[126.9377824941279,37.48838587162986],[126.93797178822896,37.48853079139084],[126.93798951954119,37.48852876466471],[126.93821727000652,37.48849953230443],[126.93823659510824,37.48857853336537],[126.93824168056342,37.48859521360706],[126.93846314462778,37.488565662056324],[126.93866356389982,37.48853853159828],[126.93873332869099,37.48853885701008],[126.93882857346428,37.48869559155847],[126.9389180968693,37.488839168389056],[126.93892264755941,37.48884648692326],[126.93892934376657,37.48885722138533],[126.93895094745028,37.4888895607215],[126.93899316841389,37.488957518500925],[126.93903466673797,37.48902434062189],[126.9390466363398,37.48904361033913],[126.93907865809247,37.489098299967935],[126.93920044282034,37.48930899111457],[126.93920013990304,37.4893197398888],[126.9391968710354,37.48937547404499],[126.93919161061123,37.48948742055949],[126.93916852938743,37.48977680967342],[126.93916816353938,37.489781638841784],[126.93916782119706,37.48978539583223],[126.9391375406396,37.49009759445145],[126.93925996217666,37.49007447628602],[126.93957941137361,37.49001412399417],[126.94019737609712,37.48990998435901],[126.940246791836,37.48994830250521],[126.94029549028687,37.489965005263166],[126.94042497303337,37.49017057241575],[126.94043908902547,37.49019297857888],[126.94047278675272,37.49024647035581],[126.94051449088458,37.490285180843564],[126.94062818267933,37.49038782736949],[126.94075664092178,37.490506131751744],[126.94069915615744,37.49057309153715],[126.94062261394544,37.49065925079613],[126.94066831541414,37.49076088913573],[126.94069664593923,37.490824090860684],[126.94072359947339,37.49088423747935],[126.9407523251388,37.49094832237309],[126.94075483527541,37.490962442335416],[126.94066490209116,37.490982028842694],[126.94069993145679,37.49109521248839],[126.94073540114806,37.491209351408166],[126.9407508343569,37.49126714948955],[126.94114535364821,37.4911843786417],[126.94117847066063,37.49130029119491],[126.94131384422997,37.49127275361016]]]}}