{"type":"Feature","id":"moa-urban-8858","properties":{"id":"moa-urban-8858","project_name":"신월3동 173번지 일대","district":"양천구","status":"관리지역고시","data_reference_date":"2025-11-30","source_url":"https://urban.seoul.go.kr/view/html/PMNU1100000001?seq=8858","source_api_url":"https://urban.seoul.go.kr/bsns/getBsnsInfo.json","present_sn":"11000UQ120PS202503070070","source_crs":"EPSG:5174","coordinate_transformation":"Official supplied boundary transformed locally from EPSG:5174 using the official website Proj4 definition to EPSG:4326; no geocoding or centroid inference.","point_coordinates":null},"geometry":{"type":"Polygon","coordinates":[[[126.82886590223916,37.5323096712647],[126.82915398303061,37.53205043132748],[126.82901256313022,37.53195309692642],[126.82898605455028,37.531968104785086],[126.8289572896671,37.53198031536238],[126.82892694750508,37.53198964135171],[126.82889525496716,37.53199581098365],[126.82886289087182,37.53199882705148],[126.82868457102693,37.53200631207117],[126.82844633822079,37.53201631200855],[126.8283733165114,37.531965307895945],[126.82821541011803,37.53185488397352],[126.82818377896598,37.5318350148119],[126.82814976508661,37.5318181163215],[126.82811348069298,37.53180409766478],[126.828091772732,37.53179793813853],[126.82807571916575,37.53179331950093],[126.8280365911612,37.53178587389232],[126.82799666349086,37.53178175986838],[126.82795650253996,37.531781160261225],[126.82791644566164,37.53178398366517],[126.82787705986934,37.53179014171566],[126.82783868435544,37.53179972591245],[126.82780177229105,37.53181246482318],[126.82749149003465,37.53193643063893],[126.82744902871646,37.53195150384344],[126.8274051033095,37.53196369169727],[126.82735994092688,37.531972635037576],[126.82731410797274,37.53197851309502],[126.82726771574336,37.53198114673541],[126.82722110478547,37.531980536460715],[126.82717495505307,37.53197668417539],[126.82712926429348,37.531969588074624],[126.8264333400906,37.5318366459025],[126.82640333495347,37.53179848942175],[126.82662652529949,37.53099307120942],[126.82664136091311,37.53098669612706],[126.82638623551887,37.53094198653947],[126.82626952973143,37.530921179787654],[126.82597346879093,37.53086838882222],[126.82586705321305,37.530849849449226],[126.82576052370993,37.530831669306984],[126.82540260349212,37.53076878381815],[126.82525905165616,37.531286814494415],[126.82509701590527,37.531869660889775],[126.82508408684178,37.53191616884366],[126.8250730518527,37.53195587622899],[126.82506089800911,37.531999871567955],[126.82505360637701,37.53202626787058],[126.8250312510006,37.53210721479486],[126.82492310112009,37.53249876422562],[126.82491912203047,37.53251317686189],[126.82490198916749,37.532574775537945],[126.82488213110146,37.53264727484939],[126.82486523922245,37.53270932707836],[126.82486478284737,37.53271094818255],[126.82484321149242,37.53279029246714],[126.82483602154865,37.532816680795776],[126.82480691622216,37.53292385447349],[126.82478602931155,37.53300076708865],[126.82475475550699,37.53311586533888],[126.82469380515748,37.533340298747426],[126.82468250638368,37.533381817587276],[126.82466972205101,37.53342909965256],[126.8246618460637,37.533458009719425],[126.82464997645646,37.53350168918158],[126.82463901847197,37.533542127335366],[126.8246319598688,37.53356841223066],[126.8249385927226,37.53362236931528],[126.8250145897298,37.53363572840671],[126.82506514338739,37.53364453906975],[126.82515057683716,37.533659576305006],[126.82529499502813,37.53368493137368],[126.82539055716502,37.53370174318632],[126.82551461874485,37.533723552855136],[126.82555284295402,37.53373027805804],[126.82555872385798,37.53373127791174],[126.82556844979779,37.533733004287505],[126.82568255925604,37.53375308796812],[126.82578569893118,37.53377117213196],[126.82580910922299,37.53377526142932],[126.82582635930434,37.533778285595],[126.82586041418533,37.53365676893421],[126.82587159674921,37.53361678149745],[126.8258807251885,37.53358381964737],[126.82590103643821,37.53351123075345],[126.82592100414374,37.53343990273391],[126.82594119977769,37.53336785425489],[126.82596105426781,37.53329652605843],[126.82598124982405,37.533224477570585],[126.82600144555232,37.53315233897937],[126.82602175627949,37.5330793896613],[126.82604183886916,37.53300770048852],[126.82606214867302,37.53293511155728],[126.82608280101599,37.532861171641464],[126.82620177231446,37.5328820729373],[126.82627584629975,37.53289506796663],[126.82639302751552,37.53290740608253],[126.82643148199058,37.53276853183056],[126.82646833892184,37.53263542154806],[126.82656365928634,37.53275431362477],[126.82661780663078,37.532821878174424],[126.8266676661136,37.532884120493975],[126.82671639879364,37.532944920436925],[126.82676659701318,37.53300752361195],[126.82681657080217,37.5330698561353],[126.82686597953257,37.53313146700724],[126.8269158403484,37.533193799320365],[126.82696547488885,37.53325568078117],[126.82701533649968,37.533317742754555],[126.82706553613765,37.53338043680144],[126.82711663732198,37.53344421244778],[126.82715298890975,37.53348989148459],[126.82716587362282,37.533483388221306],[126.8272464104233,37.53344260382645],[126.82733804771138,37.53339624869285],[126.8273899263463,37.53337001710971],[126.82744760334347,37.53338028424972],[126.82751528767672,37.533464987192055],[126.8275589441994,37.53351974175242],[126.82761636263982,37.53359172551859],[126.82768291909885,37.533675076113646],[126.82774902461459,37.533757794410924],[126.8277914404996,37.53381101537027],[126.82782517041865,37.53385314133199],[126.8279537715715,37.53401433775515],[126.8280079193192,37.5340821728546],[126.82805191514515,37.53413728812321],[126.8280964752744,37.534193034898315],[126.82814080868442,37.534248511025595],[126.82818649680081,37.5343057911089],[126.82823116964487,37.534361808294975],[126.82827471335735,37.53441638221945],[126.82830054785033,37.53444867564213],[126.82824007539399,37.53453814918487],[126.82829982693261,37.534563730416565],[126.8284188411048,37.53461598407532],[126.82851700145693,37.53465935842181],[126.82854554130168,37.53467158164193],[126.82879759579265,37.53477790903914],[126.828958469007,37.534539656014715],[126.82870800216938,37.53443197889056],[126.82878872156849,37.534313078573],[126.82868711027967,37.534269410181494],[126.82854108039173,37.534206576514556],[126.82854811898926,37.5341962254098],[126.82858161098831,37.53414663067165],[126.82862566132758,37.53408128401186],[126.8286406469158,37.53405914243402],[126.82866392109602,37.534024758586526],[126.82868583228924,37.533992175625606],[126.82871977791036,37.533942040914695],[126.82877325078142,37.533862742598956],[126.8287969779252,37.533827639493424],[126.82882570112952,37.53378524564873],[126.828895067441,37.533682455509165],[126.82894032076992,37.533683512735635],[126.82891899047999,37.53364428568558],[126.82895695705483,37.5335837088695],[126.82888218632212,37.53348079544379],[126.82860960806721,37.53315297597815],[126.82868438595123,37.53310686541024],[126.82867050280883,37.53309260940903],[126.82886436034202,37.5329727041469],[126.82886872147319,37.53294586094066],[126.8287385897362,37.53281052083446],[126.82877678799971,37.53277985376003],[126.82875284666405,37.53276080779476],[126.82877297246172,37.53257208106169],[126.82881238743808,37.53250483544883],[126.82891244747063,37.53241401659615],[126.82895716809233,37.53237341563689],[126.82886590223916,37.5323096712647]]]}}